<?xml version="1.0" encoding="UTF-8"?>
<gpx creator="Wikiloc - https://www.wikiloc.com" version="1.1" xmlns="http://www.topografix.com/GPX/1/1" xmlns:xsi="http://www.w3.org/2001/XMLSchema-instance" xsi:schemaLocation="http://www.topografix.com/GPX/1/1 http://www.topografix.com/GPX/1/1/gpx.xsd">
  <metadata>
    <name>Wikiloc - Annapurna Base Camp Trek</name>
    <link href="https://www.wikiloc.com/hiking-trails/annapurna-base-camp-trek-19395901">
      <text>Annapurna Base Camp Trek - Wikiloc on Wikiloc</text>
    </link>
    <time>2017-08-26T06:55:14Z</time>
  </metadata>
  <trk>
    <name>Annapurna Base Camp Trek - Wikiloc</name>
    <cmt></cmt>
    <desc></desc>
    <trkseg>
      <trkpt lat="28.295994" lon="83.767862">
        <ele>1048.584</ele>
        <time>2017-08-17T06:35:20Z</time>
      </trkpt>
      <trkpt lat="28.297591" lon="83.767552">
        <ele>984.607</ele>
        <time>2017-08-17T06:39:36Z</time>
      </trkpt>
      <trkpt lat="28.299619" lon="83.768878">
        <ele>980.117</ele>
        <time>2017-08-17T06:43:15Z</time>
      </trkpt>
      <trkpt lat="28.299481" lon="83.770223">
        <ele>982.608</ele>
        <time>2017-08-17T06:45:47Z</time>
      </trkpt>
      <trkpt lat="28.299919" lon="83.772094">
        <ele>985.139</ele>
        <time>2017-08-17T06:48:28Z</time>
      </trkpt>
      <trkpt lat="28.300504" lon="83.771451">
        <ele>982.897</ele>
        <time>2017-08-17T06:49:49Z</time>
      </trkpt>
      <trkpt lat="28.300648" lon="83.770154">
        <ele>984.031</ele>
        <time>2017-08-17T06:51:30Z</time>
      </trkpt>
      <trkpt lat="28.302566" lon="83.769792">
        <ele>992.527</ele>
        <time>2017-08-17T06:59:50Z</time>
      </trkpt>
      <trkpt lat="28.303774" lon="83.771092">
        <ele>973.443</ele>
        <time>2017-08-17T07:02:36Z</time>
      </trkpt>
      <trkpt lat="28.305528" lon="83.771209">
        <ele>968.987</ele>
        <time>2017-08-17T07:05:12Z</time>
      </trkpt>
      <trkpt lat="28.307232" lon="83.774233">
        <ele>980.178</ele>
        <time>2017-08-17T07:10:25Z</time>
      </trkpt>
      <trkpt lat="28.309576" lon="83.775389">
        <ele>992.419</ele>
        <time>2017-08-17T07:20:04Z</time>
      </trkpt>
      <trkpt lat="28.309727" lon="83.774411">
        <ele>991.957</ele>
        <time>2017-08-17T07:21:42Z</time>
      </trkpt>
      <trkpt lat="28.312155" lon="83.771648">
        <ele>1006.500</ele>
        <time>2017-08-17T07:27:45Z</time>
      </trkpt>
      <trkpt lat="28.311987" lon="83.769465">
        <ele>1034.320</ele>
        <time>2017-08-17T07:31:18Z</time>
      </trkpt>
      <trkpt lat="28.313066" lon="83.768161">
        <ele>1041.308</ele>
        <time>2017-08-17T07:33:59Z</time>
      </trkpt>
      <trkpt lat="28.313123" lon="83.767424">
        <ele>1050.976</ele>
        <time>2017-08-17T07:35:01Z</time>
      </trkpt>
      <trkpt lat="28.313809" lon="83.767291">
        <ele>1069.034</ele>
        <time>2017-08-17T07:36:28Z</time>
      </trkpt>
      <trkpt lat="28.313802" lon="83.765612">
        <ele>1098.488</ele>
        <time>2017-08-17T07:44:00Z</time>
      </trkpt>
      <trkpt lat="28.315066" lon="83.764596">
        <ele>1101.814</ele>
        <time>2017-08-17T07:46:45Z</time>
      </trkpt>
      <trkpt lat="28.315586" lon="83.763150">
        <ele>1107.640</ele>
        <time>2017-08-17T07:48:48Z</time>
      </trkpt>
      <trkpt lat="28.316424" lon="83.762512">
        <ele>1115.024</ele>
        <time>2017-08-17T07:50:42Z</time>
      </trkpt>
      <trkpt lat="28.315853" lon="83.762836">
        <ele>1113.545</ele>
        <time>2017-08-17T07:52:10Z</time>
      </trkpt>
      <trkpt lat="28.316107" lon="83.761860">
        <ele>1108.696</ele>
        <time>2017-08-17T07:54:59Z</time>
      </trkpt>
      <trkpt lat="28.316727" lon="83.761586">
        <ele>1117.275</ele>
        <time>2017-08-17T07:56:53Z</time>
      </trkpt>
      <trkpt lat="28.316986" lon="83.761808">
        <ele>1122.128</ele>
        <time>2017-08-17T07:57:44Z</time>
      </trkpt>
      <trkpt lat="28.318481" lon="83.760755">
        <ele>1124.520</ele>
        <time>2017-08-17T08:01:11Z</time>
      </trkpt>
      <trkpt lat="28.318992" lon="83.759592">
        <ele>1125.008</ele>
        <time>2017-08-17T08:02:54Z</time>
      </trkpt>
      <trkpt lat="28.319828" lon="83.758895">
        <ele>1132.188</ele>
        <time>2017-08-17T08:05:24Z</time>
      </trkpt>
      <trkpt lat="28.321396" lon="83.759292">
        <ele>1147.226</ele>
        <time>2017-08-17T08:08:53Z</time>
      </trkpt>
      <trkpt lat="28.321856" lon="83.758864">
        <ele>1142.890</ele>
        <time>2017-08-17T08:09:43Z</time>
      </trkpt>
      <trkpt lat="28.324833" lon="83.753924">
        <ele>1147.466</ele>
        <time>2017-08-17T08:19:00Z</time>
      </trkpt>
      <trkpt lat="28.324958" lon="83.752866">
        <ele>1152.482</ele>
        <time>2017-08-17T08:20:39Z</time>
      </trkpt>
      <trkpt lat="28.325937" lon="83.751732">
        <ele>1165.376</ele>
        <time>2017-08-17T08:23:13Z</time>
      </trkpt>
      <trkpt lat="28.325785" lon="83.751168">
        <ele>1155.397</ele>
        <time>2017-08-17T08:30:13Z</time>
      </trkpt>
      <trkpt lat="28.326291" lon="83.750980">
        <ele>1173.528</ele>
        <time>2017-08-17T09:15:11Z</time>
      </trkpt>
      <trkpt lat="28.326482" lon="83.749820">
        <ele>1181.424</ele>
        <time>2017-08-17T09:16:56Z</time>
      </trkpt>
      <trkpt lat="28.327362" lon="83.748906">
        <ele>1186.604</ele>
        <time>2017-08-17T09:19:32Z</time>
      </trkpt>
      <trkpt lat="28.327845" lon="83.747404">
        <ele>1196.114</ele>
        <time>2017-08-17T09:22:01Z</time>
      </trkpt>
      <trkpt lat="28.329424" lon="83.746193">
        <ele>1207.308</ele>
        <time>2017-08-17T09:26:36Z</time>
      </trkpt>
      <trkpt lat="28.330725" lon="83.744565">
        <ele>1227.123</ele>
        <time>2017-08-17T09:29:59Z</time>
      </trkpt>
      <trkpt lat="28.333221" lon="83.742609">
        <ele>1234.931</ele>
        <time>2017-08-17T09:35:50Z</time>
      </trkpt>
      <trkpt lat="28.334981" lon="83.742347">
        <ele>1256.785</ele>
        <time>2017-08-17T09:39:39Z</time>
      </trkpt>
      <trkpt lat="28.334866" lon="83.742850">
        <ele>1273.121</ele>
        <time>2017-08-17T09:41:22Z</time>
      </trkpt>
      <trkpt lat="28.335124" lon="83.742900">
        <ele>1275.777</ele>
        <time>2017-08-17T09:41:52Z</time>
      </trkpt>
      <trkpt lat="28.336154" lon="83.741134">
        <ele>1298.181</ele>
        <time>2017-08-17T09:45:47Z</time>
      </trkpt>
      <trkpt lat="28.338043" lon="83.740472">
        <ele>1326.852</ele>
        <time>2017-08-17T09:50:51Z</time>
      </trkpt>
      <trkpt lat="28.337856" lon="83.740761">
        <ele>1346.543</ele>
        <time>2017-08-17T09:52:51Z</time>
      </trkpt>
      <trkpt lat="28.338550" lon="83.740242">
        <ele>1361.029</ele>
        <time>2017-08-17T09:55:31Z</time>
      </trkpt>
      <trkpt lat="28.339088" lon="83.740489">
        <ele>1374.900</ele>
        <time>2017-08-17T09:57:33Z</time>
      </trkpt>
      <trkpt lat="28.339923" lon="83.740251">
        <ele>1391.520</ele>
        <time>2017-08-17T10:01:47Z</time>
      </trkpt>
      <trkpt lat="28.341515" lon="83.741916">
        <ele>1417.308</ele>
        <time>2017-08-17T10:07:14Z</time>
      </trkpt>
      <trkpt lat="28.343544" lon="83.741136">
        <ele>1439.553</ele>
        <time>2017-08-18T04:36:16Z</time>
      </trkpt>
      <trkpt lat="28.345993" lon="83.742032">
        <ele>1471.051</ele>
        <time>2017-08-18T04:42:17Z</time>
      </trkpt>
      <trkpt lat="28.348189" lon="83.741559">
        <ele>1461.825</ele>
        <time>2017-08-18T04:46:48Z</time>
      </trkpt>
      <trkpt lat="28.349763" lon="83.742999">
        <ele>1477.491</ele>
        <time>2017-08-18T04:52:08Z</time>
      </trkpt>
      <trkpt lat="28.350449" lon="83.743193">
        <ele>1479.237</ele>
        <time>2017-08-18T04:53:52Z</time>
      </trkpt>
      <trkpt lat="28.350366" lon="83.742763">
        <ele>1472.971</ele>
        <time>2017-08-18T04:55:07Z</time>
      </trkpt>
      <trkpt lat="28.350746" lon="83.742425">
        <ele>1463.852</ele>
        <time>2017-08-18T04:56:12Z</time>
      </trkpt>
      <trkpt lat="28.351653" lon="83.742414">
        <ele>1485.533</ele>
        <time>2017-08-18T04:59:11Z</time>
      </trkpt>
      <trkpt lat="28.351582" lon="83.741535">
        <ele>1523.772</ele>
        <time>2017-08-18T05:03:35Z</time>
      </trkpt>
      <trkpt lat="28.352753" lon="83.741261">
        <ele>1559.713</ele>
        <time>2017-08-18T05:13:12Z</time>
      </trkpt>
      <trkpt lat="28.353247" lon="83.739730">
        <ele>1644.714</ele>
        <time>2017-08-18T05:22:17Z</time>
      </trkpt>
      <trkpt lat="28.353662" lon="83.739488">
        <ele>1677.708</ele>
        <time>2017-08-18T05:38:23Z</time>
      </trkpt>
      <trkpt lat="28.353804" lon="83.738627">
        <ele>1718.448</ele>
        <time>2017-08-18T05:43:43Z</time>
      </trkpt>
      <trkpt lat="28.352849" lon="83.737721">
        <ele>1736.786</ele>
        <time>2017-08-18T05:48:03Z</time>
      </trkpt>
      <trkpt lat="28.353456" lon="83.736179">
        <ele>1841.480</ele>
        <time>2017-08-18T06:04:09Z</time>
      </trkpt>
      <trkpt lat="28.355478" lon="83.736169">
        <ele>1949.396</ele>
        <time>2017-08-18T06:21:41Z</time>
      </trkpt>
      <trkpt lat="28.356607" lon="83.735696">
        <ele>1985.792</ele>
        <time>2017-08-18T06:41:13Z</time>
      </trkpt>
      <trkpt lat="28.357587" lon="83.734348">
        <ele>2014.856</ele>
        <time>2017-08-18T06:45:54Z</time>
      </trkpt>
      <trkpt lat="28.358799" lon="83.733926">
        <ele>2042.437</ele>
        <time>2017-08-18T06:49:23Z</time>
      </trkpt>
      <trkpt lat="28.359095" lon="83.733090">
        <ele>2082.798</ele>
        <time>2017-08-18T07:04:03Z</time>
      </trkpt>
      <trkpt lat="28.360239" lon="83.732625">
        <ele>2101.284</ele>
        <time>2017-08-18T07:08:32Z</time>
      </trkpt>
      <trkpt lat="28.361769" lon="83.732746">
        <ele>2131.507</ele>
        <time>2017-08-18T07:13:02Z</time>
      </trkpt>
      <trkpt lat="28.364014" lon="83.733731">
        <ele>2157.017</ele>
        <time>2017-08-18T07:17:55Z</time>
      </trkpt>
      <trkpt lat="28.368130" lon="83.732910">
        <ele>2200.108</ele>
        <time>2017-08-18T07:29:23Z</time>
      </trkpt>
      <trkpt lat="28.368775" lon="83.731390">
        <ele>2234.349</ele>
        <time>2017-08-18T09:00:26Z</time>
      </trkpt>
      <trkpt lat="28.370221" lon="83.730457">
        <ele>2240.037</ele>
        <time>2017-08-18T09:03:42Z</time>
      </trkpt>
      <trkpt lat="28.372561" lon="83.726202">
        <ele>2252.171</ele>
        <time>2017-08-18T09:16:57Z</time>
      </trkpt>
      <trkpt lat="28.373898" lon="83.725062">
        <ele>2249.497</ele>
        <time>2017-08-18T09:19:49Z</time>
      </trkpt>
      <trkpt lat="28.374060" lon="83.723687">
        <ele>2275.183</ele>
        <time>2017-08-18T09:23:42Z</time>
      </trkpt>
      <trkpt lat="28.375820" lon="83.721587">
        <ele>2292.587</ele>
        <time>2017-08-18T09:30:20Z</time>
      </trkpt>
      <trkpt lat="28.376124" lon="83.719893">
        <ele>2318.818</ele>
        <time>2017-08-18T09:34:34Z</time>
      </trkpt>
      <trkpt lat="28.375834" lon="83.717380">
        <ele>2358.629</ele>
        <time>2017-08-18T09:41:16Z</time>
      </trkpt>
      <trkpt lat="28.377677" lon="83.717379">
        <ele>2363.222</ele>
        <time>2017-08-18T09:46:51Z</time>
      </trkpt>
      <trkpt lat="28.378773" lon="83.715979">
        <ele>2359.962</ele>
        <time>2017-08-18T09:50:40Z</time>
      </trkpt>
      <trkpt lat="28.378798" lon="83.714922">
        <ele>2390.108</ele>
        <time>2017-08-18T09:53:37Z</time>
      </trkpt>
      <trkpt lat="28.380177" lon="83.714949">
        <ele>2403.908</ele>
        <time>2017-08-18T09:58:34Z</time>
      </trkpt>
      <trkpt lat="28.381073" lon="83.714708">
        <ele>2433.473</ele>
        <time>2017-08-18T10:01:30Z</time>
      </trkpt>
      <trkpt lat="28.381095" lon="83.714386">
        <ele>2433.651</ele>
        <time>2017-08-18T10:02:14Z</time>
      </trkpt>
      <trkpt lat="28.381976" lon="83.714444">
        <ele>2437.615</ele>
        <time>2017-08-18T10:04:33Z</time>
      </trkpt>
      <trkpt lat="28.382808" lon="83.714021">
        <ele>2458.221</ele>
        <time>2017-08-18T10:06:48Z</time>
      </trkpt>
      <trkpt lat="28.382557" lon="83.713526">
        <ele>2465.437</ele>
        <time>2017-08-18T10:08:08Z</time>
      </trkpt>
      <trkpt lat="28.383030" lon="83.713099">
        <ele>2476.331</ele>
        <time>2017-08-18T10:09:43Z</time>
      </trkpt>
      <trkpt lat="28.383401" lon="83.711545">
        <ele>2462.722</ele>
        <time>2017-08-18T10:12:47Z</time>
      </trkpt>
      <trkpt lat="28.384029" lon="83.711209">
        <ele>2467.213</ele>
        <time>2017-08-18T10:15:10Z</time>
      </trkpt>
      <trkpt lat="28.383890" lon="83.710610">
        <ele>2460.844</ele>
        <time>2017-08-18T10:17:02Z</time>
      </trkpt>
      <trkpt lat="28.385314" lon="83.709749">
        <ele>2500.105</ele>
        <time>2017-08-19T05:03:00Z</time>
      </trkpt>
      <trkpt lat="28.385212" lon="83.709343">
        <ele>2503.915</ele>
        <time>2017-08-19T05:03:59Z</time>
      </trkpt>
      <trkpt lat="28.386146" lon="83.708806">
        <ele>2530.708</ele>
        <time>2017-08-19T05:07:03Z</time>
      </trkpt>
      <trkpt lat="28.386646" lon="83.707798">
        <ele>2546.035</ele>
        <time>2017-08-19T05:09:44Z</time>
      </trkpt>
      <trkpt lat="28.387498" lon="83.707883">
        <ele>2574.893</ele>
        <time>2017-08-19T05:13:30Z</time>
      </trkpt>
      <trkpt lat="28.387869" lon="83.706399">
        <ele>2593.177</ele>
        <time>2017-08-19T05:17:04Z</time>
      </trkpt>
      <trkpt lat="28.388904" lon="83.706372">
        <ele>2595.273</ele>
        <time>2017-08-19T05:19:44Z</time>
      </trkpt>
      <trkpt lat="28.391546" lon="83.704490">
        <ele>2619.589</ele>
        <time>2017-08-19T05:27:13Z</time>
      </trkpt>
      <trkpt lat="28.392963" lon="83.704523">
        <ele>2638.843</ele>
        <time>2017-08-19T05:31:22Z</time>
      </trkpt>
      <trkpt lat="28.394271" lon="83.702850">
        <ele>2677.274</ele>
        <time>2017-08-19T05:36:50Z</time>
      </trkpt>
      <trkpt lat="28.396348" lon="83.702339">
        <ele>2708.675</ele>
        <time>2017-08-19T05:44:23Z</time>
      </trkpt>
      <trkpt lat="28.397938" lon="83.701074">
        <ele>2741.175</ele>
        <time>2017-08-19T05:48:15Z</time>
      </trkpt>
      <trkpt lat="28.398847" lon="83.700827">
        <ele>2756.828</ele>
        <time>2017-08-19T05:52:01Z</time>
      </trkpt>
      <trkpt lat="28.400111" lon="83.699422">
        <ele>2766.020</ele>
        <time>2017-08-19T05:56:35Z</time>
      </trkpt>
      <trkpt lat="28.402492" lon="83.699936">
        <ele>2829.408</ele>
        <time>2017-08-19T06:04:11Z</time>
      </trkpt>
      <trkpt lat="28.402502" lon="83.700877">
        <ele>2831.258</ele>
        <time>2017-08-19T06:07:08Z</time>
      </trkpt>
      <trkpt lat="28.401144" lon="83.702829">
        <ele>2838.546</ele>
        <time>2017-08-19T06:11:47Z</time>
      </trkpt>
      <trkpt lat="28.401402" lon="83.705016">
        <ele>2868.010</ele>
        <time>2017-08-19T06:17:03Z</time>
      </trkpt>
      <trkpt lat="28.400381" lon="83.705897">
        <ele>2916.296</ele>
        <time>2017-08-19T06:22:51Z</time>
      </trkpt>
      <trkpt lat="28.398678" lon="83.705901">
        <ele>2964.572</ele>
        <time>2017-08-19T06:35:35Z</time>
      </trkpt>
      <trkpt lat="28.396650" lon="83.709438">
        <ele>3037.026</ele>
        <time>2017-08-19T06:47:13Z</time>
      </trkpt>
      <trkpt lat="28.396474" lon="83.710770">
        <ele>3063.517</ele>
        <time>2017-08-19T06:51:28Z</time>
      </trkpt>
      <trkpt lat="28.395493" lon="83.712373">
        <ele>3114.068</ele>
        <time>2017-08-19T06:58:00Z</time>
      </trkpt>
      <trkpt lat="28.395446" lon="83.716198">
        <ele>3150.859</ele>
        <time>2017-08-19T07:14:57Z</time>
      </trkpt>
      <trkpt lat="28.396325" lon="83.717827">
        <ele>3157.303</ele>
        <time>2017-08-19T07:19:49Z</time>
      </trkpt>
      <trkpt lat="28.396230" lon="83.718949">
        <ele>3156.723</ele>
        <time>2017-08-19T07:22:29Z</time>
      </trkpt>
      <trkpt lat="28.396541" lon="83.719478">
        <ele>3156.008</ele>
        <time>2017-08-19T07:23:53Z</time>
      </trkpt>
      <trkpt lat="28.396157" lon="83.722733">
        <ele>3147.786</ele>
        <time>2017-08-19T07:32:31Z</time>
      </trkpt>
      <trkpt lat="28.396426" lon="83.723748">
        <ele>3142.954</ele>
        <time>2017-08-19T07:35:15Z</time>
      </trkpt>
      <trkpt lat="28.395795" lon="83.725677">
        <ele>3134.618</ele>
        <time>2017-08-19T07:39:56Z</time>
      </trkpt>
      <trkpt lat="28.396484" lon="83.726821">
        <ele>3124.484</ele>
        <time>2017-08-19T07:44:30Z</time>
      </trkpt>
      <trkpt lat="28.396929" lon="83.728796">
        <ele>3069.050</ele>
        <time>2017-08-19T07:57:31Z</time>
      </trkpt>
      <trkpt lat="28.396016" lon="83.729554">
        <ele>3047.894</ele>
        <time>2017-08-19T09:34:27Z</time>
      </trkpt>
      <trkpt lat="28.395744" lon="83.732706">
        <ele>2988.095</ele>
        <time>2017-08-19T09:41:46Z</time>
      </trkpt>
      <trkpt lat="28.394854" lon="83.733663">
        <ele>2985.526</ele>
        <time>2017-08-19T09:44:30Z</time>
      </trkpt>
      <trkpt lat="28.395127" lon="83.734669">
        <ele>2964.664</ele>
        <time>2017-08-19T09:48:58Z</time>
      </trkpt>
      <trkpt lat="28.393906" lon="83.737099">
        <ele>2910.306</ele>
        <time>2017-08-19T09:59:22Z</time>
      </trkpt>
      <trkpt lat="28.394087" lon="83.739454">
        <ele>2820.916</ele>
        <time>2017-08-19T10:11:32Z</time>
      </trkpt>
      <trkpt lat="28.394528" lon="83.740489">
        <ele>2811.808</ele>
        <time>2017-08-19T10:14:40Z</time>
      </trkpt>
      <trkpt lat="28.394182" lon="83.741369">
        <ele>2804.087</ele>
        <time>2017-08-19T10:19:14Z</time>
      </trkpt>
      <trkpt lat="28.394357" lon="83.742169">
        <ele>2802.045</ele>
        <time>2017-08-19T10:20:11Z</time>
      </trkpt>
      <trkpt lat="28.393960" lon="83.742730">
        <ele>2793.799</ele>
        <time>2017-08-19T10:21:15Z</time>
      </trkpt>
      <trkpt lat="28.394440" lon="83.742679">
        <ele>2768.275</ele>
        <time>2017-08-19T10:22:41Z</time>
      </trkpt>
      <trkpt lat="28.394518" lon="83.743087">
        <ele>2751.441</ele>
        <time>2017-08-19T10:24:32Z</time>
      </trkpt>
      <trkpt lat="28.393731" lon="83.748357">
        <ele>2694.235</ele>
        <time>2017-08-19T10:35:52Z</time>
      </trkpt>
      <trkpt lat="28.394220" lon="83.749120">
        <ele>2658.956</ele>
        <time>2017-08-19T10:41:37Z</time>
      </trkpt>
      <trkpt lat="28.394505" lon="83.751265">
        <ele>2633.157</ele>
        <time>2017-08-19T10:46:44Z</time>
      </trkpt>
      <trkpt lat="28.393850" lon="83.752523">
        <ele>2642.652</ele>
        <time>2017-08-19T10:49:31Z</time>
      </trkpt>
      <trkpt lat="28.394148" lon="83.753877">
        <ele>2649.553</ele>
        <time>2017-08-19T10:53:12Z</time>
      </trkpt>
      <trkpt lat="28.395017" lon="83.754804">
        <ele>2665.008</ele>
        <time>2017-08-19T10:55:52Z</time>
      </trkpt>
      <trkpt lat="28.394409" lon="83.757198">
        <ele>2656.208</ele>
        <time>2017-08-19T10:59:54Z</time>
      </trkpt>
      <trkpt lat="28.394599" lon="83.757706">
        <ele>2629.026</ele>
        <time>2017-08-20T04:20:59Z</time>
      </trkpt>
      <trkpt lat="28.395639" lon="83.757647">
        <ele>2590.314</ele>
        <time>2017-08-20T04:25:53Z</time>
      </trkpt>
      <trkpt lat="28.395719" lon="83.758890">
        <ele>2515.438</ele>
        <time>2017-08-20T04:32:03Z</time>
      </trkpt>
      <trkpt lat="28.396642" lon="83.759773">
        <ele>2472.194</ele>
        <time>2017-08-20T04:38:13Z</time>
      </trkpt>
      <trkpt lat="28.395815" lon="83.760353">
        <ele>2514.320</ele>
        <time>2017-08-20T04:44:15Z</time>
      </trkpt>
      <trkpt lat="28.396177" lon="83.761871">
        <ele>2578.294</ele>
        <time>2017-08-20T04:53:37Z</time>
      </trkpt>
      <trkpt lat="28.395710" lon="83.762610">
        <ele>2606.615</ele>
        <time>2017-08-20T04:57:42Z</time>
      </trkpt>
      <trkpt lat="28.395731" lon="83.763485">
        <ele>2618.386</ele>
        <time>2017-08-20T05:00:05Z</time>
      </trkpt>
      <trkpt lat="28.396169" lon="83.765422">
        <ele>2643.119</ele>
        <time>2017-08-20T05:04:33Z</time>
      </trkpt>
      <trkpt lat="28.397526" lon="83.766052">
        <ele>2632.409</ele>
        <time>2017-08-20T05:10:37Z</time>
      </trkpt>
      <trkpt lat="28.400555" lon="83.765773">
        <ele>2592.119</ele>
        <time>2017-08-20T05:15:48Z</time>
      </trkpt>
      <trkpt lat="28.402555" lon="83.766532">
        <ele>2521.908</ele>
        <time>2017-08-20T05:22:55Z</time>
      </trkpt>
      <trkpt lat="28.402438" lon="83.766910">
        <ele>2489.782</ele>
        <time>2017-08-20T05:24:19Z</time>
      </trkpt>
      <trkpt lat="28.403581" lon="83.767965">
        <ele>2442.250</ele>
        <time>2017-08-20T05:28:37Z</time>
      </trkpt>
      <trkpt lat="28.402411" lon="83.769425">
        <ele>2411.274</ele>
        <time>2017-08-20T05:33:46Z</time>
      </trkpt>
      <trkpt lat="28.402397" lon="83.769986">
        <ele>2410.620</ele>
        <time>2017-08-20T05:34:18Z</time>
      </trkpt>
      <trkpt lat="28.405035" lon="83.773622">
        <ele>2301.676</ele>
        <time>2017-08-20T05:43:40Z</time>
      </trkpt>
      <trkpt lat="28.404609" lon="83.774785">
        <ele>2287.440</ele>
        <time>2017-08-20T05:47:35Z</time>
      </trkpt>
      <trkpt lat="28.404065" lon="83.775100">
        <ele>2269.451</ele>
        <time>2017-08-20T05:49:47Z</time>
      </trkpt>
      <trkpt lat="28.404184" lon="83.775698">
        <ele>2250.852</ele>
        <time>2017-08-20T05:51:56Z</time>
      </trkpt>
      <trkpt lat="28.404869" lon="83.775896">
        <ele>2237.645</ele>
        <time>2017-08-20T05:59:41Z</time>
      </trkpt>
      <trkpt lat="28.404943" lon="83.777020">
        <ele>2175.147</ele>
        <time>2017-08-20T06:04:44Z</time>
      </trkpt>
      <trkpt lat="28.405962" lon="83.776460">
        <ele>2143.211</ele>
        <time>2017-08-20T06:07:19Z</time>
      </trkpt>
      <trkpt lat="28.407519" lon="83.776875">
        <ele>2106.708</ele>
        <time>2017-08-20T06:11:06Z</time>
      </trkpt>
      <trkpt lat="28.407231" lon="83.777323">
        <ele>2088.865</ele>
        <time>2017-08-20T06:12:30Z</time>
      </trkpt>
      <trkpt lat="28.407706" lon="83.777743">
        <ele>2067.123</ele>
        <time>2017-08-20T06:14:19Z</time>
      </trkpt>
      <trkpt lat="28.408038" lon="83.779585">
        <ele>1962.797</ele>
        <time>2017-08-20T06:24:40Z</time>
      </trkpt>
      <trkpt lat="28.407476" lon="83.779935">
        <ele>1943.453</ele>
        <time>2017-08-20T06:26:33Z</time>
      </trkpt>
      <trkpt lat="28.407611" lon="83.780772">
        <ele>1923.219</ele>
        <time>2017-08-20T06:28:45Z</time>
      </trkpt>
      <trkpt lat="28.408631" lon="83.780489">
        <ele>1901.243</ele>
        <time>2017-08-20T06:31:30Z</time>
      </trkpt>
      <trkpt lat="28.408892" lon="83.781054">
        <ele>1873.074</ele>
        <time>2017-08-20T06:37:07Z</time>
      </trkpt>
      <trkpt lat="28.408597" lon="83.782142">
        <ele>1957.455</ele>
        <time>2017-08-20T06:51:30Z</time>
      </trkpt>
      <trkpt lat="28.407981" lon="83.782734">
        <ele>1967.976</ele>
        <time>2017-08-20T06:54:38Z</time>
      </trkpt>
      <trkpt lat="28.407925" lon="83.783857">
        <ele>1973.390</ele>
        <time>2017-08-20T06:56:32Z</time>
      </trkpt>
      <trkpt lat="28.408356" lon="83.784062">
        <ele>1979.019</ele>
        <time>2017-08-20T06:57:24Z</time>
      </trkpt>
      <trkpt lat="28.408832" lon="83.786742">
        <ele>1998.308</ele>
        <time>2017-08-20T07:02:25Z</time>
      </trkpt>
      <trkpt lat="28.410470" lon="83.787812">
        <ele>1990.928</ele>
        <time>2017-08-20T07:06:26Z</time>
      </trkpt>
      <trkpt lat="28.410667" lon="83.788867">
        <ele>2007.376</ele>
        <time>2017-08-20T07:09:24Z</time>
      </trkpt>
      <trkpt lat="28.410294" lon="83.789816">
        <ele>2022.960</ele>
        <time>2017-08-20T08:48:49Z</time>
      </trkpt>
      <trkpt lat="28.410661" lon="83.790657">
        <ele>2024.196</ele>
        <time>2017-08-20T08:50:18Z</time>
      </trkpt>
      <trkpt lat="28.410664" lon="83.793083">
        <ele>2059.632</ele>
        <time>2017-08-20T08:55:41Z</time>
      </trkpt>
      <trkpt lat="28.409520" lon="83.795227">
        <ele>2075.146</ele>
        <time>2017-08-20T08:59:40Z</time>
      </trkpt>
      <trkpt lat="28.410812" lon="83.797293">
        <ele>2145.887</ele>
        <time>2017-08-20T09:06:47Z</time>
      </trkpt>
      <trkpt lat="28.410749" lon="83.799544">
        <ele>2157.328</ele>
        <time>2017-08-20T09:09:48Z</time>
      </trkpt>
      <trkpt lat="28.410344" lon="83.800425">
        <ele>2156.555</ele>
        <time>2017-08-20T09:11:28Z</time>
      </trkpt>
      <trkpt lat="28.411623" lon="83.801794">
        <ele>2206.507</ele>
        <time>2017-08-20T09:18:36Z</time>
      </trkpt>
      <trkpt lat="28.411670" lon="83.802910">
        <ele>2230.217</ele>
        <time>2017-08-20T09:22:58Z</time>
      </trkpt>
      <trkpt lat="28.412330" lon="83.802987">
        <ele>2221.508</ele>
        <time>2017-08-20T09:24:18Z</time>
      </trkpt>
      <trkpt lat="28.412852" lon="83.802354">
        <ele>2218.546</ele>
        <time>2017-08-20T09:25:43Z</time>
      </trkpt>
      <trkpt lat="28.414611" lon="83.802214">
        <ele>2242.384</ele>
        <time>2017-08-20T09:30:13Z</time>
      </trkpt>
      <trkpt lat="28.415066" lon="83.802796">
        <ele>2241.978</ele>
        <time>2017-08-20T09:31:46Z</time>
      </trkpt>
      <trkpt lat="28.414479" lon="83.804802">
        <ele>2259.914</ele>
        <time>2017-08-20T09:38:18Z</time>
      </trkpt>
      <trkpt lat="28.414313" lon="83.809033">
        <ele>2262.210</ele>
        <time>2017-08-20T09:44:54Z</time>
      </trkpt>
      <trkpt lat="28.415402" lon="83.811401">
        <ele>2275.634</ele>
        <time>2017-08-20T09:49:45Z</time>
      </trkpt>
      <trkpt lat="28.416304" lon="83.811748">
        <ele>2274.325</ele>
        <time>2017-08-20T09:50:56Z</time>
      </trkpt>
      <trkpt lat="28.417299" lon="83.812790">
        <ele>2276.546</ele>
        <time>2017-08-20T09:52:44Z</time>
      </trkpt>
      <trkpt lat="28.417671" lon="83.814831">
        <ele>2307.976</ele>
        <time>2017-08-20T09:57:31Z</time>
      </trkpt>
      <trkpt lat="28.416988" lon="83.816092">
        <ele>2294.290</ele>
        <time>2017-08-20T09:59:49Z</time>
      </trkpt>
      <trkpt lat="28.417212" lon="83.817908">
        <ele>2249.919</ele>
        <time>2017-08-20T10:05:02Z</time>
      </trkpt>
      <trkpt lat="28.418361" lon="83.818466">
        <ele>2173.008</ele>
        <time>2017-08-20T10:10:26Z</time>
      </trkpt>
      <trkpt lat="28.419731" lon="83.817515">
        <ele>2101.328</ele>
        <time>2017-08-21T05:58:03Z</time>
      </trkpt>
      <trkpt lat="28.420847" lon="83.817603">
        <ele>2083.896</ele>
        <time>2017-08-21T06:01:46Z</time>
      </trkpt>
      <trkpt lat="28.421757" lon="83.816965">
        <ele>2032.230</ele>
        <time>2017-08-21T06:07:04Z</time>
      </trkpt>
      <trkpt lat="28.426049" lon="83.818958">
        <ele>1878.246</ele>
        <time>2017-08-21T06:22:09Z</time>
      </trkpt>
      <trkpt lat="28.427322" lon="83.820165">
        <ele>1866.392</ele>
        <time>2017-08-21T06:25:35Z</time>
      </trkpt>
      <trkpt lat="28.427479" lon="83.820934">
        <ele>1859.946</ele>
        <time>2017-08-21T06:27:54Z</time>
      </trkpt>
      <trkpt lat="28.427859" lon="83.820932">
        <ele>1816.667</ele>
        <time>2017-08-21T06:30:04Z</time>
      </trkpt>
      <trkpt lat="28.428123" lon="83.821456">
        <ele>1815.388</ele>
        <time>2017-08-21T06:30:57Z</time>
      </trkpt>
      <trkpt lat="28.428389" lon="83.822698">
        <ele>1830.928</ele>
        <time>2017-08-21T06:36:18Z</time>
      </trkpt>
      <trkpt lat="28.428199" lon="83.825891">
        <ele>1973.189</ele>
        <time>2017-08-21T06:49:33Z</time>
      </trkpt>
      <trkpt lat="28.429127" lon="83.827121">
        <ele>1982.317</ele>
        <time>2017-08-21T06:56:34Z</time>
      </trkpt>
      <trkpt lat="28.427954" lon="83.830004">
        <ele>2030.508</ele>
        <time>2017-08-21T07:05:49Z</time>
      </trkpt>
      <trkpt lat="28.430189" lon="83.831002">
        <ele>2083.673</ele>
        <time>2017-08-21T07:13:38Z</time>
      </trkpt>
      <trkpt lat="28.431866" lon="83.832890">
        <ele>2131.811</ele>
        <time>2017-08-21T07:21:29Z</time>
      </trkpt>
      <trkpt lat="28.432462" lon="83.834894">
        <ele>2162.065</ele>
        <time>2017-08-21T07:28:21Z</time>
      </trkpt>
      <trkpt lat="28.433925" lon="83.836621">
        <ele>2257.741</ele>
        <time>2017-08-21T07:42:41Z</time>
      </trkpt>
      <trkpt lat="28.434637" lon="83.838336">
        <ele>2303.997</ele>
        <time>2017-08-21T07:49:33Z</time>
      </trkpt>
      <trkpt lat="28.436295" lon="83.838531">
        <ele>2305.941</ele>
        <time>2017-08-21T09:29:36Z</time>
      </trkpt>
      <trkpt lat="28.440175" lon="83.842463">
        <ele>2317.062</ele>
        <time>2017-08-21T09:40:23Z</time>
      </trkpt>
      <trkpt lat="28.440859" lon="83.842487">
        <ele>2314.563</ele>
        <time>2017-08-21T09:41:52Z</time>
      </trkpt>
      <trkpt lat="28.442299" lon="83.844252">
        <ele>2355.355</ele>
        <time>2017-08-21T09:49:21Z</time>
      </trkpt>
      <trkpt lat="28.443426" lon="83.844415">
        <ele>2372.807</ele>
        <time>2017-08-21T09:52:29Z</time>
      </trkpt>
      <trkpt lat="28.444712" lon="83.845620">
        <ele>2387.517</ele>
        <time>2017-08-21T09:56:13Z</time>
      </trkpt>
      <trkpt lat="28.446923" lon="83.846067">
        <ele>2383.708</ele>
        <time>2017-08-21T10:01:34Z</time>
      </trkpt>
      <trkpt lat="28.448289" lon="83.845807">
        <ele>2392.296</ele>
        <time>2017-08-21T10:04:41Z</time>
      </trkpt>
      <trkpt lat="28.449126" lon="83.846153">
        <ele>2418.694</ele>
        <time>2017-08-21T10:07:20Z</time>
      </trkpt>
      <trkpt lat="28.449591" lon="83.847197">
        <ele>2413.448</ele>
        <time>2017-08-21T10:09:26Z</time>
      </trkpt>
      <trkpt lat="28.450391" lon="83.847772">
        <ele>2414.264</ele>
        <time>2017-08-21T10:10:58Z</time>
      </trkpt>
      <trkpt lat="28.450503" lon="83.849871">
        <ele>2416.870</ele>
        <time>2017-08-21T10:14:10Z</time>
      </trkpt>
      <trkpt lat="28.451084" lon="83.850540">
        <ele>2408.734</ele>
        <time>2017-08-21T10:18:55Z</time>
      </trkpt>
      <trkpt lat="28.451939" lon="83.850096">
        <ele>2394.695</ele>
        <time>2017-08-21T10:21:01Z</time>
      </trkpt>
      <trkpt lat="28.452724" lon="83.850970">
        <ele>2384.026</ele>
        <time>2017-08-21T10:23:23Z</time>
      </trkpt>
      <trkpt lat="28.454612" lon="83.855253">
        <ele>2278.348</ele>
        <time>2017-08-21T10:35:02Z</time>
      </trkpt>
      <trkpt lat="28.456490" lon="83.856744">
        <ele>2259.161</ele>
        <time>2017-08-21T10:40:21Z</time>
      </trkpt>
      <trkpt lat="28.457756" lon="83.857056">
        <ele>2271.217</ele>
        <time>2017-08-22T04:29:41Z</time>
      </trkpt>
      <trkpt lat="28.459511" lon="83.858404">
        <ele>2315.708</ele>
        <time>2017-08-22T04:35:29Z</time>
      </trkpt>
      <trkpt lat="28.461390" lon="83.860652">
        <ele>2357.935</ele>
        <time>2017-08-22T04:42:28Z</time>
      </trkpt>
      <trkpt lat="28.463563" lon="83.861013">
        <ele>2392.513</ele>
        <time>2017-08-22T04:48:09Z</time>
      </trkpt>
      <trkpt lat="28.463963" lon="83.861708">
        <ele>2389.357</ele>
        <time>2017-08-22T04:52:06Z</time>
      </trkpt>
      <trkpt lat="28.463792" lon="83.862021">
        <ele>2411.823</ele>
        <time>2017-08-22T04:54:14Z</time>
      </trkpt>
      <trkpt lat="28.465315" lon="83.862961">
        <ele>2439.169</ele>
        <time>2017-08-22T04:58:17Z</time>
      </trkpt>
      <trkpt lat="28.465867" lon="83.864797">
        <ele>2443.343</ele>
        <time>2017-08-22T05:02:31Z</time>
      </trkpt>
      <trkpt lat="28.467716" lon="83.866523">
        <ele>2435.114</ele>
        <time>2017-08-22T05:08:00Z</time>
      </trkpt>
      <trkpt lat="28.468783" lon="83.868223">
        <ele>2480.175</ele>
        <time>2017-08-22T05:12:05Z</time>
      </trkpt>
      <trkpt lat="28.469549" lon="83.868365">
        <ele>2464.276</ele>
        <time>2017-08-22T05:14:49Z</time>
      </trkpt>
      <trkpt lat="28.469431" lon="83.869213">
        <ele>2475.690</ele>
        <time>2017-08-22T05:16:24Z</time>
      </trkpt>
      <trkpt lat="28.470951" lon="83.871851">
        <ele>2499.219</ele>
        <time>2017-08-22T05:21:12Z</time>
      </trkpt>
      <trkpt lat="28.473207" lon="83.873719">
        <ele>2506.808</ele>
        <time>2017-08-22T05:28:32Z</time>
      </trkpt>
      <trkpt lat="28.473268" lon="83.874782">
        <ele>2512.988</ele>
        <time>2017-08-22T05:30:24Z</time>
      </trkpt>
      <trkpt lat="28.474052" lon="83.876717">
        <ele>2551.786</ele>
        <time>2017-08-22T05:35:03Z</time>
      </trkpt>
      <trkpt lat="28.475130" lon="83.877560">
        <ele>2559.120</ele>
        <time>2017-08-22T05:37:14Z</time>
      </trkpt>
      <trkpt lat="28.475292" lon="83.878345">
        <ele>2565.036</ele>
        <time>2017-08-22T05:38:57Z</time>
      </trkpt>
      <trkpt lat="28.476277" lon="83.878935">
        <ele>2567.882</ele>
        <time>2017-08-22T05:41:33Z</time>
      </trkpt>
      <trkpt lat="28.476360" lon="83.879720">
        <ele>2581.736</ele>
        <time>2017-08-22T05:43:24Z</time>
      </trkpt>
      <trkpt lat="28.477154" lon="83.880175">
        <ele>2576.727</ele>
        <time>2017-08-22T05:44:59Z</time>
      </trkpt>
      <trkpt lat="28.478247" lon="83.884039">
        <ele>2638.638</ele>
        <time>2017-08-22T05:55:18Z</time>
      </trkpt>
      <trkpt lat="28.479151" lon="83.884622">
        <ele>2652.475</ele>
        <time>2017-08-22T05:58:36Z</time>
      </trkpt>
      <trkpt lat="28.479930" lon="83.885728">
        <ele>2661.528</ele>
        <time>2017-08-22T06:02:13Z</time>
      </trkpt>
      <trkpt lat="28.480694" lon="83.885939">
        <ele>2696.920</ele>
        <time>2017-08-22T06:06:38Z</time>
      </trkpt>
      <trkpt lat="28.480853" lon="83.885316">
        <ele>2757.108</ele>
        <time>2017-08-22T06:08:17Z</time>
      </trkpt>
      <trkpt lat="28.481321" lon="83.885323">
        <ele>2772.388</ele>
        <time>2017-08-22T06:10:13Z</time>
      </trkpt>
      <trkpt lat="28.481430" lon="83.885844">
        <ele>2788.466</ele>
        <time>2017-08-22T06:12:03Z</time>
      </trkpt>
      <trkpt lat="28.482417" lon="83.886510">
        <ele>2788.480</ele>
        <time>2017-08-22T06:14:55Z</time>
      </trkpt>
      <trkpt lat="28.483047" lon="83.886513">
        <ele>2788.066</ele>
        <time>2017-08-22T06:20:15Z</time>
      </trkpt>
      <trkpt lat="28.484324" lon="83.888406">
        <ele>2789.032</ele>
        <time>2017-08-22T06:25:27Z</time>
      </trkpt>
      <trkpt lat="28.485144" lon="83.889021">
        <ele>2799.536</ele>
        <time>2017-08-22T06:27:51Z</time>
      </trkpt>
      <trkpt lat="28.485981" lon="83.889010">
        <ele>2817.617</ele>
        <time>2017-08-22T06:29:59Z</time>
      </trkpt>
      <trkpt lat="28.486991" lon="83.889801">
        <ele>2833.038</ele>
        <time>2017-08-22T06:33:05Z</time>
      </trkpt>
      <trkpt lat="28.488675" lon="83.892047">
        <ele>2846.018</ele>
        <time>2017-08-22T06:42:25Z</time>
      </trkpt>
      <trkpt lat="28.489972" lon="83.892027">
        <ele>2846.898</ele>
        <time>2017-08-22T06:50:45Z</time>
      </trkpt>
      <trkpt lat="28.490350" lon="83.892529">
        <ele>2853.917</ele>
        <time>2017-08-22T06:53:15Z</time>
      </trkpt>
      <trkpt lat="28.490937" lon="83.892524">
        <ele>2854.608</ele>
        <time>2017-08-22T06:55:44Z</time>
      </trkpt>
      <trkpt lat="28.491325" lon="83.892003">
        <ele>2906.792</ele>
        <time>2017-08-22T06:59:47Z</time>
      </trkpt>
      <trkpt lat="28.492211" lon="83.892124">
        <ele>2949.050</ele>
        <time>2017-08-22T07:04:22Z</time>
      </trkpt>
      <trkpt lat="28.492590" lon="83.892617">
        <ele>3003.854</ele>
        <time>2017-08-22T07:06:16Z</time>
      </trkpt>
      <trkpt lat="28.493445" lon="83.892342">
        <ele>3008.740</ele>
        <time>2017-08-22T07:12:46Z</time>
      </trkpt>
      <trkpt lat="28.494137" lon="83.894155">
        <ele>3057.126</ele>
        <time>2017-08-22T07:18:29Z</time>
      </trkpt>
      <trkpt lat="28.497141" lon="83.896941">
        <ele>3091.770</ele>
        <time>2017-08-22T07:34:51Z</time>
      </trkpt>
      <trkpt lat="28.497108" lon="83.897625">
        <ele>3117.131</ele>
        <time>2017-08-22T07:36:55Z</time>
      </trkpt>
      <trkpt lat="28.497514" lon="83.898051">
        <ele>3087.612</ele>
        <time>2017-08-22T07:38:16Z</time>
      </trkpt>
      <trkpt lat="28.497572" lon="83.897454">
        <ele>3080.732</ele>
        <time>2017-08-22T07:40:59Z</time>
      </trkpt>
      <trkpt lat="28.497271" lon="83.897543">
        <ele>3088.392</ele>
        <time>2017-08-22T07:41:33Z</time>
      </trkpt>
      <trkpt lat="28.497401" lon="83.898531">
        <ele>3100.911</ele>
        <time>2017-08-22T09:06:08Z</time>
      </trkpt>
      <trkpt lat="28.499245" lon="83.900135">
        <ele>3154.508</ele>
        <time>2017-08-22T09:12:35Z</time>
      </trkpt>
      <trkpt lat="28.502102" lon="83.901195">
        <ele>3224.434</ele>
        <time>2017-08-22T09:23:54Z</time>
      </trkpt>
      <trkpt lat="28.502799" lon="83.901841">
        <ele>3226.832</ele>
        <time>2017-08-22T09:26:31Z</time>
      </trkpt>
      <trkpt lat="28.503724" lon="83.901885">
        <ele>3238.796</ele>
        <time>2017-08-22T09:28:46Z</time>
      </trkpt>
      <trkpt lat="28.505992" lon="83.904240">
        <ele>3249.782</ele>
        <time>2017-08-22T09:34:47Z</time>
      </trkpt>
      <trkpt lat="28.508320" lon="83.904732">
        <ele>3245.688</ele>
        <time>2017-08-22T09:39:33Z</time>
      </trkpt>
      <trkpt lat="28.510573" lon="83.904619">
        <ele>3274.532</ele>
        <time>2017-08-22T09:45:24Z</time>
      </trkpt>
      <trkpt lat="28.511870" lon="83.905795">
        <ele>3285.043</ele>
        <time>2017-08-22T09:49:15Z</time>
      </trkpt>
      <trkpt lat="28.512512" lon="83.905652">
        <ele>3287.494</ele>
        <time>2017-08-22T09:50:35Z</time>
      </trkpt>
      <trkpt lat="28.513627" lon="83.906553">
        <ele>3345.918</ele>
        <time>2017-08-22T09:57:18Z</time>
      </trkpt>
      <trkpt lat="28.514414" lon="83.906287">
        <ele>3381.698</ele>
        <time>2017-08-22T10:00:55Z</time>
      </trkpt>
      <trkpt lat="28.515997" lon="83.907328">
        <ele>3400.117</ele>
        <time>2017-08-22T10:06:27Z</time>
      </trkpt>
      <trkpt lat="28.517776" lon="83.907801">
        <ele>3438.308</ele>
        <time>2017-08-22T10:14:38Z</time>
      </trkpt>
      <trkpt lat="28.518881" lon="83.907592">
        <ele>3473.022</ele>
        <time>2017-08-22T10:19:22Z</time>
      </trkpt>
      <trkpt lat="28.519828" lon="83.907992">
        <ele>3496.580</ele>
        <time>2017-08-22T10:23:04Z</time>
      </trkpt>
      <trkpt lat="28.523270" lon="83.908334">
        <ele>3586.424</ele>
        <time>2017-08-22T10:41:37Z</time>
      </trkpt>
      <trkpt lat="28.524555" lon="83.908103">
        <ele>3606.510</ele>
        <time>2017-08-22T10:45:43Z</time>
      </trkpt>
      <trkpt lat="28.525779" lon="83.907221">
        <ele>3629.026</ele>
        <time>2017-08-22T10:52:37Z</time>
      </trkpt>
      <trkpt lat="28.526548" lon="83.907686">
        <ele>3647.140</ele>
        <time>2017-08-22T10:55:23Z</time>
      </trkpt>
      <trkpt lat="28.526974" lon="83.907484">
        <ele>3650.321</ele>
        <time>2017-08-22T10:58:42Z</time>
      </trkpt>
      <trkpt lat="28.526776" lon="83.907738">
        <ele>3666.972</ele>
        <time>2017-08-23T05:38:56Z</time>
      </trkpt>
      <trkpt lat="28.527364" lon="83.904550">
        <ele>3670.163</ele>
        <time>2017-08-23T05:47:34Z</time>
      </trkpt>
      <trkpt lat="28.527328" lon="83.901929">
        <ele>3723.444</ele>
        <time>2017-08-23T05:54:22Z</time>
      </trkpt>
      <trkpt lat="28.528166" lon="83.898543">
        <ele>3809.118</ele>
        <time>2017-08-23T06:04:32Z</time>
      </trkpt>
      <trkpt lat="28.529037" lon="83.897052">
        <ele>3832.308</ele>
        <time>2017-08-23T06:09:43Z</time>
      </trkpt>
      <trkpt lat="28.529698" lon="83.889296">
        <ele>3926.797</ele>
        <time>2017-08-23T06:26:33Z</time>
      </trkpt>
      <trkpt lat="28.530858" lon="83.884141">
        <ele>3997.055</ele>
        <time>2017-08-23T06:39:45Z</time>
      </trkpt>
      <trkpt lat="28.530994" lon="83.881399">
        <ele>4034.429</ele>
        <time>2017-08-23T06:46:04Z</time>
      </trkpt>
      <trkpt lat="28.530459" lon="83.878490">
        <ele>4073.695</ele>
        <time>2017-08-23T06:54:13Z</time>
      </trkpt>
      <trkpt lat="28.530771" lon="83.878001">
        <ele>4089.631</ele>
        <time>2017-08-23T06:56:41Z</time>
      </trkpt>
      <trkpt lat="28.530531" lon="83.878556">
        <ele>4085.165</ele>
        <time>2017-08-24T04:16:03Z</time>
      </trkpt>
      <trkpt lat="28.530991" lon="83.881424">
        <ele>4028.146</ele>
        <time>2017-08-24T04:26:59Z</time>
      </trkpt>
      <trkpt lat="28.530924" lon="83.883917">
        <ele>3975.877</ele>
        <time>2017-08-24T04:30:13Z</time>
      </trkpt>
      <trkpt lat="28.529699" lon="83.889299">
        <ele>3916.915</ele>
        <time>2017-08-24T04:37:53Z</time>
      </trkpt>
      <trkpt lat="28.529358" lon="83.895468">
        <ele>3848.865</ele>
        <time>2017-08-24T04:46:21Z</time>
      </trkpt>
      <trkpt lat="28.527307" lon="83.901948">
        <ele>3765.611</ele>
        <time>2017-08-24T04:58:13Z</time>
      </trkpt>
      <trkpt lat="28.527266" lon="83.904722">
        <ele>3712.708</ele>
        <time>2017-08-24T05:02:28Z</time>
      </trkpt>
      <trkpt lat="28.526254" lon="83.906708">
        <ele>3670.432</ele>
        <time>2017-08-24T05:07:27Z</time>
      </trkpt>
      <trkpt lat="28.524555" lon="83.908098">
        <ele>3634.570</ele>
        <time>2017-08-24T05:11:16Z</time>
      </trkpt>
      <trkpt lat="28.523470" lon="83.908068">
        <ele>3611.824</ele>
        <time>2017-08-24T05:13:29Z</time>
      </trkpt>
      <trkpt lat="28.523198" lon="83.908361">
        <ele>3605.910</ele>
        <time>2017-08-24T05:14:03Z</time>
      </trkpt>
      <trkpt lat="28.520797" lon="83.908103">
        <ele>3562.096</ele>
        <time>2017-08-24T05:19:03Z</time>
      </trkpt>
      <trkpt lat="28.518847" lon="83.907521">
        <ele>3495.280</ele>
        <time>2017-08-24T05:23:59Z</time>
      </trkpt>
      <trkpt lat="28.518250" lon="83.907736">
        <ele>3478.261</ele>
        <time>2017-08-24T05:25:32Z</time>
      </trkpt>
      <trkpt lat="28.516581" lon="83.907430">
        <ele>3429.042</ele>
        <time>2017-08-24T05:29:35Z</time>
      </trkpt>
      <trkpt lat="28.514501" lon="83.906244">
        <ele>3397.229</ele>
        <time>2017-08-24T05:33:55Z</time>
      </trkpt>
      <trkpt lat="28.513729" lon="83.906526">
        <ele>3382.200</ele>
        <time>2017-08-24T05:36:04Z</time>
      </trkpt>
      <trkpt lat="28.512804" lon="83.905655">
        <ele>3321.720</ele>
        <time>2017-08-24T05:39:09Z</time>
      </trkpt>
      <trkpt lat="28.511867" lon="83.905637">
        <ele>3300.908</ele>
        <time>2017-08-24T05:40:57Z</time>
      </trkpt>
      <trkpt lat="28.510621" lon="83.904499">
        <ele>3298.243</ele>
        <time>2017-08-24T05:43:46Z</time>
      </trkpt>
      <trkpt lat="28.510119" lon="83.904760">
        <ele>3293.641</ele>
        <time>2017-08-24T05:45:16Z</time>
      </trkpt>
      <trkpt lat="28.506632" lon="83.904164">
        <ele>3274.615</ele>
        <time>2017-08-24T05:51:46Z</time>
      </trkpt>
      <trkpt lat="28.504640" lon="83.903045">
        <ele>3256.091</ele>
        <time>2017-08-24T05:55:39Z</time>
      </trkpt>
      <trkpt lat="28.503628" lon="83.901683">
        <ele>3252.617</ele>
        <time>2017-08-24T05:57:58Z</time>
      </trkpt>
      <trkpt lat="28.502812" lon="83.901686">
        <ele>3246.341</ele>
        <time>2017-08-24T05:59:27Z</time>
      </trkpt>
      <trkpt lat="28.499101" lon="83.900010">
        <ele>3161.332</ele>
        <time>2017-08-24T06:10:23Z</time>
      </trkpt>
      <trkpt lat="28.497978" lon="83.898505">
        <ele>3162.913</ele>
        <time>2017-08-24T06:15:00Z</time>
      </trkpt>
      <trkpt lat="28.497463" lon="83.898474">
        <ele>3151.455</ele>
        <time>2017-08-24T06:16:49Z</time>
      </trkpt>
      <trkpt lat="28.497108" lon="83.897095">
        <ele>3130.707</ele>
        <time>2017-08-24T06:20:12Z</time>
      </trkpt>
      <trkpt lat="28.495951" lon="83.896379">
        <ele>3084.117</ele>
        <time>2017-08-24T06:23:53Z</time>
      </trkpt>
      <trkpt lat="28.495414" lon="83.895300">
        <ele>3061.008</ele>
        <time>2017-08-24T06:26:02Z</time>
      </trkpt>
      <trkpt lat="28.494201" lon="83.894154">
        <ele>3043.516</ele>
        <time>2017-08-24T06:32:05Z</time>
      </trkpt>
      <trkpt lat="28.494195" lon="83.893630">
        <ele>3048.244</ele>
        <time>2017-08-24T06:33:41Z</time>
      </trkpt>
      <trkpt lat="28.493582" lon="83.893405">
        <ele>3058.878</ele>
        <time>2017-08-24T06:35:20Z</time>
      </trkpt>
      <trkpt lat="28.493291" lon="83.892802">
        <ele>3073.134</ele>
        <time>2017-08-24T06:37:21Z</time>
      </trkpt>
      <trkpt lat="28.491051" lon="83.892317">
        <ele>3010.520</ele>
        <time>2017-08-24T06:44:03Z</time>
      </trkpt>
      <trkpt lat="28.490349" lon="83.892770">
        <ele>2986.314</ele>
        <time>2017-08-24T06:47:07Z</time>
      </trkpt>
      <trkpt lat="28.490110" lon="83.892319">
        <ele>2960.855</ele>
        <time>2017-08-24T06:48:13Z</time>
      </trkpt>
      <trkpt lat="28.488658" lon="83.892101">
        <ele>2905.256</ele>
        <time>2017-08-24T06:52:14Z</time>
      </trkpt>
      <trkpt lat="28.487620" lon="83.890615">
        <ele>2889.756</ele>
        <time>2017-08-24T06:56:12Z</time>
      </trkpt>
      <trkpt lat="28.486608" lon="83.890174">
        <ele>2913.759</ele>
        <time>2017-08-24T06:58:19Z</time>
      </trkpt>
      <trkpt lat="28.485761" lon="83.889270">
        <ele>2905.414</ele>
        <time>2017-08-24T07:00:49Z</time>
      </trkpt>
      <trkpt lat="28.484807" lon="83.888996">
        <ele>2888.808</ele>
        <time>2017-08-24T07:02:58Z</time>
      </trkpt>
      <trkpt lat="28.483263" lon="83.886647">
        <ele>2793.746</ele>
        <time>2017-08-24T07:09:18Z</time>
      </trkpt>
      <trkpt lat="28.482782" lon="83.886371">
        <ele>2777.764</ele>
        <time>2017-08-24T07:10:38Z</time>
      </trkpt>
      <trkpt lat="28.482409" lon="83.886580">
        <ele>2785.128</ele>
        <time>2017-08-24T07:11:30Z</time>
      </trkpt>
      <trkpt lat="28.481423" lon="83.885877">
        <ele>2795.464</ele>
        <time>2017-08-24T07:14:25Z</time>
      </trkpt>
      <trkpt lat="28.481248" lon="83.885616">
        <ele>2795.460</ele>
        <time>2017-08-24T07:14:54Z</time>
      </trkpt>
      <trkpt lat="28.481622" lon="83.885112">
        <ele>2795.414</ele>
        <time>2017-08-24T07:16:11Z</time>
      </trkpt>
      <trkpt lat="28.479987" lon="83.885935">
        <ele>2796.485</ele>
        <time>2017-08-24T07:19:26Z</time>
      </trkpt>
      <trkpt lat="28.478437" lon="83.883923">
        <ele>2677.756</ele>
        <time>2017-08-24T07:33:37Z</time>
      </trkpt>
      <trkpt lat="28.478748" lon="83.883775">
        <ele>2656.679</ele>
        <time>2017-08-24T07:33:58Z</time>
      </trkpt>
      <trkpt lat="28.478343" lon="83.883836">
        <ele>2680.105</ele>
        <time>2017-08-24T07:35:28Z</time>
      </trkpt>
      <trkpt lat="28.478477" lon="83.883519">
        <ele>2659.225</ele>
        <time>2017-08-24T07:36:12Z</time>
      </trkpt>
      <trkpt lat="28.477525" lon="83.882016">
        <ele>2658.508</ele>
        <time>2017-08-24T07:39:49Z</time>
      </trkpt>
      <trkpt lat="28.477163" lon="83.880375">
        <ele>2626.618</ele>
        <time>2017-08-24T07:42:56Z</time>
      </trkpt>
      <trkpt lat="28.476753" lon="83.880191">
        <ele>2660.876</ele>
        <time>2017-08-24T07:43:51Z</time>
      </trkpt>
      <trkpt lat="28.476739" lon="83.879259">
        <ele>2670.530</ele>
        <time>2017-08-24T07:44:50Z</time>
      </trkpt>
      <trkpt lat="28.475339" lon="83.878265">
        <ele>2576.136</ele>
        <time>2017-08-24T07:48:19Z</time>
      </trkpt>
      <trkpt lat="28.475244" lon="83.877526">
        <ele>2562.032</ele>
        <time>2017-08-24T07:49:35Z</time>
      </trkpt>
      <trkpt lat="28.473572" lon="83.875534">
        <ele>2540.936</ele>
        <time>2017-08-24T07:53:39Z</time>
      </trkpt>
      <trkpt lat="28.473346" lon="83.873864">
        <ele>2506.097</ele>
        <time>2017-08-24T07:56:24Z</time>
      </trkpt>
      <trkpt lat="28.470482" lon="83.870918">
        <ele>2473.388</ele>
        <time>2017-08-24T08:04:23Z</time>
      </trkpt>
      <trkpt lat="28.469524" lon="83.869122">
        <ele>2453.198</ele>
        <time>2017-08-24T08:12:16Z</time>
      </trkpt>
      <trkpt lat="28.469516" lon="83.868378">
        <ele>2449.815</ele>
        <time>2017-08-24T08:13:54Z</time>
      </trkpt>
      <trkpt lat="28.468448" lon="83.867693">
        <ele>2443.126</ele>
        <time>2017-08-24T08:16:24Z</time>
      </trkpt>
      <trkpt lat="28.468000" lon="83.866694">
        <ele>2444.408</ele>
        <time>2017-08-24T08:18:20Z</time>
      </trkpt>
      <trkpt lat="28.466034" lon="83.864918">
        <ele>2422.880</ele>
        <time>2017-08-24T08:22:47Z</time>
      </trkpt>
      <trkpt lat="28.465165" lon="83.862700">
        <ele>2427.558</ele>
        <time>2017-08-24T08:28:30Z</time>
      </trkpt>
      <trkpt lat="28.463882" lon="83.862135">
        <ele>2420.212</ele>
        <time>2017-08-24T08:30:54Z</time>
      </trkpt>
      <trkpt lat="28.463525" lon="83.861029">
        <ele>2414.358</ele>
        <time>2017-08-24T08:35:29Z</time>
      </trkpt>
      <trkpt lat="28.462721" lon="83.861092">
        <ele>2400.384</ele>
        <time>2017-08-24T08:37:30Z</time>
      </trkpt>
      <trkpt lat="28.461405" lon="83.860589">
        <ele>2344.488</ele>
        <time>2017-08-24T08:39:50Z</time>
      </trkpt>
      <trkpt lat="28.458723" lon="83.857534">
        <ele>2286.349</ele>
        <time>2017-08-24T08:47:35Z</time>
      </trkpt>
      <trkpt lat="28.456959" lon="83.856607">
        <ele>2268.220</ele>
        <time>2017-08-24T08:51:06Z</time>
      </trkpt>
      <trkpt lat="28.456624" lon="83.856973">
        <ele>2292.499</ele>
        <time>2017-08-24T10:07:27Z</time>
      </trkpt>
      <trkpt lat="28.456718" lon="83.856620">
        <ele>2267.507</ele>
        <time>2017-08-24T10:10:58Z</time>
      </trkpt>
      <trkpt lat="28.454716" lon="83.855212">
        <ele>2272.027</ele>
        <time>2017-08-24T10:16:29Z</time>
      </trkpt>
      <trkpt lat="28.453423" lon="83.851953">
        <ele>2370.108</ele>
        <time>2017-08-24T10:29:55Z</time>
      </trkpt>
      <trkpt lat="28.452055" lon="83.850075">
        <ele>2385.660</ele>
        <time>2017-08-24T10:34:32Z</time>
      </trkpt>
      <trkpt lat="28.451671" lon="83.850032">
        <ele>2385.258</ele>
        <time>2017-08-24T10:35:20Z</time>
      </trkpt>
      <trkpt lat="28.451235" lon="83.850562">
        <ele>2396.172</ele>
        <time>2017-08-24T10:37:22Z</time>
      </trkpt>
      <trkpt lat="28.450648" lon="83.850018">
        <ele>2409.268</ele>
        <time>2017-08-24T10:39:07Z</time>
      </trkpt>
      <trkpt lat="28.450303" lon="83.847813">
        <ele>2415.844</ele>
        <time>2017-08-24T10:42:40Z</time>
      </trkpt>
      <trkpt lat="28.449151" lon="83.846016">
        <ele>2410.918</ele>
        <time>2017-08-24T10:46:24Z</time>
      </trkpt>
      <trkpt lat="28.447791" lon="83.845602">
        <ele>2392.219</ele>
        <time>2017-08-24T10:49:39Z</time>
      </trkpt>
      <trkpt lat="28.444786" lon="83.845661">
        <ele>2390.670</ele>
        <time>2017-08-24T10:56:34Z</time>
      </trkpt>
      <trkpt lat="28.443442" lon="83.844296">
        <ele>2379.011</ele>
        <time>2017-08-24T10:59:35Z</time>
      </trkpt>
      <trkpt lat="28.441869" lon="83.843859">
        <ele>2356.921</ele>
        <time>2017-08-24T11:03:19Z</time>
      </trkpt>
      <trkpt lat="28.440832" lon="83.842290">
        <ele>2315.603</ele>
        <time>2017-08-24T11:07:04Z</time>
      </trkpt>
      <trkpt lat="28.439923" lon="83.842124">
        <ele>2319.908</ele>
        <time>2017-08-24T11:09:29Z</time>
      </trkpt>
      <trkpt lat="28.437205" lon="83.839140">
        <ele>2302.242</ele>
        <time>2017-08-24T11:16:03Z</time>
      </trkpt>
      <trkpt lat="28.436265" lon="83.838472">
        <ele>2301.310</ele>
        <time>2017-08-24T11:17:42Z</time>
      </trkpt>
      <trkpt lat="28.434662" lon="83.838350">
        <ele>2303.894</ele>
        <time>2017-08-25T04:47:18Z</time>
      </trkpt>
      <trkpt lat="28.434061" lon="83.836645">
        <ele>2269.680</ele>
        <time>2017-08-25T04:52:28Z</time>
      </trkpt>
      <trkpt lat="28.432560" lon="83.834632">
        <ele>2198.526</ele>
        <time>2017-08-25T04:59:00Z</time>
      </trkpt>
      <trkpt lat="28.431759" lon="83.832563">
        <ele>2147.680</ele>
        <time>2017-08-25T05:04:15Z</time>
      </trkpt>
      <trkpt lat="28.430073" lon="83.830985">
        <ele>2105.391</ele>
        <time>2017-08-25T05:08:39Z</time>
      </trkpt>
      <trkpt lat="28.427986" lon="83.830083">
        <ele>2045.692</ele>
        <time>2017-08-25T05:14:35Z</time>
      </trkpt>
      <trkpt lat="28.429150" lon="83.827079">
        <ele>1997.924</ele>
        <time>2017-08-25T05:22:24Z</time>
      </trkpt>
      <trkpt lat="28.428773" lon="83.826374">
        <ele>1983.304</ele>
        <time>2017-08-25T05:24:05Z</time>
      </trkpt>
      <trkpt lat="28.428320" lon="83.826415">
        <ele>1982.914</ele>
        <time>2017-08-25T05:24:54Z</time>
      </trkpt>
      <trkpt lat="28.428152" lon="83.825612">
        <ele>1977.008</ele>
        <time>2017-08-25T05:27:07Z</time>
      </trkpt>
      <trkpt lat="28.428076" lon="83.824469">
        <ele>1957.823</ele>
        <time>2017-08-25T05:29:25Z</time>
      </trkpt>
      <trkpt lat="28.428425" lon="83.823968">
        <ele>1941.681</ele>
        <time>2017-08-25T05:31:03Z</time>
      </trkpt>
      <trkpt lat="28.428225" lon="83.821737">
        <ele>1851.045</ele>
        <time>2017-08-25T05:38:34Z</time>
      </trkpt>
      <trkpt lat="28.426594" lon="83.819394">
        <ele>1905.781</ele>
        <time>2017-08-25T05:51:28Z</time>
      </trkpt>
      <trkpt lat="28.421835" lon="83.817019">
        <ele>2039.447</ele>
        <time>2017-08-25T06:12:02Z</time>
      </trkpt>
      <trkpt lat="28.420901" lon="83.817595">
        <ele>2081.831</ele>
        <time>2017-08-25T06:17:16Z</time>
      </trkpt>
      <trkpt lat="28.419218" lon="83.817763">
        <ele>2135.112</ele>
        <time>2017-08-25T06:26:49Z</time>
      </trkpt>
      <trkpt lat="28.417644" lon="83.818684">
        <ele>2183.743</ele>
        <time>2017-08-25T06:36:12Z</time>
      </trkpt>
      <trkpt lat="28.416461" lon="83.818261">
        <ele>2192.929</ele>
        <time>2017-08-25T06:38:26Z</time>
      </trkpt>
      <trkpt lat="28.415585" lon="83.819200">
        <ele>2182.100</ele>
        <time>2017-08-25T08:24:32Z</time>
      </trkpt>
      <trkpt lat="28.414109" lon="83.818651">
        <ele>2139.720</ele>
        <time>2017-08-25T08:28:06Z</time>
      </trkpt>
      <trkpt lat="28.413891" lon="83.818840">
        <ele>2131.208</ele>
        <time>2017-08-25T08:29:10Z</time>
      </trkpt>
      <trkpt lat="28.413590" lon="83.818307">
        <ele>2097.093</ele>
        <time>2017-08-25T08:31:19Z</time>
      </trkpt>
      <trkpt lat="28.412581" lon="83.819198">
        <ele>2019.731</ele>
        <time>2017-08-25T08:36:28Z</time>
      </trkpt>
      <trkpt lat="28.412200" lon="83.819163">
        <ele>1999.445</ele>
        <time>2017-08-25T08:37:21Z</time>
      </trkpt>
      <trkpt lat="28.412259" lon="83.819669">
        <ele>1978.581</ele>
        <time>2017-08-25T08:38:40Z</time>
      </trkpt>
      <trkpt lat="28.411919" lon="83.819825">
        <ele>1961.437</ele>
        <time>2017-08-25T08:39:34Z</time>
      </trkpt>
      <trkpt lat="28.412074" lon="83.820801">
        <ele>1901.721</ele>
        <time>2017-08-25T08:42:34Z</time>
      </trkpt>
      <trkpt lat="28.411425" lon="83.821912">
        <ele>1835.972</ele>
        <time>2017-08-25T08:46:08Z</time>
      </trkpt>
      <trkpt lat="28.410914" lon="83.821875">
        <ele>1801.823</ele>
        <time>2017-08-25T08:48:52Z</time>
      </trkpt>
      <trkpt lat="28.411007" lon="83.822227">
        <ele>1791.642</ele>
        <time>2017-08-25T08:49:37Z</time>
      </trkpt>
      <trkpt lat="28.410079" lon="83.823332">
        <ele>1736.922</ele>
        <time>2017-08-25T08:53:21Z</time>
      </trkpt>
      <trkpt lat="28.409992" lon="83.824169">
        <ele>1719.814</ele>
        <time>2017-08-25T08:54:57Z</time>
      </trkpt>
      <trkpt lat="28.409855" lon="83.823885">
        <ele>1710.808</ele>
        <time>2017-08-25T08:55:45Z</time>
      </trkpt>
      <trkpt lat="28.409291" lon="83.823988">
        <ele>1681.565</ele>
        <time>2017-08-26T04:22:26Z</time>
      </trkpt>
      <trkpt lat="28.409586" lon="83.820965">
        <ele>1590.253</ele>
        <time>2017-08-26T04:29:34Z</time>
      </trkpt>
      <trkpt lat="28.408744" lon="83.819667">
        <ele>1569.647</ele>
        <time>2017-08-26T04:32:29Z</time>
      </trkpt>
      <trkpt lat="28.408775" lon="83.820848">
        <ele>1533.743</ele>
        <time>2017-08-26T04:35:14Z</time>
      </trkpt>
      <trkpt lat="28.408049" lon="83.821349">
        <ele>1504.779</ele>
        <time>2017-08-26T04:38:15Z</time>
      </trkpt>
      <trkpt lat="28.407733" lon="83.822304">
        <ele>1513.663</ele>
        <time>2017-08-26T04:41:50Z</time>
      </trkpt>
      <trkpt lat="28.407282" lon="83.822398">
        <ele>1527.254</ele>
        <time>2017-08-26T04:42:58Z</time>
      </trkpt>
      <trkpt lat="28.407014" lon="83.821601">
        <ele>1550.085</ele>
        <time>2017-08-26T04:46:16Z</time>
      </trkpt>
      <trkpt lat="28.404171" lon="83.823923">
        <ele>1574.741</ele>
        <time>2017-08-26T04:52:25Z</time>
      </trkpt>
      <trkpt lat="28.402861" lon="83.824470">
        <ele>1567.981</ele>
        <time>2017-08-26T04:54:30Z</time>
      </trkpt>
      <trkpt lat="28.401157" lon="83.822590">
        <ele>1560.009</ele>
        <time>2017-08-26T04:58:14Z</time>
      </trkpt>
      <trkpt lat="28.400290" lon="83.824531">
        <ele>1513.208</ele>
        <time>2017-08-26T05:02:44Z</time>
      </trkpt>
      <trkpt lat="28.399739" lon="83.824371">
        <ele>1500.945</ele>
        <time>2017-08-26T05:03:41Z</time>
      </trkpt>
      <trkpt lat="28.398191" lon="83.825849">
        <ele>1443.353</ele>
        <time>2017-08-26T05:10:40Z</time>
      </trkpt>
      <trkpt lat="28.395285" lon="83.824888">
        <ele>1428.377</ele>
        <time>2017-08-26T05:15:35Z</time>
      </trkpt>
      <trkpt lat="28.394261" lon="83.825203">
        <ele>1406.353</ele>
        <time>2017-08-26T05:17:21Z</time>
      </trkpt>
      <trkpt lat="28.393055" lon="83.824798">
        <ele>1403.799</ele>
        <time>2017-08-26T05:19:32Z</time>
      </trkpt>
      <trkpt lat="28.389853" lon="83.825604">
        <ele>1419.483</ele>
        <time>2017-08-26T05:24:21Z</time>
      </trkpt>
      <trkpt lat="28.388062" lon="83.824920">
        <ele>1452.224</ele>
        <time>2017-08-26T05:28:27Z</time>
      </trkpt>
      <trkpt lat="28.388110" lon="83.825357">
        <ele>1452.925</ele>
        <time>2017-08-26T05:29:03Z</time>
      </trkpt>
      <trkpt lat="28.387722" lon="83.824481">
        <ele>1428.744</ele>
        <time>2017-08-26T05:30:33Z</time>
      </trkpt>
      <trkpt lat="28.385615" lon="83.823645">
        <ele>1360.005</ele>
        <time>2017-08-26T05:35:18Z</time>
      </trkpt>
      <trkpt lat="28.384971" lon="83.823529">
        <ele>1340.515</ele>
        <time>2017-08-26T05:37:03Z</time>
      </trkpt>
      <trkpt lat="28.383772" lon="83.824028">
        <ele>1336.808</ele>
        <time>2017-08-26T05:39:12Z</time>
      </trkpt>
      <trkpt lat="28.382580" lon="83.823340">
        <ele>1341.915</ele>
        <time>2017-08-26T05:41:34Z</time>
      </trkpt>
      <trkpt lat="28.379023" lon="83.822998">
        <ele>1326.653</ele>
        <time>2017-08-26T05:49:06Z</time>
      </trkpt>
      <trkpt lat="28.376815" lon="83.819815">
        <ele>1325.067</ele>
        <time>2017-08-26T06:02:42Z</time>
      </trkpt>
      <trkpt lat="28.374221" lon="83.819337">
        <ele>1290.173</ele>
        <time>2017-08-26T06:12:23Z</time>
      </trkpt>
      <trkpt lat="28.373713" lon="83.818711">
        <ele>1287.129</ele>
        <time>2017-08-26T06:13:42Z</time>
      </trkpt>
      <trkpt lat="28.372658" lon="83.818382">
        <ele>1283.183</ele>
        <time>2017-08-26T06:15:33Z</time>
      </trkpt>
      <trkpt lat="28.372543" lon="83.817988">
        <ele>1288.674</ele>
        <time>2017-08-26T06:18:14Z</time>
      </trkpt>
      <trkpt lat="28.371823" lon="83.818157">
        <ele>1309.865</ele>
        <time>2017-08-26T06:19:46Z</time>
      </trkpt>
      <trkpt lat="28.370270" lon="83.817668">
        <ele>1329.064</ele>
        <time>2017-08-26T06:23:34Z</time>
      </trkpt>
      <trkpt lat="28.369640" lon="83.817878">
        <ele>1334.206</ele>
        <time>2017-08-26T06:24:43Z</time>
      </trkpt>
      <trkpt lat="28.367695" lon="83.817055">
        <ele>1339.316</ele>
        <time>2017-08-26T06:28:30Z</time>
      </trkpt>
      <trkpt lat="28.367058" lon="83.817115">
        <ele>1341.908</ele>
        <time>2017-08-26T06:29:32Z</time>
      </trkpt>
      <trkpt lat="28.365877" lon="83.816403">
        <ele>1345.817</ele>
        <time>2017-08-26T06:33:04Z</time>
      </trkpt>
      <trkpt lat="28.364697" lon="83.816854">
        <ele>1363.325</ele>
        <time>2017-08-26T06:36:07Z</time>
      </trkpt>
      <trkpt lat="28.363321" lon="83.815537">
        <ele>1367.219</ele>
        <time>2017-08-26T06:40:14Z</time>
      </trkpt>
      <trkpt lat="28.362579" lon="83.815435">
        <ele>1370.545</ele>
        <time>2017-08-26T06:41:19Z</time>
      </trkpt>
      <trkpt lat="28.361846" lon="83.814376">
        <ele>1362.251</ele>
        <time>2017-08-26T06:42:59Z</time>
      </trkpt>
      <trkpt lat="28.361593" lon="83.811838">
        <ele>1367.165</ele>
        <time>2017-08-26T06:46:15Z</time>
      </trkpt>
      <trkpt lat="28.360853" lon="83.810929">
        <ele>1356.466</ele>
        <time>2017-08-26T06:48:00Z</time>
      </trkpt>
      <trkpt lat="28.360296" lon="83.810946">
        <ele>1357.777</ele>
        <time>2017-08-26T06:49:42Z</time>
      </trkpt>
      <trkpt lat="28.360007" lon="83.811497">
        <ele>1361.563</ele>
        <time>2017-08-26T06:50:55Z</time>
      </trkpt>
      <trkpt lat="28.358930" lon="83.810934">
        <ele>1333.944</ele>
        <time>2017-08-26T06:55:14Z</time>
      </trkpt>
    </trkseg>
  </trk></gpx>