<?xml version="1.0" encoding="UTF-8"?>
<gpx creator="Wikiloc - https://www.wikiloc.com" version="1.1" xmlns="http://www.topografix.com/GPX/1/1" xmlns:xsi="http://www.w3.org/2001/XMLSchema-instance" xsi:schemaLocation="http://www.topografix.com/GPX/1/1 http://www.topografix.com/GPX/1/1/gpx.xsd">
  <metadata>
    <name>Wikiloc - Mardi Himal trek</name>
    <link href="https://www.wikiloc.com/hiking-trails/mardi-himal-trek-172837510">
      <text>Mardi Himal trek - Wikiloc on Wikiloc</text>
    </link>
    <time>2024-05-30T12:00:41.926Z</time>
  </metadata>
  <wpt lat="28.322658" lon="83.829793">
    <ele>2094.0</ele>
    <time>2024-05-28T05:58:10Z</time>
    <name>Photo</name>
    <cmt></cmt>
    <desc></desc>
  </wpt>
  <wpt lat="28.322663" lon="83.829785">
    <ele>2094.0</ele>
    <time>2024-05-28T05:58:52Z</time>
    <name>Photo</name>
    <cmt></cmt>
    <desc></desc>
  </wpt>
  <wpt lat="28.324179" lon="83.829844">
    <ele>2139.0</ele>
    <time>2024-05-28T06:08:46Z</time>
    <name>Photo</name>
    <cmt></cmt>
    <desc></desc>
  </wpt>
  <wpt lat="28.324584" lon="83.829742">
    <ele>2144.0</ele>
    <time>2024-05-28T06:13:15Z</time>
    <name>Photo</name>
    <cmt></cmt>
    <desc></desc>
  </wpt>
  <wpt lat="28.341385" lon="83.843104">
    <ele>2434.0</ele>
    <time>2024-05-28T09:23:44Z</time>
    <name>Photo</name>
    <cmt></cmt>
    <desc></desc>
  </wpt>
  <wpt lat="28.341308" lon="83.843124">
    <ele>2432.0</ele>
    <time>2024-05-28T09:24:05Z</time>
    <name>Photo</name>
    <cmt></cmt>
    <desc></desc>
  </wpt>
  <wpt lat="28.341771" lon="83.843135">
    <ele>2439.0</ele>
    <time>2024-05-28T09:27:08Z</time>
    <name>Photo</name>
    <cmt></cmt>
    <desc></desc>
  </wpt>
  <wpt lat="28.347096" lon="83.842146">
    <ele>2458.0</ele>
    <time>2024-05-28T09:41:08Z</time>
    <name>Photo</name>
    <cmt></cmt>
    <desc></desc>
  </wpt>
  <wpt lat="28.347728" lon="83.842435">
    <ele>2459.0</ele>
    <time>2024-05-28T09:43:08Z</time>
    <name>Photo</name>
    <cmt></cmt>
    <desc></desc>
  </wpt>
  <wpt lat="28.350564" lon="83.843384">
    <ele>2471.0</ele>
    <time>2024-05-28T09:49:22Z</time>
    <name>Photo</name>
    <cmt></cmt>
    <desc></desc>
  </wpt>
  <wpt lat="28.353240" lon="83.842602">
    <ele>2461.0</ele>
    <time>2024-05-28T10:06:33Z</time>
    <name>Photo</name>
    <cmt></cmt>
    <desc></desc>
  </wpt>
  <wpt lat="28.358702" lon="83.843357">
    <ele>2545.0</ele>
    <time>2024-05-28T10:26:23Z</time>
    <name>Photo</name>
    <cmt></cmt>
    <desc></desc>
  </wpt>
  <wpt lat="28.359242" lon="83.844586">
    <ele>2545.0</ele>
    <time>2024-05-28T10:32:00Z</time>
    <name>Photo</name>
    <cmt></cmt>
    <desc></desc>
  </wpt>
  <wpt lat="28.363039" lon="83.845222">
    <ele>2533.0</ele>
    <time>2024-05-28T10:54:03Z</time>
    <name>Photo</name>
    <cmt></cmt>
    <desc></desc>
  </wpt>
  <wpt lat="28.370590" lon="83.845122">
    <ele>2501.0</ele>
    <time>2024-05-28T11:24:02Z</time>
    <name>Photo</name>
    <cmt></cmt>
    <desc></desc>
  </wpt>
  <wpt lat="28.373302" lon="83.843346">
    <ele>2508.0</ele>
    <time>2024-05-28T11:36:23Z</time>
    <name>Photo</name>
    <cmt></cmt>
    <desc></desc>
  </wpt>
  <wpt lat="28.386465" lon="83.847543">
    <ele>2531.0</ele>
    <time>2024-05-29T04:15:28Z</time>
    <name>Photo</name>
    <cmt></cmt>
    <desc></desc>
  </wpt>
  <wpt lat="28.386514" lon="83.848185">
    <ele>2561.0</ele>
    <time>2024-05-29T04:20:26Z</time>
    <name>Risk</name>
    <cmt></cmt>
    <desc></desc>
  </wpt>
  <wpt lat="28.387788" lon="83.850319">
    <ele>2603.0</ele>
    <time>2024-05-29T04:32:24Z</time>
    <name>Photo</name>
    <cmt></cmt>
    <desc></desc>
  </wpt>
  <wpt lat="28.390954" lon="83.848456">
    <ele>2687.0</ele>
    <time>2024-05-29T04:47:46Z</time>
    <name>Photo</name>
    <cmt></cmt>
    <desc></desc>
  </wpt>
  <wpt lat="28.395271" lon="83.851406">
    <ele>2795.0</ele>
    <time>2024-05-29T05:19:01Z</time>
    <name>Photo</name>
    <cmt></cmt>
    <desc></desc>
  </wpt>
  <wpt lat="28.397653" lon="83.851691">
    <ele>2879.0</ele>
    <time>2024-05-29T05:32:39Z</time>
    <name>Photo</name>
    <cmt></cmt>
    <desc></desc>
  </wpt>
  <wpt lat="28.403870" lon="83.855637">
    <ele>3023.0</ele>
    <time>2024-05-29T06:10:21Z</time>
    <name>Photo</name>
    <cmt></cmt>
    <desc></desc>
  </wpt>
  <wpt lat="28.410858" lon="83.856460">
    <ele>3219.0</ele>
    <time>2024-05-29T07:14:56Z</time>
    <name>Risk</name>
    <cmt></cmt>
    <desc></desc>
  </wpt>
  <wpt lat="28.414581" lon="83.855329">
    <ele>3264.0</ele>
    <time>2024-05-29T07:28:55Z</time>
    <name>Photo</name>
    <cmt></cmt>
    <desc></desc>
  </wpt>
  <wpt lat="28.415581" lon="83.854837">
    <ele>3299.0</ele>
    <time>2024-05-29T07:51:18Z</time>
    <name>Summit</name>
    <cmt></cmt>
    <desc></desc>
  </wpt>
  <wpt lat="28.419230" lon="83.857096">
    <ele>3369.0</ele>
    <time>2024-05-29T08:30:06Z</time>
    <name>Photo</name>
    <cmt></cmt>
    <desc></desc>
  </wpt>
  <wpt lat="28.421733" lon="83.859408">
    <ele>3371.0</ele>
    <time>2024-05-29T08:49:01Z</time>
    <name>Photo</name>
    <cmt></cmt>
    <desc></desc>
  </wpt>
  <wpt lat="28.426548" lon="83.862123">
    <ele>3441.0</ele>
    <time>2024-05-29T09:15:16Z</time>
    <name>Photo</name>
    <cmt></cmt>
    <desc></desc>
  </wpt>
  <wpt lat="28.431520" lon="83.866582">
    <ele>3512.0</ele>
    <time>2024-05-29T10:05:33Z</time>
    <name>Photo</name>
    <cmt></cmt>
    <desc></desc>
  </wpt>
  <wpt lat="28.438925" lon="83.874095">
    <ele>3647.0</ele>
    <time>2024-05-29T22:41:13Z</time>
    <name>Photo</name>
    <cmt></cmt>
    <desc></desc>
  </wpt>
  <wpt lat="28.438928" lon="83.874092">
    <ele>3647.0</ele>
    <time>2024-05-29T22:42:06Z</time>
    <name>Photo</name>
    <cmt></cmt>
    <desc></desc>
  </wpt>
  <wpt lat="28.440518" lon="83.874170">
    <ele>3746.0</ele>
    <time>2024-05-29T23:03:33Z</time>
    <name>Photo</name>
    <cmt></cmt>
    <desc></desc>
  </wpt>
  <wpt lat="28.440511" lon="83.874170">
    <ele>3746.0</ele>
    <time>2024-05-29T23:03:51Z</time>
    <name>Photo</name>
    <cmt></cmt>
    <desc></desc>
  </wpt>
  <wpt lat="28.445417" lon="83.876227">
    <ele>3843.0</ele>
    <time>2024-05-29T23:31:03Z</time>
    <name>Photo</name>
    <cmt></cmt>
    <desc></desc>
  </wpt>
  <wpt lat="28.447008" lon="83.876804">
    <ele>3917.0</ele>
    <time>2024-05-29T23:42:25Z</time>
    <name>Summit</name>
    <cmt></cmt>
    <desc></desc>
  </wpt>
  <wpt lat="28.448546" lon="83.876986">
    <ele>3985.0</ele>
    <time>2024-05-29T23:58:02Z</time>
    <name>Summit</name>
    <cmt></cmt>
    <desc></desc>
  </wpt>
  <wpt lat="28.448498" lon="83.877028">
    <ele>3984.0</ele>
    <time>2024-05-29T23:58:22Z</time>
    <name>Summit</name>
    <cmt></cmt>
    <desc></desc>
  </wpt>
  <wpt lat="28.451265" lon="83.878566">
    <ele>3997.0</ele>
    <time>2024-05-30T00:56:50Z</time>
    <name>Photo</name>
    <cmt></cmt>
    <desc></desc>
  </wpt>
  <wpt lat="28.451269" lon="83.878566">
    <ele>3997.0</ele>
    <time>2024-05-30T00:57:07Z</time>
    <name>Summit</name>
    <cmt></cmt>
    <desc></desc>
  </wpt>
  <wpt lat="28.452457" lon="83.879607">
    <ele>4003.0</ele>
    <time>2024-05-30T01:03:44Z</time>
    <name>Summit</name>
    <cmt></cmt>
    <desc></desc>
  </wpt>
  <wpt lat="28.452996" lon="83.880213">
    <ele>4000.0</ele>
    <time>2024-05-30T01:06:29Z</time>
    <name>Photo</name>
    <cmt></cmt>
    <desc></desc>
  </wpt>
  <wpt lat="28.455314" lon="83.882871">
    <ele>4062.0</ele>
    <time>2024-05-30T01:39:30Z</time>
    <name>Photo</name>
    <cmt></cmt>
    <desc></desc>
  </wpt>
  <wpt lat="28.457155" lon="83.885888">
    <ele>4139.0</ele>
    <time>2024-05-30T01:58:37Z</time>
    <name>Summit</name>
    <cmt></cmt>
    <desc></desc>
  </wpt>
  <wpt lat="28.456935" lon="83.886657">
    <ele>4132.0</ele>
    <time>2024-05-30T02:03:06Z</time>
    <name>Photo</name>
    <cmt></cmt>
    <desc></desc>
  </wpt>
  <wpt lat="28.457723" lon="83.889024">
    <ele>4160.0</ele>
    <time>2024-05-30T02:14:32Z</time>
    <name>Photo</name>
    <cmt></cmt>
    <desc></desc>
  </wpt>
  <wpt lat="28.459971" lon="83.895089">
    <ele>4226.0</ele>
    <time>2024-05-30T02:51:46Z</time>
    <name>Summit</name>
    <cmt></cmt>
    <desc></desc>
  </wpt>
  <wpt lat="28.459973" lon="83.895118">
    <ele>4225.0</ele>
    <time>2024-05-30T02:52:43Z</time>
    <name>Photo</name>
    <cmt></cmt>
    <desc></desc>
  </wpt>
  <wpt lat="28.460193" lon="83.895111">
    <ele>4226.0</ele>
    <time>2024-05-30T03:06:13Z</time>
    <name>Photo</name>
    <cmt></cmt>
    <desc></desc>
  </wpt>
  <trk>
    <name>Mardi Himal trek - Wikiloc</name>
    <cmt></cmt>
    <desc></desc>
    <trkseg>
      <trkpt lat="28.292447" lon="83.824069">
        <ele>1828.952</ele>
        <time>2024-05-28T04:03:08Z</time>
      </trkpt>
      <trkpt lat="28.292757" lon="83.824243">
        <ele>1851.653</ele>
        <time>2024-05-28T04:04:53.999Z</time>
      </trkpt>
      <trkpt lat="28.293697" lon="83.823850">
        <ele>1855.008</ele>
        <time>2024-05-28T04:09:46.998Z</time>
      </trkpt>
      <trkpt lat="28.294397" lon="83.821784">
        <ele>1849.809</ele>
        <time>2024-05-28T04:12:22.997Z</time>
      </trkpt>
      <trkpt lat="28.295773" lon="83.821553">
        <ele>1853.976</ele>
        <time>2024-05-28T04:15:58.996Z</time>
      </trkpt>
      <trkpt lat="28.296258" lon="83.820901">
        <ele>1862.612</ele>
        <time>2024-05-28T04:17:29.996Z</time>
      </trkpt>
      <trkpt lat="28.297811" lon="83.821301">
        <ele>1899.647</ele>
        <time>2024-05-28T04:20:53.996Z</time>
      </trkpt>
      <trkpt lat="28.298924" lon="83.821946">
        <ele>1913.043</ele>
        <time>2024-05-28T04:23:06.996Z</time>
      </trkpt>
      <trkpt lat="28.299119" lon="83.821666">
        <ele>1922.328</ele>
        <time>2024-05-28T04:24:46.996Z</time>
      </trkpt>
      <trkpt lat="28.299637" lon="83.821706">
        <ele>1939.792</ele>
        <time>2024-05-28T04:26:45.996Z</time>
      </trkpt>
      <trkpt lat="28.300084" lon="83.820821">
        <ele>1981.780</ele>
        <time>2024-05-28T04:32:29.995Z</time>
      </trkpt>
      <trkpt lat="28.300514" lon="83.820749">
        <ele>1997.816</ele>
        <time>2024-05-28T04:33:46.995Z</time>
      </trkpt>
      <trkpt lat="28.301700" lon="83.821458">
        <ele>2034.955</ele>
        <time>2024-05-28T04:40:20.995Z</time>
      </trkpt>
      <trkpt lat="28.302804" lon="83.822935">
        <ele>2088.821</ele>
        <time>2024-05-28T04:47:30.995Z</time>
      </trkpt>
      <trkpt lat="28.304322" lon="83.823285">
        <ele>2116.741</ele>
        <time>2024-05-28T04:51:14.995Z</time>
      </trkpt>
      <trkpt lat="28.304524" lon="83.825206">
        <ele>2119.105</ele>
        <time>2024-05-28T05:00:53.994Z</time>
      </trkpt>
      <trkpt lat="28.303779" lon="83.825731">
        <ele>2131.609</ele>
        <time>2024-05-28T05:02:42.994Z</time>
      </trkpt>
      <trkpt lat="28.303836" lon="83.826395">
        <ele>2136.993</ele>
        <time>2024-05-28T05:05:13.993Z</time>
      </trkpt>
      <trkpt lat="28.303377" lon="83.827241">
        <ele>2146.859</ele>
        <time>2024-05-28T05:06:42.993Z</time>
      </trkpt>
      <trkpt lat="28.304097" lon="83.828298">
        <ele>2160.464</ele>
        <time>2024-05-28T05:08:40.993Z</time>
      </trkpt>
      <trkpt lat="28.306488" lon="83.828615">
        <ele>2137.920</ele>
        <time>2024-05-28T05:13:48.993Z</time>
      </trkpt>
      <trkpt lat="28.307948" lon="83.827816">
        <ele>2105.665</ele>
        <time>2024-05-28T05:17:23.993Z</time>
      </trkpt>
      <trkpt lat="28.309589" lon="83.827977">
        <ele>2087.489</ele>
        <time>2024-05-28T05:20:44.993Z</time>
      </trkpt>
      <trkpt lat="28.310878" lon="83.828460">
        <ele>2093.557</ele>
        <time>2024-05-28T05:25:01.993Z</time>
      </trkpt>
      <trkpt lat="28.312608" lon="83.830111">
        <ele>2095.673</ele>
        <time>2024-05-28T05:29:03.993Z</time>
      </trkpt>
      <trkpt lat="28.313883" lon="83.830566">
        <ele>2107.012</ele>
        <time>2024-05-28T05:32:55.993Z</time>
      </trkpt>
      <trkpt lat="28.314997" lon="83.830580">
        <ele>2103.853</ele>
        <time>2024-05-28T05:36:29.992Z</time>
      </trkpt>
      <trkpt lat="28.315235" lon="83.830279">
        <ele>2104.404</ele>
        <time>2024-05-28T05:37:17.992Z</time>
      </trkpt>
      <trkpt lat="28.317970" lon="83.829902">
        <ele>2120.914</ele>
        <time>2024-05-28T05:44:15.991Z</time>
      </trkpt>
      <trkpt lat="28.318903" lon="83.830264">
        <ele>2125.409</ele>
        <time>2024-05-28T05:47:54.990Z</time>
      </trkpt>
      <trkpt lat="28.319615" lon="83.829974">
        <ele>2134.646</ele>
        <time>2024-05-28T05:49:29.990Z</time>
      </trkpt>
      <trkpt lat="28.320168" lon="83.830142">
        <ele>2150.412</ele>
        <time>2024-05-28T05:51:03.990Z</time>
      </trkpt>
      <trkpt lat="28.321641" lon="83.829965">
        <ele>2174.177</ele>
        <time>2024-05-28T05:54:06.990Z</time>
      </trkpt>
      <trkpt lat="28.322124" lon="83.830263">
        <ele>2177.113</ele>
        <time>2024-05-28T05:56:14.990Z</time>
      </trkpt>
      <trkpt lat="28.322651" lon="83.829758">
        <ele>2189.818</ele>
        <time>2024-05-28T05:58:13.989Z</time>
      </trkpt>
      <trkpt lat="28.322919" lon="83.830107">
        <ele>2208.752</ele>
        <time>2024-05-28T06:04:52.989Z</time>
      </trkpt>
      <trkpt lat="28.323460" lon="83.830220">
        <ele>2217.750</ele>
        <time>2024-05-28T06:05:56.989Z</time>
      </trkpt>
      <trkpt lat="28.325570" lon="83.829119">
        <ele>2261.316</ele>
        <time>2024-05-28T06:16:05.986Z</time>
      </trkpt>
      <trkpt lat="28.327868" lon="83.829178">
        <ele>2244.085</ele>
        <time>2024-05-28T06:19:42.985Z</time>
      </trkpt>
      <trkpt lat="28.328292" lon="83.829672">
        <ele>2241.823</ele>
        <time>2024-05-28T06:20:44.985Z</time>
      </trkpt>
      <trkpt lat="28.329790" lon="83.829832">
        <ele>2235.283</ele>
        <time>2024-05-28T06:23:04.985Z</time>
      </trkpt>
      <trkpt lat="28.330540" lon="83.830817">
        <ele>2241.211</ele>
        <time>2024-05-28T06:25:12.985Z</time>
      </trkpt>
      <trkpt lat="28.330908" lon="83.831850">
        <ele>2252.609</ele>
        <time>2024-05-28T06:27:02.985Z</time>
      </trkpt>
      <trkpt lat="28.331612" lon="83.832046">
        <ele>2257.783</ele>
        <time>2024-05-28T06:31:02.984Z</time>
      </trkpt>
      <trkpt lat="28.334064" lon="83.835494">
        <ele>2268.779</ele>
        <time>2024-05-28T06:48:12.982Z</time>
      </trkpt>
      <trkpt lat="28.334153" lon="83.836714">
        <ele>2284.054</ele>
        <time>2024-05-28T06:50:41.982Z</time>
      </trkpt>
      <trkpt lat="28.334654" lon="83.837247">
        <ele>2287.120</ele>
        <time>2024-05-28T06:54:08.981Z</time>
      </trkpt>
      <trkpt lat="28.334205" lon="83.836726">
        <ele>2287.235</ele>
        <time>2024-05-28T06:55:07.981Z</time>
      </trkpt>
      <trkpt lat="28.334224" lon="83.837321">
        <ele>2307.699</ele>
        <time>2024-05-28T06:59:13.980Z</time>
      </trkpt>
      <trkpt lat="28.335062" lon="83.838611">
        <ele>2336.227</ele>
        <time>2024-05-28T07:10:19.980Z</time>
      </trkpt>
      <trkpt lat="28.335069" lon="83.839479">
        <ele>2369.933</ele>
        <time>2024-05-28T07:15:09.980Z</time>
      </trkpt>
      <trkpt lat="28.335395" lon="83.839539">
        <ele>2385.952</ele>
        <time>2024-05-28T07:28:41.979Z</time>
      </trkpt>
      <trkpt lat="28.335100" lon="83.840104">
        <ele>2403.554</ele>
        <time>2024-05-28T07:31:10.979Z</time>
      </trkpt>
      <trkpt lat="28.335199" lon="83.840659">
        <ele>2417.456</ele>
        <time>2024-05-28T07:33:25.979Z</time>
      </trkpt>
      <trkpt lat="28.336524" lon="83.842311">
        <ele>2482.511</ele>
        <time>2024-05-28T07:48:53.976Z</time>
      </trkpt>
      <trkpt lat="28.336695" lon="83.841962">
        <ele>2484.009</ele>
        <time>2024-05-28T07:52:41.975Z</time>
      </trkpt>
      <trkpt lat="28.336494" lon="83.842366">
        <ele>2485.786</ele>
        <time>2024-05-28T08:55:39.975Z</time>
      </trkpt>
      <trkpt lat="28.336634" lon="83.842605">
        <ele>2488.762</ele>
        <time>2024-05-28T08:56:40.975Z</time>
      </trkpt>
      <trkpt lat="28.337938" lon="83.842998">
        <ele>2516.837</ele>
        <time>2024-05-28T09:01:48.974Z</time>
      </trkpt>
      <trkpt lat="28.337970" lon="83.842700">
        <ele>2528.573</ele>
        <time>2024-05-28T09:04:41.973Z</time>
      </trkpt>
      <trkpt lat="28.337912" lon="83.842885">
        <ele>2525.618</ele>
        <time>2024-05-28T09:12:23.973Z</time>
      </trkpt>
      <trkpt lat="28.338644" lon="83.843480">
        <ele>2526.362</ele>
        <time>2024-05-28T09:14:07.972Z</time>
      </trkpt>
      <trkpt lat="28.342558" lon="83.842912">
        <ele>2530.470</ele>
        <time>2024-05-28T09:29:15.965Z</time>
      </trkpt>
      <trkpt lat="28.343194" lon="83.842019">
        <ele>2534.646</ele>
        <time>2024-05-28T09:30:56.964Z</time>
      </trkpt>
      <trkpt lat="28.344772" lon="83.841136">
        <ele>2547.165</ele>
        <time>2024-05-28T09:34:59.963Z</time>
      </trkpt>
      <trkpt lat="28.345531" lon="83.841668">
        <ele>2541.759</ele>
        <time>2024-05-28T09:36:47.962Z</time>
      </trkpt>
      <trkpt lat="28.346612" lon="83.841788">
        <ele>2548.503</ele>
        <time>2024-05-28T09:39:09.962Z</time>
      </trkpt>
      <trkpt lat="28.347402" lon="83.842352">
        <ele>2538.323</ele>
        <time>2024-05-28T09:42:06.961Z</time>
      </trkpt>
      <trkpt lat="28.350248" lon="83.843399">
        <ele>2548.409</ele>
        <time>2024-05-28T09:48:00.959Z</time>
      </trkpt>
      <trkpt lat="28.350736" lon="83.843385">
        <ele>2560.536</ele>
        <time>2024-05-28T09:51:18.958Z</time>
      </trkpt>
      <trkpt lat="28.351281" lon="83.843811">
        <ele>2578.082</ele>
        <time>2024-05-28T09:53:41.958Z</time>
      </trkpt>
      <trkpt lat="28.352662" lon="83.843381">
        <ele>2576.857</ele>
        <time>2024-05-28T10:00:03.958Z</time>
      </trkpt>
      <trkpt lat="28.352414" lon="83.843260">
        <ele>2568.933</ele>
        <time>2024-05-28T10:00:58.958Z</time>
      </trkpt>
      <trkpt lat="28.352861" lon="83.842436">
        <ele>2549.798</ele>
        <time>2024-05-28T10:04:12.958Z</time>
      </trkpt>
      <trkpt lat="28.353453" lon="83.842722">
        <ele>2552.882</ele>
        <time>2024-05-28T10:08:54.957Z</time>
      </trkpt>
      <trkpt lat="28.354262" lon="83.842710">
        <ele>2571.660</ele>
        <time>2024-05-28T10:11:45.956Z</time>
      </trkpt>
      <trkpt lat="28.354573" lon="83.843027">
        <ele>2581.436</ele>
        <time>2024-05-28T10:12:56.956Z</time>
      </trkpt>
      <trkpt lat="28.355967" lon="83.842478">
        <ele>2604.995</ele>
        <time>2024-05-28T10:18:01.955Z</time>
      </trkpt>
      <trkpt lat="28.356629" lon="83.843131">
        <ele>2630.154</ele>
        <time>2024-05-28T10:21:27.955Z</time>
      </trkpt>
      <trkpt lat="28.357395" lon="83.843208">
        <ele>2621.056</ele>
        <time>2024-05-28T10:23:03.955Z</time>
      </trkpt>
      <trkpt lat="28.357858" lon="83.843744">
        <ele>2626.811</ele>
        <time>2024-05-28T10:24:20.955Z</time>
      </trkpt>
      <trkpt lat="28.358383" lon="83.843231">
        <ele>2623.109</ele>
        <time>2024-05-28T10:25:34.955Z</time>
      </trkpt>
      <trkpt lat="28.358897" lon="83.843359">
        <ele>2618.746</ele>
        <time>2024-05-28T10:29:33.954Z</time>
      </trkpt>
      <trkpt lat="28.359005" lon="83.844329">
        <ele>2617.932</ele>
        <time>2024-05-28T10:31:29.954Z</time>
      </trkpt>
      <trkpt lat="28.359327" lon="83.844690">
        <ele>2617.617</ele>
        <time>2024-05-28T10:32:30.954Z</time>
      </trkpt>
      <trkpt lat="28.359128" lon="83.844550">
        <ele>2617.463</ele>
        <time>2024-05-28T10:33:56.954Z</time>
      </trkpt>
      <trkpt lat="28.359294" lon="83.845644">
        <ele>2611.318</ele>
        <time>2024-05-28T10:36:27.953Z</time>
      </trkpt>
      <trkpt lat="28.360126" lon="83.845848">
        <ele>2605.962</ele>
        <time>2024-05-28T10:38:15.953Z</time>
      </trkpt>
      <trkpt lat="28.360292" lon="83.845620">
        <ele>2608.940</ele>
        <time>2024-05-28T10:39:08.953Z</time>
      </trkpt>
      <trkpt lat="28.360837" lon="83.846012">
        <ele>2612.156</ele>
        <time>2024-05-28T10:40:43.953Z</time>
      </trkpt>
      <trkpt lat="28.360925" lon="83.846926">
        <ele>2601.085</ele>
        <time>2024-05-28T10:42:17.953Z</time>
      </trkpt>
      <trkpt lat="28.361749" lon="83.847793">
        <ele>2588.548</ele>
        <time>2024-05-28T10:43:58.953Z</time>
      </trkpt>
      <trkpt lat="28.362266" lon="83.846692">
        <ele>2603.561</ele>
        <time>2024-05-28T10:50:12.953Z</time>
      </trkpt>
      <trkpt lat="28.362016" lon="83.846213">
        <ele>2602.017</ele>
        <time>2024-05-28T10:51:04.953Z</time>
      </trkpt>
      <trkpt lat="28.363074" lon="83.845089">
        <ele>2599.909</ele>
        <time>2024-05-28T10:58:21.953Z</time>
      </trkpt>
      <trkpt lat="28.363880" lon="83.845548">
        <ele>2604.795</ele>
        <time>2024-05-28T11:03:55.952Z</time>
      </trkpt>
      <trkpt lat="28.364451" lon="83.844846">
        <ele>2625.541</ele>
        <time>2024-05-28T11:06:51.952Z</time>
      </trkpt>
      <trkpt lat="28.365189" lon="83.845237">
        <ele>2618.386</ele>
        <time>2024-05-28T11:08:40.952Z</time>
      </trkpt>
      <trkpt lat="28.367345" lon="83.844796">
        <ele>2588.412</ele>
        <time>2024-05-28T11:14:48.951Z</time>
      </trkpt>
      <trkpt lat="28.368596" lon="83.844986">
        <ele>2586.467</ele>
        <time>2024-05-28T11:17:41.951Z</time>
      </trkpt>
      <trkpt lat="28.369498" lon="83.845698">
        <ele>2596.291</ele>
        <time>2024-05-28T11:20:07.951Z</time>
      </trkpt>
      <trkpt lat="28.369780" lon="83.845335">
        <ele>2590.039</ele>
        <time>2024-05-28T11:21:15.951Z</time>
      </trkpt>
      <trkpt lat="28.370595" lon="83.845055">
        <ele>2572.645</ele>
        <time>2024-05-28T11:24:03.951Z</time>
      </trkpt>
      <trkpt lat="28.370687" lon="83.845220">
        <ele>2571.354</ele>
        <time>2024-05-28T11:27:12.951Z</time>
      </trkpt>
      <trkpt lat="28.370712" lon="83.845023">
        <ele>2571.012</ele>
        <time>2024-05-28T11:28:28.951Z</time>
      </trkpt>
      <trkpt lat="28.370954" lon="83.845168">
        <ele>2570.832</ele>
        <time>2024-05-28T11:29:55.951Z</time>
      </trkpt>
      <trkpt lat="28.370936" lon="83.844916">
        <ele>2571.605</ele>
        <time>2024-05-28T11:29:59.951Z</time>
      </trkpt>
      <trkpt lat="28.371436" lon="83.844777">
        <ele>2571.209</ele>
        <time>2024-05-28T11:30:59.951Z</time>
      </trkpt>
      <trkpt lat="28.371991" lon="83.843953">
        <ele>2574.412</ele>
        <time>2024-05-28T11:32:50.951Z</time>
      </trkpt>
      <trkpt lat="28.373201" lon="83.843499">
        <ele>2576.588</ele>
        <time>2024-05-28T11:35:53.951Z</time>
      </trkpt>
      <trkpt lat="28.373381" lon="83.843298">
        <ele>2576.333</ele>
        <time>2024-05-28T11:37:16.951Z</time>
      </trkpt>
      <trkpt lat="28.373198" lon="83.843265">
        <ele>2576.019</ele>
        <time>2024-05-28T11:37:35.951Z</time>
      </trkpt>
      <trkpt lat="28.373370" lon="83.843560">
        <ele>2572.294</ele>
        <time>2024-05-28T11:38:11.950Z</time>
      </trkpt>
      <trkpt lat="28.374136" lon="83.843759">
        <ele>2569.568</ele>
        <time>2024-05-28T11:39:25.950Z</time>
      </trkpt>
      <trkpt lat="28.374838" lon="83.843739">
        <ele>2571.526</ele>
        <time>2024-05-28T11:40:30.950Z</time>
      </trkpt>
      <trkpt lat="28.374901" lon="83.843499">
        <ele>2572.422</ele>
        <time>2024-05-28T11:40:42.950Z</time>
      </trkpt>
      <trkpt lat="28.374972" lon="83.843694">
        <ele>2572.711</ele>
        <time>2024-05-28T11:41:03.950Z</time>
      </trkpt>
      <trkpt lat="28.375246" lon="83.843356">
        <ele>2573.529</ele>
        <time>2024-05-28T11:41:15.950Z</time>
      </trkpt>
      <trkpt lat="28.375390" lon="83.843641">
        <ele>2573.100</ele>
        <time>2024-05-28T11:41:50.950Z</time>
      </trkpt>
      <trkpt lat="28.376567" lon="83.843371">
        <ele>2580.420</ele>
        <time>2024-05-28T11:44:30.950Z</time>
      </trkpt>
      <trkpt lat="28.376911" lon="83.843561">
        <ele>2583.309</ele>
        <time>2024-05-28T11:45:06.950Z</time>
      </trkpt>
      <trkpt lat="28.377706" lon="83.842896">
        <ele>2580.473</ele>
        <time>2024-05-28T11:47:02.950Z</time>
      </trkpt>
      <trkpt lat="28.377825" lon="83.843015">
        <ele>2578.479</ele>
        <time>2024-05-28T11:47:14.950Z</time>
      </trkpt>
      <trkpt lat="28.378193" lon="83.842477">
        <ele>2570.974</ele>
        <time>2024-05-28T11:48:32.950Z</time>
      </trkpt>
      <trkpt lat="28.379546" lon="83.842317">
        <ele>2557.120</ele>
        <time>2024-05-28T11:57:24.950Z</time>
      </trkpt>
      <trkpt lat="28.378972" lon="83.842469">
        <ele>2557.145</ele>
        <time>2024-05-28T11:57:28.950Z</time>
      </trkpt>
      <trkpt lat="28.379311" lon="83.842407">
        <ele>2556.719</ele>
        <time>2024-05-28T11:57:33.950Z</time>
      </trkpt>
      <trkpt lat="28.379456" lon="83.842028">
        <ele>2556.457</ele>
        <time>2024-05-28T11:57:36.950Z</time>
      </trkpt>
      <trkpt lat="28.379822" lon="83.842573">
        <ele>2554.413</ele>
        <time>2024-05-28T11:58:09.950Z</time>
      </trkpt>
      <trkpt lat="28.379884" lon="83.842332">
        <ele>2552.792</ele>
        <time>2024-05-28T12:00:02.950Z</time>
      </trkpt>
      <trkpt lat="28.380066" lon="83.842526">
        <ele>2552.465</ele>
        <time>2024-05-28T12:00:19.950Z</time>
      </trkpt>
      <trkpt lat="28.380052" lon="83.842277">
        <ele>2551.568</ele>
        <time>2024-05-28T12:00:47.948Z</time>
      </trkpt>
      <trkpt lat="28.381586" lon="83.842859">
        <ele>2530.214</ele>
        <time>2024-05-28T12:03:44.948Z</time>
      </trkpt>
      <trkpt lat="28.382934" lon="83.842770">
        <ele>2523.109</ele>
        <time>2024-05-28T12:09:42.948Z</time>
      </trkpt>
      <trkpt lat="28.382740" lon="83.842980">
        <ele>2523.037</ele>
        <time>2024-05-28T12:10:10.948Z</time>
      </trkpt>
      <trkpt lat="28.383068" lon="83.843066">
        <ele>2523.083</ele>
        <time>2024-05-28T12:10:25.948Z</time>
      </trkpt>
      <trkpt lat="28.382577" lon="83.843366">
        <ele>2523.028</ele>
        <time>2024-05-28T12:10:49.948Z</time>
      </trkpt>
      <trkpt lat="28.383009" lon="83.843057">
        <ele>2523.014</ele>
        <time>2024-05-28T12:10:50.948Z</time>
      </trkpt>
      <trkpt lat="28.382871" lon="83.843170">
        <ele>2522.729</ele>
        <time>2024-05-28T12:11:39.948Z</time>
      </trkpt>
      <trkpt lat="28.383210" lon="83.843299">
        <ele>2527.713</ele>
        <time>2024-05-28T12:13:37.947Z</time>
      </trkpt>
      <trkpt lat="28.383370" lon="83.843116">
        <ele>2528.321</ele>
        <time>2024-05-28T12:14:00.947Z</time>
      </trkpt>
      <trkpt lat="28.383112" lon="83.843077">
        <ele>2528.347</ele>
        <time>2024-05-28T12:14:02.947Z</time>
      </trkpt>
      <trkpt lat="28.383967" lon="83.843175">
        <ele>2535.556</ele>
        <time>2024-05-28T12:18:59.947Z</time>
      </trkpt>
      <trkpt lat="28.384314" lon="83.843726">
        <ele>2546.256</ele>
        <time>2024-05-28T12:21:57.947Z</time>
      </trkpt>
      <trkpt lat="28.383538" lon="83.842671">
        <ele>2533.359</ele>
        <time>2024-05-28T12:29:32.945Z</time>
      </trkpt>
      <trkpt lat="28.383877" lon="83.843618">
        <ele>2533.114</ele>
        <time>2024-05-28T14:05:43Z</time>
      </trkpt>
      <trkpt lat="28.383471" lon="83.842760">
        <ele>2510.809</ele>
        <time>2024-05-29T03:55:10Z</time>
      </trkpt>
      <trkpt lat="28.383924" lon="83.843203">
        <ele>2510.976</ele>
        <time>2024-05-29T03:56:14.998Z</time>
      </trkpt>
      <trkpt lat="28.383726" lon="83.843540">
        <ele>2514.012</ele>
        <time>2024-05-29T03:58:52.998Z</time>
      </trkpt>
      <trkpt lat="28.383997" lon="83.843222">
        <ele>2513.627</ele>
        <time>2024-05-29T04:00:18.997Z</time>
      </trkpt>
      <trkpt lat="28.384224" lon="83.843704">
        <ele>2527.873</ele>
        <time>2024-05-29T04:02:08.995Z</time>
      </trkpt>
      <trkpt lat="28.385083" lon="83.844414">
        <ele>2548.488</ele>
        <time>2024-05-29T04:04:38.994Z</time>
      </trkpt>
      <trkpt lat="28.385528" lon="83.844499">
        <ele>2545.412</ele>
        <time>2024-05-29T04:05:49.993Z</time>
      </trkpt>
      <trkpt lat="28.385695" lon="83.845252">
        <ele>2540.520</ele>
        <time>2024-05-29T04:06:53.993Z</time>
      </trkpt>
      <trkpt lat="28.386252" lon="83.845543">
        <ele>2555.186</ele>
        <time>2024-05-29T04:08:37.993Z</time>
      </trkpt>
      <trkpt lat="28.386039" lon="83.846312">
        <ele>2554.855</ele>
        <time>2024-05-29T04:10:36.993Z</time>
      </trkpt>
      <trkpt lat="28.386476" lon="83.847563">
        <ele>2586.761</ele>
        <time>2024-05-29T04:15:29.993Z</time>
      </trkpt>
      <trkpt lat="28.386370" lon="83.848093">
        <ele>2605.121</ele>
        <time>2024-05-29T04:18:42.993Z</time>
      </trkpt>
      <trkpt lat="28.387454" lon="83.848925">
        <ele>2621.613</ele>
        <time>2024-05-29T04:24:19.992Z</time>
      </trkpt>
      <trkpt lat="28.387248" lon="83.849531">
        <ele>2626.609</ele>
        <time>2024-05-29T04:25:52.992Z</time>
      </trkpt>
      <trkpt lat="28.387394" lon="83.850258">
        <ele>2643.257</ele>
        <time>2024-05-29T04:27:48.992Z</time>
      </trkpt>
      <trkpt lat="28.387821" lon="83.850314">
        <ele>2657.863</ele>
        <time>2024-05-29T04:32:51.992Z</time>
      </trkpt>
      <trkpt lat="28.388322" lon="83.849949">
        <ele>2666.678</ele>
        <time>2024-05-29T04:35:56.991Z</time>
      </trkpt>
      <trkpt lat="28.389731" lon="83.848000">
        <ele>2699.064</ele>
        <time>2024-05-29T04:43:02.990Z</time>
      </trkpt>
      <trkpt lat="28.390174" lon="83.847890">
        <ele>2710.089</ele>
        <time>2024-05-29T04:44:15.990Z</time>
      </trkpt>
      <trkpt lat="28.392017" lon="83.849356">
        <ele>2733.863</ele>
        <time>2024-05-29T04:54:54.990Z</time>
      </trkpt>
      <trkpt lat="28.392420" lon="83.850043">
        <ele>2746.491</ele>
        <time>2024-05-29T04:57:07.990Z</time>
      </trkpt>
      <trkpt lat="28.393153" lon="83.850278">
        <ele>2764.887</ele>
        <time>2024-05-29T04:59:41.990Z</time>
      </trkpt>
      <trkpt lat="28.393428" lon="83.850801">
        <ele>2774.296</ele>
        <time>2024-05-29T05:02:07.990Z</time>
      </trkpt>
      <trkpt lat="28.393682" lon="83.850631">
        <ele>2792.359</ele>
        <time>2024-05-29T05:04:58.990Z</time>
      </trkpt>
      <trkpt lat="28.393951" lon="83.850783">
        <ele>2804.603</ele>
        <time>2024-05-29T05:06:23.990Z</time>
      </trkpt>
      <trkpt lat="28.394726" lon="83.851594">
        <ele>2819.823</ele>
        <time>2024-05-29T05:14:10.989Z</time>
      </trkpt>
      <trkpt lat="28.395263" lon="83.851411">
        <ele>2826.609</ele>
        <time>2024-05-29T05:18:37.989Z</time>
      </trkpt>
      <trkpt lat="28.396419" lon="83.851949">
        <ele>2871.066</ele>
        <time>2024-05-29T05:26:29.989Z</time>
      </trkpt>
      <trkpt lat="28.397640" lon="83.851699">
        <ele>2898.392</ele>
        <time>2024-05-29T05:31:58.989Z</time>
      </trkpt>
      <trkpt lat="28.398304" lon="83.853088">
        <ele>2925.367</ele>
        <time>2024-05-29T05:38:02.989Z</time>
      </trkpt>
      <trkpt lat="28.399608" lon="83.853977">
        <ele>2949.133</ele>
        <time>2024-05-29T05:42:54.989Z</time>
      </trkpt>
      <trkpt lat="28.401013" lon="83.855827">
        <ele>2980.528</ele>
        <time>2024-05-29T05:53:43.988Z</time>
      </trkpt>
      <trkpt lat="28.401554" lon="83.855771">
        <ele>2992.642</ele>
        <time>2024-05-29T05:55:23.988Z</time>
      </trkpt>
      <trkpt lat="28.402244" lon="83.856143">
        <ele>3001.630</ele>
        <time>2024-05-29T05:59:54.988Z</time>
      </trkpt>
      <trkpt lat="28.403073" lon="83.857015">
        <ele>3011.276</ele>
        <time>2024-05-29T06:05:15.988Z</time>
      </trkpt>
      <trkpt lat="28.403327" lon="83.856963">
        <ele>3013.185</ele>
        <time>2024-05-29T06:05:45.988Z</time>
      </trkpt>
      <trkpt lat="28.403603" lon="83.855820">
        <ele>3028.093</ele>
        <time>2024-05-29T06:08:30.988Z</time>
      </trkpt>
      <trkpt lat="28.404153" lon="83.855475">
        <ele>3053.865</ele>
        <time>2024-05-29T06:14:13.988Z</time>
      </trkpt>
      <trkpt lat="28.404763" lon="83.855502">
        <ele>3064.921</ele>
        <time>2024-05-29T06:16:11.988Z</time>
      </trkpt>
      <trkpt lat="28.404566" lon="83.855306">
        <ele>3070.509</ele>
        <time>2024-05-29T06:17:28.988Z</time>
      </trkpt>
      <trkpt lat="28.405418" lon="83.854915">
        <ele>3090.720</ele>
        <time>2024-05-29T06:21:19.988Z</time>
      </trkpt>
      <trkpt lat="28.406066" lon="83.855819">
        <ele>3107.356</ele>
        <time>2024-05-29T06:34:10.988Z</time>
      </trkpt>
      <trkpt lat="28.406245" lon="83.855522">
        <ele>3114.471</ele>
        <time>2024-05-29T06:35:22.988Z</time>
      </trkpt>
      <trkpt lat="28.406843" lon="83.856042">
        <ele>3119.257</ele>
        <time>2024-05-29T06:37:42.988Z</time>
      </trkpt>
      <trkpt lat="28.407275" lon="83.855978">
        <ele>3122.632</ele>
        <time>2024-05-29T06:38:48.988Z</time>
      </trkpt>
      <trkpt lat="28.408205" lon="83.856851">
        <ele>3162.786</ele>
        <time>2024-05-29T06:44:56.988Z</time>
      </trkpt>
      <trkpt lat="28.408643" lon="83.856700">
        <ele>3174.574</ele>
        <time>2024-05-29T06:47:33.988Z</time>
      </trkpt>
      <trkpt lat="28.410090" lon="83.856888">
        <ele>3210.820</ele>
        <time>2024-05-29T06:53:43.988Z</time>
      </trkpt>
      <trkpt lat="28.411508" lon="83.856180">
        <ele>3207.279</ele>
        <time>2024-05-29T07:17:55.986Z</time>
      </trkpt>
      <trkpt lat="28.413686" lon="83.855696">
        <ele>3232.122</ele>
        <time>2024-05-29T07:23:51.986Z</time>
      </trkpt>
      <trkpt lat="28.414290" lon="83.855174">
        <ele>3254.262</ele>
        <time>2024-05-29T07:27:38.986Z</time>
      </trkpt>
      <trkpt lat="28.414552" lon="83.855333">
        <ele>3262.108</ele>
        <time>2024-05-29T07:28:46.986Z</time>
      </trkpt>
      <trkpt lat="28.414832" lon="83.855047">
        <ele>3266.309</ele>
        <time>2024-05-29T07:35:26.985Z</time>
      </trkpt>
      <trkpt lat="28.415353" lon="83.855118">
        <ele>3275.463</ele>
        <time>2024-05-29T07:38:21.983Z</time>
      </trkpt>
      <trkpt lat="28.415597" lon="83.854824">
        <ele>3294.569</ele>
        <time>2024-05-29T07:41:08.983Z</time>
      </trkpt>
      <trkpt lat="28.415246" lon="83.854463">
        <ele>3296.384</ele>
        <time>2024-05-29T07:56:22.982Z</time>
      </trkpt>
      <trkpt lat="28.417233" lon="83.855856">
        <ele>3309.440</ele>
        <time>2024-05-29T08:13:07.979Z</time>
      </trkpt>
      <trkpt lat="28.417357" lon="83.856190">
        <ele>3315.255</ele>
        <time>2024-05-29T08:14:12.979Z</time>
      </trkpt>
      <trkpt lat="28.417744" lon="83.856272">
        <ele>3325.449</ele>
        <time>2024-05-29T08:20:49.978Z</time>
      </trkpt>
      <trkpt lat="28.417862" lon="83.856614">
        <ele>3337.067</ele>
        <time>2024-05-29T08:22:02.978Z</time>
      </trkpt>
      <trkpt lat="28.418677" lon="83.856593">
        <ele>3352.673</ele>
        <time>2024-05-29T08:24:38.978Z</time>
      </trkpt>
      <trkpt lat="28.419982" lon="83.857999">
        <ele>3348.182</ele>
        <time>2024-05-29T08:38:43.978Z</time>
      </trkpt>
      <trkpt lat="28.420982" lon="83.858435">
        <ele>3355.734</ele>
        <time>2024-05-29T08:41:11.978Z</time>
      </trkpt>
      <trkpt lat="28.421591" lon="83.859350">
        <ele>3357.055</ele>
        <time>2024-05-29T08:43:50.978Z</time>
      </trkpt>
      <trkpt lat="28.422088" lon="83.859370">
        <ele>3346.110</ele>
        <time>2024-05-29T08:54:24.976Z</time>
      </trkpt>
      <trkpt lat="28.423568" lon="83.860248">
        <ele>3363.709</ele>
        <time>2024-05-29T08:58:03.976Z</time>
      </trkpt>
      <trkpt lat="28.424466" lon="83.860398">
        <ele>3384.734</ele>
        <time>2024-05-29T09:02:20.976Z</time>
      </trkpt>
      <trkpt lat="28.424837" lon="83.861090">
        <ele>3401.930</ele>
        <time>2024-05-29T09:04:53.976Z</time>
      </trkpt>
      <trkpt lat="28.425578" lon="83.860961">
        <ele>3409.355</ele>
        <time>2024-05-29T09:09:24.975Z</time>
      </trkpt>
      <trkpt lat="28.426241" lon="83.861931">
        <ele>3427.211</ele>
        <time>2024-05-29T09:13:57.975Z</time>
      </trkpt>
      <trkpt lat="28.428838" lon="83.863960">
        <ele>3427.346</ele>
        <time>2024-05-29T09:44:58.974Z</time>
      </trkpt>
      <trkpt lat="28.429389" lon="83.864829">
        <ele>3441.580</ele>
        <time>2024-05-29T09:53:29.972Z</time>
      </trkpt>
      <trkpt lat="28.430222" lon="83.865092">
        <ele>3463.078</ele>
        <time>2024-05-29T09:56:26.972Z</time>
      </trkpt>
      <trkpt lat="28.430645" lon="83.865692">
        <ele>3480.374</ele>
        <time>2024-05-29T10:01:01.971Z</time>
      </trkpt>
      <trkpt lat="28.431395" lon="83.866005">
        <ele>3491.863</ele>
        <time>2024-05-29T10:03:37.971Z</time>
      </trkpt>
      <trkpt lat="28.431793" lon="83.867044">
        <ele>3496.722</ele>
        <time>2024-05-29T10:08:47.971Z</time>
      </trkpt>
      <trkpt lat="28.432232" lon="83.867113">
        <ele>3501.062</ele>
        <time>2024-05-29T10:10:08.971Z</time>
      </trkpt>
      <trkpt lat="28.432452" lon="83.867557">
        <ele>3511.308</ele>
        <time>2024-05-29T10:11:46.971Z</time>
      </trkpt>
      <trkpt lat="28.433589" lon="83.868125">
        <ele>3518.309</ele>
        <time>2024-05-29T10:17:30.971Z</time>
      </trkpt>
      <trkpt lat="28.433688" lon="83.868960">
        <ele>3525.353</ele>
        <time>2024-05-29T10:19:19.971Z</time>
      </trkpt>
      <trkpt lat="28.433925" lon="83.868876">
        <ele>3526.099</ele>
        <time>2024-05-29T13:57:03.015Z</time>
      </trkpt>
      <trkpt lat="28.433669" lon="83.868747">
        <ele>3529.264</ele>
        <time>2024-05-29T22:03:23Z</time>
      </trkpt>
      <trkpt lat="28.433831" lon="83.868928">
        <ele>3528.380</ele>
        <time>2024-05-29T22:05:36Z</time>
      </trkpt>
      <trkpt lat="28.433844" lon="83.868190">
        <ele>3525.825</ele>
        <time>2024-05-29T22:07:30Z</time>
      </trkpt>
      <trkpt lat="28.433999" lon="83.869390">
        <ele>3524.699</ele>
        <time>2024-05-29T22:10:46Z</time>
      </trkpt>
      <trkpt lat="28.434299" lon="83.869920">
        <ele>3530.887</ele>
        <time>2024-05-29T22:12:46Z</time>
      </trkpt>
      <trkpt lat="28.434744" lon="83.870033">
        <ele>3530.433</ele>
        <time>2024-05-29T22:13:25Z</time>
      </trkpt>
      <trkpt lat="28.435559" lon="83.871542">
        <ele>3555.662</ele>
        <time>2024-05-29T22:18:19Z</time>
      </trkpt>
      <trkpt lat="28.435703" lon="83.871046">
        <ele>3570.717</ele>
        <time>2024-05-29T22:20:30Z</time>
      </trkpt>
      <trkpt lat="28.436032" lon="83.871671">
        <ele>3581.287</ele>
        <time>2024-05-29T22:23:18Z</time>
      </trkpt>
      <trkpt lat="28.436852" lon="83.871809">
        <ele>3581.415</ele>
        <time>2024-05-29T22:25:25Z</time>
      </trkpt>
      <trkpt lat="28.437621" lon="83.873273">
        <ele>3589.509</ele>
        <time>2024-05-29T22:30:28Z</time>
      </trkpt>
      <trkpt lat="28.438006" lon="83.873521">
        <ele>3586.492</ele>
        <time>2024-05-29T22:31:27Z</time>
      </trkpt>
      <trkpt lat="28.437904" lon="83.873825">
        <ele>3586.738</ele>
        <time>2024-05-29T22:32:19Z</time>
      </trkpt>
      <trkpt lat="28.438359" lon="83.874851">
        <ele>3596.283</ele>
        <time>2024-05-29T22:36:08Z</time>
      </trkpt>
      <trkpt lat="28.438727" lon="83.874961">
        <ele>3613.159</ele>
        <time>2024-05-29T22:38:03Z</time>
      </trkpt>
      <trkpt lat="28.438978" lon="83.874280">
        <ele>3623.654</ele>
        <time>2024-05-29T22:39:51Z</time>
      </trkpt>
      <trkpt lat="28.438648" lon="83.872788">
        <ele>3659.398</ele>
        <time>2024-05-29T22:47:22Z</time>
      </trkpt>
      <trkpt lat="28.439023" lon="83.872568">
        <ele>3669.756</ele>
        <time>2024-05-29T22:49:35Z</time>
      </trkpt>
      <trkpt lat="28.440457" lon="83.874140">
        <ele>3718.292</ele>
        <time>2024-05-29T23:01:41Z</time>
      </trkpt>
      <trkpt lat="28.441852" lon="83.874241">
        <ele>3737.311</ele>
        <time>2024-05-29T23:09:46Z</time>
      </trkpt>
      <trkpt lat="28.443195" lon="83.875630">
        <ele>3754.145</ele>
        <time>2024-05-29T23:19:32Z</time>
      </trkpt>
      <trkpt lat="28.444030" lon="83.876130">
        <ele>3764.847</ele>
        <time>2024-05-29T23:22:04Z</time>
      </trkpt>
      <trkpt lat="28.445306" lon="83.876148">
        <ele>3800.911</ele>
        <time>2024-05-29T23:30:03Z</time>
      </trkpt>
      <trkpt lat="28.446737" lon="83.877070">
        <ele>3850.809</ele>
        <time>2024-05-29T23:38:30Z</time>
      </trkpt>
      <trkpt lat="28.446977" lon="83.876788">
        <ele>3874.565</ele>
        <time>2024-05-29T23:42:01Z</time>
      </trkpt>
      <trkpt lat="28.447440" lon="83.876922">
        <ele>3896.141</ele>
        <time>2024-05-29T23:46:08Z</time>
      </trkpt>
      <trkpt lat="28.447710" lon="83.876717">
        <ele>3908.486</ele>
        <time>2024-05-29T23:47:48Z</time>
      </trkpt>
      <trkpt lat="28.448468" lon="83.876922">
        <ele>3937.432</ele>
        <time>2024-05-29T23:52:07.001Z</time>
      </trkpt>
      <trkpt lat="28.448995" lon="83.878072">
        <ele>3951.437</ele>
        <time>2024-05-30T00:18:03.003Z</time>
      </trkpt>
      <trkpt lat="28.448924" lon="83.877829">
        <ele>3950.551</ele>
        <time>2024-05-30T00:37:12.003Z</time>
      </trkpt>
      <trkpt lat="28.449780" lon="83.878484">
        <ele>3940.979</ele>
        <time>2024-05-30T00:51:13.003Z</time>
      </trkpt>
      <trkpt lat="28.451260" lon="83.878570">
        <ele>3952.775</ele>
        <time>2024-05-30T00:54:35.003Z</time>
      </trkpt>
      <trkpt lat="28.452571" lon="83.879705">
        <ele>3955.834</ele>
        <time>2024-05-30T01:05:01.002Z</time>
      </trkpt>
      <trkpt lat="28.453624" lon="83.881116">
        <ele>3938.667</ele>
        <time>2024-05-30T01:11:25.001Z</time>
      </trkpt>
      <trkpt lat="28.454271" lon="83.881457">
        <ele>3965.481</ele>
        <time>2024-05-30T01:32:07.001Z</time>
      </trkpt>
      <trkpt lat="28.454236" lon="83.881677">
        <ele>3966.519</ele>
        <time>2024-05-30T01:32:50.001Z</time>
      </trkpt>
      <trkpt lat="28.454772" lon="83.882089">
        <ele>3987.009</ele>
        <time>2024-05-30T01:36:09.001Z</time>
      </trkpt>
      <trkpt lat="28.457169" lon="83.885855">
        <ele>4075.797</ele>
        <time>2024-05-30T01:54:13Z</time>
      </trkpt>
      <trkpt lat="28.456908" lon="83.886689">
        <ele>4071.783</ele>
        <time>2024-05-30T02:05:16.999Z</time>
      </trkpt>
      <trkpt lat="28.457027" lon="83.887863">
        <ele>4074.978</ele>
        <time>2024-05-30T02:07:44.998Z</time>
      </trkpt>
      <trkpt lat="28.457837" lon="83.889245">
        <ele>4092.364</ele>
        <time>2024-05-30T02:17:53.997Z</time>
      </trkpt>
      <trkpt lat="28.458572" lon="83.891237">
        <ele>4109.429</ele>
        <time>2024-05-30T02:24:27.996Z</time>
      </trkpt>
      <trkpt lat="28.458826" lon="83.892338">
        <ele>4111.043</ele>
        <time>2024-05-30T02:26:30.996Z</time>
      </trkpt>
      <trkpt lat="28.458678" lon="83.892988">
        <ele>4119.691</ele>
        <time>2024-05-30T02:28:16.996Z</time>
      </trkpt>
      <trkpt lat="28.459146" lon="83.893201">
        <ele>4131.377</ele>
        <time>2024-05-30T02:30:19.996Z</time>
      </trkpt>
      <trkpt lat="28.459292" lon="83.893963">
        <ele>4147.086</ele>
        <time>2024-05-30T02:33:16.995Z</time>
      </trkpt>
      <trkpt lat="28.459705" lon="83.894140">
        <ele>4147.275</ele>
        <time>2024-05-30T02:34:21.995Z</time>
      </trkpt>
      <trkpt lat="28.459879" lon="83.895205">
        <ele>4154.528</ele>
        <time>2024-05-30T02:39:27.995Z</time>
      </trkpt>
      <trkpt lat="28.460313" lon="83.895172">
        <ele>4150.220</ele>
        <time>2024-05-30T02:58:21.997Z</time>
      </trkpt>
      <trkpt lat="28.459908" lon="83.895200">
        <ele>4150.109</ele>
        <time>2024-05-30T03:14:05.997Z</time>
      </trkpt>
      <trkpt lat="28.459436" lon="83.893577">
        <ele>4137.298</ele>
        <time>2024-05-30T03:23:58.997Z</time>
      </trkpt>
      <trkpt lat="28.458698" lon="83.893014">
        <ele>4117.434</ele>
        <time>2024-05-30T03:26:38.996Z</time>
      </trkpt>
      <trkpt lat="28.458826" lon="83.892091">
        <ele>4103.339</ele>
        <time>2024-05-30T03:38:19.995Z</time>
      </trkpt>
      <trkpt lat="28.457730" lon="83.888951">
        <ele>4084.045</ele>
        <time>2024-05-30T03:48:46.992Z</time>
      </trkpt>
      <trkpt lat="28.457026" lon="83.887795">
        <ele>4064.150</ele>
        <time>2024-05-30T03:52:26.991Z</time>
      </trkpt>
      <trkpt lat="28.457047" lon="83.885862">
        <ele>4064.274</ele>
        <time>2024-05-30T03:57:37.991Z</time>
      </trkpt>
      <trkpt lat="28.456435" lon="83.884505">
        <ele>4035.832</ele>
        <time>2024-05-30T04:00:18.991Z</time>
      </trkpt>
      <trkpt lat="28.454834" lon="83.882177">
        <ele>3985.328</ele>
        <time>2024-05-30T04:06:18.991Z</time>
      </trkpt>
      <trkpt lat="28.452591" lon="83.879708">
        <ele>3937.977</ele>
        <time>2024-05-30T04:22:15.990Z</time>
      </trkpt>
      <trkpt lat="28.450980" lon="83.878251">
        <ele>3936.447</ele>
        <time>2024-05-30T04:31:07.988Z</time>
      </trkpt>
      <trkpt lat="28.450607" lon="83.878444">
        <ele>3928.929</ele>
        <time>2024-05-30T04:33:08.987Z</time>
      </trkpt>
      <trkpt lat="28.450790" lon="83.878508">
        <ele>3925.421</ele>
        <time>2024-05-30T04:33:53.987Z</time>
      </trkpt>
      <trkpt lat="28.449986" lon="83.878492">
        <ele>3920.809</ele>
        <time>2024-05-30T04:35:36.986Z</time>
      </trkpt>
      <trkpt lat="28.449038" lon="83.878030">
        <ele>3927.765</ele>
        <time>2024-05-30T04:37:48.985Z</time>
      </trkpt>
      <trkpt lat="28.448477" lon="83.876924">
        <ele>3918.451</ele>
        <time>2024-05-30T04:40:15.985Z</time>
      </trkpt>
      <trkpt lat="28.447715" lon="83.876706">
        <ele>3891.596</ele>
        <time>2024-05-30T04:43:03.985Z</time>
      </trkpt>
      <trkpt lat="28.447452" lon="83.876938">
        <ele>3879.952</ele>
        <time>2024-05-30T04:44:09.985Z</time>
      </trkpt>
      <trkpt lat="28.446946" lon="83.876815">
        <ele>3861.427</ele>
        <time>2024-05-30T04:47:45.985Z</time>
      </trkpt>
      <trkpt lat="28.446716" lon="83.877092">
        <ele>3837.071</ele>
        <time>2024-05-30T04:50:26.985Z</time>
      </trkpt>
      <trkpt lat="28.446482" lon="83.876725">
        <ele>3817.759</ele>
        <time>2024-05-30T04:51:58.985Z</time>
      </trkpt>
      <trkpt lat="28.446447" lon="83.876894">
        <ele>3811.855</ele>
        <time>2024-05-30T04:52:23.985Z</time>
      </trkpt>
      <trkpt lat="28.445309" lon="83.876144">
        <ele>3786.414</ele>
        <time>2024-05-30T04:55:21.985Z</time>
      </trkpt>
      <trkpt lat="28.444060" lon="83.876121">
        <ele>3744.258</ele>
        <time>2024-05-30T04:59:44.985Z</time>
      </trkpt>
      <trkpt lat="28.443226" lon="83.875654">
        <ele>3734.052</ele>
        <time>2024-05-30T05:02:27.985Z</time>
      </trkpt>
      <trkpt lat="28.441838" lon="83.874249">
        <ele>3714.117</ele>
        <time>2024-05-30T05:06:36.984Z</time>
      </trkpt>
      <trkpt lat="28.440461" lon="83.874146">
        <ele>3696.309</ele>
        <time>2024-05-30T05:10:13.983Z</time>
      </trkpt>
      <trkpt lat="28.439046" lon="83.872570">
        <ele>3653.286</ele>
        <time>2024-05-30T05:17:29.983Z</time>
      </trkpt>
      <trkpt lat="28.438643" lon="83.872823">
        <ele>3636.242</ele>
        <time>2024-05-30T05:18:48.982Z</time>
      </trkpt>
      <trkpt lat="28.438931" lon="83.873618">
        <ele>3618.847</ele>
        <time>2024-05-30T05:21:31.982Z</time>
      </trkpt>
      <trkpt lat="28.438849" lon="83.874701">
        <ele>3596.993</ele>
        <time>2024-05-30T05:23:40.982Z</time>
      </trkpt>
      <trkpt lat="28.438684" lon="83.874989">
        <ele>3595.128</ele>
        <time>2024-05-30T05:24:21.982Z</time>
      </trkpt>
      <trkpt lat="28.438364" lon="83.874857">
        <ele>3580.282</ele>
        <time>2024-05-30T05:25:39.982Z</time>
      </trkpt>
      <trkpt lat="28.438285" lon="83.874241">
        <ele>3556.330</ele>
        <time>2024-05-30T05:27:54.982Z</time>
      </trkpt>
      <trkpt lat="28.437923" lon="83.873874">
        <ele>3557.136</ele>
        <time>2024-05-30T05:28:43.982Z</time>
      </trkpt>
      <trkpt lat="28.438024" lon="83.873573">
        <ele>3561.365</ele>
        <time>2024-05-30T05:29:40.982Z</time>
      </trkpt>
      <trkpt lat="28.437642" lon="83.873285">
        <ele>3561.883</ele>
        <time>2024-05-30T05:30:32.982Z</time>
      </trkpt>
      <trkpt lat="28.436857" lon="83.871815">
        <ele>3553.925</ele>
        <time>2024-05-30T05:33:55.982Z</time>
      </trkpt>
      <trkpt lat="28.436052" lon="83.871683">
        <ele>3552.117</ele>
        <time>2024-05-30T05:35:37.982Z</time>
      </trkpt>
      <trkpt lat="28.435730" lon="83.871070">
        <ele>3549.509</ele>
        <time>2024-05-30T05:36:52.982Z</time>
      </trkpt>
      <trkpt lat="28.435571" lon="83.871532">
        <ele>3535.449</ele>
        <time>2024-05-30T05:39:01.982Z</time>
      </trkpt>
      <trkpt lat="28.434775" lon="83.870079">
        <ele>3506.215</ele>
        <time>2024-05-30T05:42:39.982Z</time>
      </trkpt>
      <trkpt lat="28.433701" lon="83.869403">
        <ele>3497.960</ele>
        <time>2024-05-30T05:45:16.982Z</time>
      </trkpt>
      <trkpt lat="28.433733" lon="83.868791">
        <ele>3501.126</ele>
        <time>2024-05-30T05:47:09.982Z</time>
      </trkpt>
      <trkpt lat="28.434067" lon="83.868775">
        <ele>3502.281</ele>
        <time>2024-05-30T05:47:42.982Z</time>
      </trkpt>
      <trkpt lat="28.433642" lon="83.869017">
        <ele>3502.155</ele>
        <time>2024-05-30T05:47:47.002Z</time>
      </trkpt>
      <trkpt lat="28.434005" lon="83.868678">
        <ele>3502.433</ele>
        <time>2024-05-30T05:48:21.982Z</time>
      </trkpt>
      <trkpt lat="28.433668" lon="83.868862">
        <ele>3502.339</ele>
        <time>2024-05-30T05:48:33.982Z</time>
      </trkpt>
      <trkpt lat="28.433830" lon="83.868809">
        <ele>3502.348</ele>
        <time>2024-05-30T05:48:36.982Z</time>
      </trkpt>
      <trkpt lat="28.433709" lon="83.869081">
        <ele>3502.413</ele>
        <time>2024-05-30T05:48:46.002Z</time>
      </trkpt>
      <trkpt lat="28.433969" lon="83.868294">
        <ele>3502.443</ele>
        <time>2024-05-30T05:52:37.002Z</time>
      </trkpt>
      <trkpt lat="28.433724" lon="83.868774">
        <ele>3502.707</ele>
        <time>2024-05-30T05:55:15.981Z</time>
      </trkpt>
      <trkpt lat="28.434118" lon="83.869268">
        <ele>3502.909</ele>
        <time>2024-05-30T05:55:35.981Z</time>
      </trkpt>
      <trkpt lat="28.433615" lon="83.868710">
        <ele>3502.752</ele>
        <time>2024-05-30T05:56:14.981Z</time>
      </trkpt>
      <trkpt lat="28.434133" lon="83.869310">
        <ele>3502.718</ele>
        <time>2024-05-30T05:57:33.981Z</time>
      </trkpt>
      <trkpt lat="28.433740" lon="83.868878">
        <ele>3502.773</ele>
        <time>2024-05-30T05:58:11.981Z</time>
      </trkpt>
      <trkpt lat="28.434170" lon="83.869122">
        <ele>3502.619</ele>
        <time>2024-05-30T05:58:46.981Z</time>
      </trkpt>
      <trkpt lat="28.433843" lon="83.868683">
        <ele>3502.744</ele>
        <time>2024-05-30T05:59:29.981Z</time>
      </trkpt>
      <trkpt lat="28.433783" lon="83.868958">
        <ele>3502.618</ele>
        <time>2024-05-30T05:59:31.981Z</time>
      </trkpt>
      <trkpt lat="28.433957" lon="83.868930">
        <ele>3502.666</ele>
        <time>2024-05-30T05:59:48.981Z</time>
      </trkpt>
      <trkpt lat="28.433848" lon="83.868736">
        <ele>3502.862</ele>
        <time>2024-05-30T05:59:56.981Z</time>
      </trkpt>
      <trkpt lat="28.434011" lon="83.868867">
        <ele>3502.881</ele>
        <time>2024-05-30T06:00:00.981Z</time>
      </trkpt>
      <trkpt lat="28.433649" lon="83.868624">
        <ele>3502.718</ele>
        <time>2024-05-30T06:00:48.981Z</time>
      </trkpt>
      <trkpt lat="28.433918" lon="83.869052">
        <ele>3502.798</ele>
        <time>2024-05-30T06:01:25.981Z</time>
      </trkpt>
      <trkpt lat="28.433709" lon="83.868783">
        <ele>3502.417</ele>
        <time>2024-05-30T06:01:57.981Z</time>
      </trkpt>
      <trkpt lat="28.433889" lon="83.868971">
        <ele>3502.409</ele>
        <time>2024-05-30T06:02:24.981Z</time>
      </trkpt>
      <trkpt lat="28.433565" lon="83.868778">
        <ele>3502.332</ele>
        <time>2024-05-30T06:02:39.981Z</time>
      </trkpt>
      <trkpt lat="28.433366" lon="83.868939">
        <ele>3502.228</ele>
        <time>2024-05-30T06:02:41.981Z</time>
      </trkpt>
      <trkpt lat="28.433752" lon="83.868870">
        <ele>3502.473</ele>
        <time>2024-05-30T06:02:53.981Z</time>
      </trkpt>
      <trkpt lat="28.433545" lon="83.868716">
        <ele>3502.259</ele>
        <time>2024-05-30T06:04:34.981Z</time>
      </trkpt>
      <trkpt lat="28.433487" lon="83.868911">
        <ele>3502.664</ele>
        <time>2024-05-30T06:04:46.981Z</time>
      </trkpt>
      <trkpt lat="28.433887" lon="83.868856">
        <ele>3502.038</ele>
        <time>2024-05-30T06:07:45.981Z</time>
      </trkpt>
      <trkpt lat="28.433466" lon="83.868821">
        <ele>3502.926</ele>
        <time>2024-05-30T06:19:25.981Z</time>
      </trkpt>
      <trkpt lat="28.433655" lon="83.868843">
        <ele>3503.252</ele>
        <time>2024-05-30T06:21:21.981Z</time>
      </trkpt>
      <trkpt lat="28.433754" lon="83.868085">
        <ele>3501.781</ele>
        <time>2024-05-30T06:23:35.981Z</time>
      </trkpt>
      <trkpt lat="28.433559" lon="83.868292">
        <ele>3501.973</ele>
        <time>2024-05-30T06:23:51.981Z</time>
      </trkpt>
      <trkpt lat="28.433683" lon="83.868171">
        <ele>3502.285</ele>
        <time>2024-05-30T06:25:30.981Z</time>
      </trkpt>
      <trkpt lat="28.433416" lon="83.867939">
        <ele>3498.213</ele>
        <time>2024-05-30T06:26:22.981Z</time>
      </trkpt>
      <trkpt lat="28.431768" lon="83.867013">
        <ele>3478.009</ele>
        <time>2024-05-30T06:33:17.981Z</time>
      </trkpt>
      <trkpt lat="28.431371" lon="83.865987">
        <ele>3472.338</ele>
        <time>2024-05-30T06:39:24.981Z</time>
      </trkpt>
      <trkpt lat="28.430643" lon="83.865712">
        <ele>3464.324</ele>
        <time>2024-05-30T06:41:08.981Z</time>
      </trkpt>
      <trkpt lat="28.430162" lon="83.865078">
        <ele>3449.219</ele>
        <time>2024-05-30T06:43:18.981Z</time>
      </trkpt>
      <trkpt lat="28.429444" lon="83.864862">
        <ele>3432.765</ele>
        <time>2024-05-30T06:45:31.981Z</time>
      </trkpt>
      <trkpt lat="28.428279" lon="83.863438">
        <ele>3416.650</ele>
        <time>2024-05-30T06:50:18.981Z</time>
      </trkpt>
      <trkpt lat="28.426234" lon="83.861973">
        <ele>3413.584</ele>
        <time>2024-05-30T06:58:41.979Z</time>
      </trkpt>
      <trkpt lat="28.425581" lon="83.860897">
        <ele>3396.122</ele>
        <time>2024-05-30T07:01:29.979Z</time>
      </trkpt>
      <trkpt lat="28.424846" lon="83.861098">
        <ele>3393.448</ele>
        <time>2024-05-30T07:02:49.979Z</time>
      </trkpt>
      <trkpt lat="28.424410" lon="83.860360">
        <ele>3376.967</ele>
        <time>2024-05-30T07:04:37.979Z</time>
      </trkpt>
      <trkpt lat="28.423588" lon="83.860271">
        <ele>3353.952</ele>
        <time>2024-05-30T07:06:56.979Z</time>
      </trkpt>
      <trkpt lat="28.422145" lon="83.859339">
        <ele>3333.153</ele>
        <time>2024-05-30T07:10:08.979Z</time>
      </trkpt>
      <trkpt lat="28.421356" lon="83.859170">
        <ele>3343.208</ele>
        <time>2024-05-30T07:13:39.978Z</time>
      </trkpt>
      <trkpt lat="28.420923" lon="83.858372">
        <ele>3345.709</ele>
        <time>2024-05-30T07:15:57.977Z</time>
      </trkpt>
      <trkpt lat="28.419973" lon="83.857964">
        <ele>3334.346</ele>
        <time>2024-05-30T07:17:58.976Z</time>
      </trkpt>
      <trkpt lat="28.418325" lon="83.856599">
        <ele>3336.342</ele>
        <time>2024-05-30T07:22:50.974Z</time>
      </trkpt>
      <trkpt lat="28.417838" lon="83.856605">
        <ele>3331.957</ele>
        <time>2024-05-30T07:23:52.973Z</time>
      </trkpt>
      <trkpt lat="28.417702" lon="83.856208">
        <ele>3320.623</ele>
        <time>2024-05-30T07:26:10.972Z</time>
      </trkpt>
      <trkpt lat="28.417422" lon="83.856226">
        <ele>3310.458</ele>
        <time>2024-05-30T07:51:39.973Z</time>
      </trkpt>
      <trkpt lat="28.417344" lon="83.855921">
        <ele>3305.562</ele>
        <time>2024-05-30T07:52:19.973Z</time>
      </trkpt>
      <trkpt lat="28.416122" lon="83.855073">
        <ele>3286.410</ele>
        <time>2024-05-30T07:55:56.972Z</time>
      </trkpt>
      <trkpt lat="28.414316" lon="83.855145">
        <ele>3254.316</ele>
        <time>2024-05-30T08:01:58.971Z</time>
      </trkpt>
      <trkpt lat="28.413392" lon="83.855803">
        <ele>3226.845</ele>
        <time>2024-05-30T08:05:25.971Z</time>
      </trkpt>
      <trkpt lat="28.411521" lon="83.856153">
        <ele>3203.113</ele>
        <time>2024-05-30T08:12:33.971Z</time>
      </trkpt>
      <trkpt lat="28.410137" lon="83.856852">
        <ele>3212.843</ele>
        <time>2024-05-30T08:16:20.970Z</time>
      </trkpt>
      <trkpt lat="28.408424" lon="83.856556">
        <ele>3168.507</ele>
        <time>2024-05-30T08:21:27.969Z</time>
      </trkpt>
      <trkpt lat="28.408120" lon="83.856724">
        <ele>3161.609</ele>
        <time>2024-05-30T08:22:27.969Z</time>
      </trkpt>
      <trkpt lat="28.407258" lon="83.855894">
        <ele>3123.142</ele>
        <time>2024-05-30T08:25:56.969Z</time>
      </trkpt>
      <trkpt lat="28.406574" lon="83.855867">
        <ele>3116.438</ele>
        <time>2024-05-30T08:27:11.969Z</time>
      </trkpt>
      <trkpt lat="28.406174" lon="83.855423">
        <ele>3114.133</ele>
        <time>2024-05-30T08:32:02.968Z</time>
      </trkpt>
      <trkpt lat="28.406091" lon="83.855682">
        <ele>3108.919</ele>
        <time>2024-05-30T08:32:49.968Z</time>
      </trkpt>
      <trkpt lat="28.405859" lon="83.855565">
        <ele>3100.754</ele>
        <time>2024-05-30T08:33:33.967Z</time>
      </trkpt>
      <trkpt lat="28.405359" lon="83.854940">
        <ele>3087.848</ele>
        <time>2024-05-30T08:35:12.967Z</time>
      </trkpt>
      <trkpt lat="28.404516" lon="83.855237">
        <ele>3071.916</ele>
        <time>2024-05-30T08:37:41.967Z</time>
      </trkpt>
      <trkpt lat="28.404747" lon="83.855457">
        <ele>3067.892</ele>
        <time>2024-05-30T08:38:15.967Z</time>
      </trkpt>
      <trkpt lat="28.404081" lon="83.855477">
        <ele>3049.041</ele>
        <time>2024-05-30T08:42:22.967Z</time>
      </trkpt>
      <trkpt lat="28.403565" lon="83.855815">
        <ele>3029.322</ele>
        <time>2024-05-30T08:43:56.967Z</time>
      </trkpt>
      <trkpt lat="28.403325" lon="83.856995">
        <ele>3011.762</ele>
        <time>2024-05-30T08:46:14.967Z</time>
      </trkpt>
      <trkpt lat="28.401676" lon="83.856184">
        <ele>2977.008</ele>
        <time>2024-05-30T08:54:13.966Z</time>
      </trkpt>
      <trkpt lat="28.401645" lon="83.856565">
        <ele>2972.709</ele>
        <time>2024-05-30T08:54:47.966Z</time>
      </trkpt>
      <trkpt lat="28.401384" lon="83.856379">
        <ele>2959.963</ele>
        <time>2024-05-30T08:55:58.966Z</time>
      </trkpt>
      <trkpt lat="28.400715" lon="83.856601">
        <ele>2946.769</ele>
        <time>2024-05-30T08:57:46.966Z</time>
      </trkpt>
      <trkpt lat="28.400709" lon="83.856136">
        <ele>2942.654</ele>
        <time>2024-05-30T09:00:44.966Z</time>
      </trkpt>
      <trkpt lat="28.400296" lon="83.856150">
        <ele>2931.630</ele>
        <time>2024-05-30T09:01:48.966Z</time>
      </trkpt>
      <trkpt lat="28.400274" lon="83.856417">
        <ele>2929.455</ele>
        <time>2024-05-30T09:04:49.965Z</time>
      </trkpt>
      <trkpt lat="28.400253" lon="83.856081">
        <ele>2930.019</ele>
        <time>2024-05-30T09:08:15.965Z</time>
      </trkpt>
      <trkpt lat="28.399971" lon="83.856276">
        <ele>2930.097</ele>
        <time>2024-05-30T09:08:23.965Z</time>
      </trkpt>
      <trkpt lat="28.400278" lon="83.856316">
        <ele>2930.053</ele>
        <time>2024-05-30T09:08:57.965Z</time>
      </trkpt>
      <trkpt lat="28.400096" lon="83.856144">
        <ele>2930.012</ele>
        <time>2024-05-30T09:10:39.965Z</time>
      </trkpt>
      <trkpt lat="28.400296" lon="83.856094">
        <ele>2930.048</ele>
        <time>2024-05-30T09:10:40.965Z</time>
      </trkpt>
      <trkpt lat="28.399953" lon="83.856892">
        <ele>2898.761</ele>
        <time>2024-05-30T09:14:50.965Z</time>
      </trkpt>
      <trkpt lat="28.399368" lon="83.856383">
        <ele>2875.817</ele>
        <time>2024-05-30T09:17:23.965Z</time>
      </trkpt>
      <trkpt lat="28.399234" lon="83.856538">
        <ele>2869.909</ele>
        <time>2024-05-30T09:17:53.965Z</time>
      </trkpt>
      <trkpt lat="28.398740" lon="83.855562">
        <ele>2851.985</ele>
        <time>2024-05-30T09:20:44.965Z</time>
      </trkpt>
      <trkpt lat="28.398611" lon="83.856142">
        <ele>2840.131</ele>
        <time>2024-05-30T09:22:11.965Z</time>
      </trkpt>
      <trkpt lat="28.398184" lon="83.855584">
        <ele>2824.646</ele>
        <time>2024-05-30T09:24:30.965Z</time>
      </trkpt>
      <trkpt lat="28.397505" lon="83.855468">
        <ele>2814.232</ele>
        <time>2024-05-30T09:25:56.965Z</time>
      </trkpt>
      <trkpt lat="28.397032" lon="83.855660">
        <ele>2805.577</ele>
        <time>2024-05-30T09:27:16.965Z</time>
      </trkpt>
      <trkpt lat="28.396635" lon="83.855434">
        <ele>2795.271</ele>
        <time>2024-05-30T09:28:23.965Z</time>
      </trkpt>
      <trkpt lat="28.396167" lon="83.855605">
        <ele>2779.279</ele>
        <time>2024-05-30T09:30:20.965Z</time>
      </trkpt>
      <trkpt lat="28.395772" lon="83.855294">
        <ele>2767.985</ele>
        <time>2024-05-30T09:34:05.964Z</time>
      </trkpt>
      <trkpt lat="28.395688" lon="83.855782">
        <ele>2759.284</ele>
        <time>2024-05-30T09:35:14.964Z</time>
      </trkpt>
      <trkpt lat="28.396056" lon="83.856216">
        <ele>2747.694</ele>
        <time>2024-05-30T09:36:39.964Z</time>
      </trkpt>
      <trkpt lat="28.396169" lon="83.857488">
        <ele>2728.057</ele>
        <time>2024-05-30T09:39:27.964Z</time>
      </trkpt>
      <trkpt lat="28.396412" lon="83.857739">
        <ele>2724.922</ele>
        <time>2024-05-30T09:40:05.964Z</time>
      </trkpt>
      <trkpt lat="28.396213" lon="83.858233">
        <ele>2712.109</ele>
        <time>2024-05-30T09:41:49.964Z</time>
      </trkpt>
      <trkpt lat="28.396469" lon="83.859284">
        <ele>2696.120</ele>
        <time>2024-05-30T09:44:14.964Z</time>
      </trkpt>
      <trkpt lat="28.397031" lon="83.859605">
        <ele>2689.686</ele>
        <time>2024-05-30T09:45:47.964Z</time>
      </trkpt>
      <trkpt lat="28.397078" lon="83.861295">
        <ele>2673.411</ele>
        <time>2024-05-30T09:51:52.963Z</time>
      </trkpt>
      <trkpt lat="28.395861" lon="83.860967">
        <ele>2643.857</ele>
        <time>2024-05-30T09:55:46.962Z</time>
      </trkpt>
      <trkpt lat="28.395486" lon="83.861221">
        <ele>2631.542</ele>
        <time>2024-05-30T09:58:28.962Z</time>
      </trkpt>
      <trkpt lat="28.394753" lon="83.860733">
        <ele>2605.196</ele>
        <time>2024-05-30T10:02:58.959Z</time>
      </trkpt>
      <trkpt lat="28.394645" lon="83.861067">
        <ele>2594.084</ele>
        <time>2024-05-30T10:04:10.958Z</time>
      </trkpt>
      <trkpt lat="28.393903" lon="83.860969">
        <ele>2581.040</ele>
        <time>2024-05-30T10:06:04.957Z</time>
      </trkpt>
      <trkpt lat="28.392873" lon="83.860477">
        <ele>2553.359</ele>
        <time>2024-05-30T10:09:49.956Z</time>
      </trkpt>
      <trkpt lat="28.392810" lon="83.860735">
        <ele>2548.221</ele>
        <time>2024-05-30T10:11:16.956Z</time>
      </trkpt>
      <trkpt lat="28.392169" lon="83.860489">
        <ele>2528.541</ele>
        <time>2024-05-30T10:13:30.956Z</time>
      </trkpt>
      <trkpt lat="28.392110" lon="83.860976">
        <ele>2511.205</ele>
        <time>2024-05-30T10:15:29.956Z</time>
      </trkpt>
      <trkpt lat="28.391646" lon="83.860888">
        <ele>2499.309</ele>
        <time>2024-05-30T10:20:23.954Z</time>
      </trkpt>
      <trkpt lat="28.391573" lon="83.861169">
        <ele>2491.953</ele>
        <time>2024-05-30T10:21:09.954Z</time>
      </trkpt>
      <trkpt lat="28.389566" lon="83.862457">
        <ele>2424.989</ele>
        <time>2024-05-30T10:27:50.954Z</time>
      </trkpt>
      <trkpt lat="28.389103" lon="83.862967">
        <ele>2412.164</ele>
        <time>2024-05-30T10:54:12.948Z</time>
      </trkpt>
      <trkpt lat="28.389469" lon="83.862926">
        <ele>2412.930</ele>
        <time>2024-05-30T10:55:52.947Z</time>
      </trkpt>
      <trkpt lat="28.389334" lon="83.863224">
        <ele>2400.625</ele>
        <time>2024-05-30T10:57:10.947Z</time>
      </trkpt>
      <trkpt lat="28.388374" lon="83.863732">
        <ele>2384.999</ele>
        <time>2024-05-30T11:01:49.945Z</time>
      </trkpt>
      <trkpt lat="28.387709" lon="83.864959">
        <ele>2348.457</ele>
        <time>2024-05-30T11:08:31.941Z</time>
      </trkpt>
      <trkpt lat="28.387841" lon="83.865553">
        <ele>2321.223</ele>
        <time>2024-05-30T11:12:26.940Z</time>
      </trkpt>
      <trkpt lat="28.386372" lon="83.867906">
        <ele>2240.992</ele>
        <time>2024-05-30T11:20:25.936Z</time>
      </trkpt>
      <trkpt lat="28.385953" lon="83.870058">
        <ele>2162.035</ele>
        <time>2024-05-30T11:34:51.931Z</time>
      </trkpt>
      <trkpt lat="28.385558" lon="83.870202">
        <ele>2143.686</ele>
        <time>2024-05-30T11:36:29.930Z</time>
      </trkpt>
      <trkpt lat="28.385725" lon="83.870599">
        <ele>2130.714</ele>
        <time>2024-05-30T11:38:48.930Z</time>
      </trkpt>
      <trkpt lat="28.385410" lon="83.870600">
        <ele>2120.409</ele>
        <time>2024-05-30T11:39:59.929Z</time>
      </trkpt>
      <trkpt lat="28.385039" lon="83.871166">
        <ele>2090.524</ele>
        <time>2024-05-30T11:42:23.929Z</time>
      </trkpt>
      <trkpt lat="28.384899" lon="83.872494">
        <ele>2052.140</ele>
        <time>2024-05-30T11:46:59.929Z</time>
      </trkpt>
      <trkpt lat="28.384427" lon="83.871963">
        <ele>2035.955</ele>
        <time>2024-05-30T11:49:31.929Z</time>
      </trkpt>
      <trkpt lat="28.383881" lon="83.873023">
        <ele>2010.561</ele>
        <time>2024-05-30T11:52:41.927Z</time>
      </trkpt>
      <trkpt lat="28.384033" lon="83.873105">
        <ele>2007.496</ele>
        <time>2024-05-30T11:53:10.927Z</time>
      </trkpt>
      <trkpt lat="28.383561" lon="83.873493">
        <ele>1992.320</ele>
        <time>2024-05-30T11:55:32.926Z</time>
      </trkpt>
      <trkpt lat="28.383904" lon="83.873641">
        <ele>1986.588</ele>
        <time>2024-05-30T11:59:01.926Z</time>
      </trkpt>
      <trkpt lat="28.383729" lon="83.873575">
        <ele>1985.754</ele>
        <time>2024-05-30T12:00:41.926Z</time>
      </trkpt>
    </trkseg>
  </trk></gpx>