<?xml version="1.0" encoding="UTF-8"?>
<gpx creator="Wikiloc - https://www.wikiloc.com" version="1.1" xmlns="http://www.topografix.com/GPX/1/1" xmlns:xsi="http://www.w3.org/2001/XMLSchema-instance" xsi:schemaLocation="http://www.topografix.com/GPX/1/1 http://www.topografix.com/GPX/1/1/gpx.xsd">
  <metadata>
    <name>Wikiloc - Trek to Everest Base Camp (EBC)</name>
    <link href="https://www.wikiloc.com/hiking-trails/trek-to-everest-base-camp-ebc-36785900">
      <text>Trek to Everest Base Camp (EBC) - Wikiloc on Wikiloc</text>
    </link>
    <time>2019-05-24T08:56:59Z</time>
  </metadata>
  <trk>
    <name>Trek to Everest Base Camp (EBC) - Wikiloc</name>
    <cmt></cmt>
    <desc></desc>
    <trkseg>
      <trkpt lat="27.687038" lon="86.731704">
        <ele>2820.924</ele>
        <time>2019-05-14T03:33:56Z</time>
      </trkpt>
      <trkpt lat="27.687241" lon="86.732289">
        <ele>2820.904</ele>
        <time>2019-05-14T03:35:24Z</time>
      </trkpt>
      <trkpt lat="27.687976" lon="86.731955">
        <ele>2820.814</ele>
        <time>2019-05-14T03:37:25Z</time>
      </trkpt>
      <trkpt lat="27.688120" lon="86.731289">
        <ele>2816.608</ele>
        <time>2019-05-14T03:39:06Z</time>
      </trkpt>
      <trkpt lat="27.689852" lon="86.729091">
        <ele>2808.295</ele>
        <time>2019-05-14T04:18:17Z</time>
      </trkpt>
      <trkpt lat="27.692252" lon="86.727908">
        <ele>2805.138</ele>
        <time>2019-05-14T04:27:52Z</time>
      </trkpt>
      <trkpt lat="27.693159" lon="86.728399">
        <ele>2784.869</ele>
        <time>2019-05-14T04:30:26Z</time>
      </trkpt>
      <trkpt lat="27.693788" lon="86.727152">
        <ele>2775.230</ele>
        <time>2019-05-14T04:33:13Z</time>
      </trkpt>
      <trkpt lat="27.696191" lon="86.725546">
        <ele>2722.767</ele>
        <time>2019-05-14T04:39:34Z</time>
      </trkpt>
      <trkpt lat="27.697665" lon="86.723200">
        <ele>2684.011</ele>
        <time>2019-05-14T04:45:24Z</time>
      </trkpt>
      <trkpt lat="27.701930" lon="86.718826">
        <ele>2660.282</ele>
        <time>2019-05-14T04:55:56Z</time>
      </trkpt>
      <trkpt lat="27.702281" lon="86.717224">
        <ele>2655.832</ele>
        <time>2019-05-14T05:13:37Z</time>
      </trkpt>
      <trkpt lat="27.703491" lon="86.717457">
        <ele>2644.325</ele>
        <time>2019-05-14T05:16:11Z</time>
      </trkpt>
      <trkpt lat="27.704351" lon="86.718984">
        <ele>2639.526</ele>
        <time>2019-05-14T05:19:42Z</time>
      </trkpt>
      <trkpt lat="27.706471" lon="86.716292">
        <ele>2644.408</ele>
        <time>2019-05-14T05:25:26Z</time>
      </trkpt>
      <trkpt lat="27.707545" lon="86.716563">
        <ele>2635.108</ele>
        <time>2019-05-14T05:27:34Z</time>
      </trkpt>
      <trkpt lat="27.707793" lon="86.715900">
        <ele>2647.425</ele>
        <time>2019-05-14T05:29:15Z</time>
      </trkpt>
      <trkpt lat="27.709587" lon="86.714761">
        <ele>2646.318</ele>
        <time>2019-05-14T05:32:49Z</time>
      </trkpt>
      <trkpt lat="27.711351" lon="86.714331">
        <ele>2623.389</ele>
        <time>2019-05-14T05:39:25Z</time>
      </trkpt>
      <trkpt lat="27.712650" lon="86.713532">
        <ele>2591.350</ele>
        <time>2019-05-14T05:42:48Z</time>
      </trkpt>
      <trkpt lat="27.714581" lon="86.714443">
        <ele>2557.127</ele>
        <time>2019-05-14T05:49:31Z</time>
      </trkpt>
      <trkpt lat="27.715573" lon="86.714150">
        <ele>2538.791</ele>
        <time>2019-05-14T05:53:21Z</time>
      </trkpt>
      <trkpt lat="27.718364" lon="86.716073">
        <ele>2508.712</ele>
        <time>2019-05-14T06:14:19Z</time>
      </trkpt>
      <trkpt lat="27.718635" lon="86.715791">
        <ele>2506.882</ele>
        <time>2019-05-14T06:16:26Z</time>
      </trkpt>
      <trkpt lat="27.718275" lon="86.714471">
        <ele>2540.346</ele>
        <time>2019-05-14T06:21:39Z</time>
      </trkpt>
      <trkpt lat="27.718584" lon="86.713851">
        <ele>2543.088</ele>
        <time>2019-05-14T06:26:48Z</time>
      </trkpt>
      <trkpt lat="27.720737" lon="86.714571">
        <ele>2550.316</ele>
        <time>2019-05-14T06:31:11Z</time>
      </trkpt>
      <trkpt lat="27.722653" lon="86.714304">
        <ele>2532.908</ele>
        <time>2019-05-14T06:35:03Z</time>
      </trkpt>
      <trkpt lat="27.724317" lon="86.714767">
        <ele>2528.647</ele>
        <time>2019-05-14T06:38:27Z</time>
      </trkpt>
      <trkpt lat="27.726707" lon="86.714455">
        <ele>2569.560</ele>
        <time>2019-05-14T06:53:08Z</time>
      </trkpt>
      <trkpt lat="27.727167" lon="86.713919">
        <ele>2576.991</ele>
        <time>2019-05-14T06:54:53Z</time>
      </trkpt>
      <trkpt lat="27.728960" lon="86.713453">
        <ele>2561.262</ele>
        <time>2019-05-14T07:00:12Z</time>
      </trkpt>
      <trkpt lat="27.730635" lon="86.713701">
        <ele>2562.039</ele>
        <time>2019-05-14T07:05:53Z</time>
      </trkpt>
      <trkpt lat="27.735997" lon="86.711779">
        <ele>2555.053</ele>
        <time>2019-05-14T07:19:10Z</time>
      </trkpt>
      <trkpt lat="27.737595" lon="86.712316">
        <ele>2572.684</ele>
        <time>2019-05-14T07:27:11Z</time>
      </trkpt>
      <trkpt lat="27.738483" lon="86.711854">
        <ele>2574.874</ele>
        <time>2019-05-14T07:29:17Z</time>
      </trkpt>
      <trkpt lat="27.740014" lon="86.712673">
        <ele>2596.015</ele>
        <time>2019-05-15T03:18:11Z</time>
      </trkpt>
      <trkpt lat="27.740401" lon="86.712369">
        <ele>2596.365</ele>
        <time>2019-05-15T03:19:48Z</time>
      </trkpt>
      <trkpt lat="27.740558" lon="86.712740">
        <ele>2598.511</ele>
        <time>2019-05-15T03:20:49Z</time>
      </trkpt>
      <trkpt lat="27.741976" lon="86.713022">
        <ele>2609.108</ele>
        <time>2019-05-15T03:24:13Z</time>
      </trkpt>
      <trkpt lat="27.743369" lon="86.713929">
        <ele>2600.154</ele>
        <time>2019-05-15T03:29:15Z</time>
      </trkpt>
      <trkpt lat="27.743770" lon="86.712339">
        <ele>2585.197</ele>
        <time>2019-05-15T03:33:21Z</time>
      </trkpt>
      <trkpt lat="27.745498" lon="86.712581">
        <ele>2611.858</ele>
        <time>2019-05-15T03:37:53Z</time>
      </trkpt>
      <trkpt lat="27.746376" lon="86.712088">
        <ele>2621.459</ele>
        <time>2019-05-15T03:44:48Z</time>
      </trkpt>
      <trkpt lat="27.748203" lon="86.712660">
        <ele>2633.716</ele>
        <time>2019-05-15T03:48:23Z</time>
      </trkpt>
      <trkpt lat="27.750882" lon="86.711207">
        <ele>2649.220</ele>
        <time>2019-05-15T03:55:13Z</time>
      </trkpt>
      <trkpt lat="27.752125" lon="86.709864">
        <ele>2655.231</ele>
        <time>2019-05-15T04:03:46Z</time>
      </trkpt>
      <trkpt lat="27.752386" lon="86.710456">
        <ele>2666.221</ele>
        <time>2019-05-15T04:05:31Z</time>
      </trkpt>
      <trkpt lat="27.754022" lon="86.710512">
        <ele>2650.982</ele>
        <time>2019-05-15T04:14:27Z</time>
      </trkpt>
      <trkpt lat="27.756257" lon="86.709889">
        <ele>2646.443</ele>
        <time>2019-05-15T04:19:21Z</time>
      </trkpt>
      <trkpt lat="27.758134" lon="86.709918">
        <ele>2667.117</ele>
        <time>2019-05-15T04:24:33Z</time>
      </trkpt>
      <trkpt lat="27.759335" lon="86.710225">
        <ele>2700.208</ele>
        <time>2019-05-15T04:29:18Z</time>
      </trkpt>
      <trkpt lat="27.761395" lon="86.712299">
        <ele>2695.781</ele>
        <time>2019-05-15T04:40:12Z</time>
      </trkpt>
      <trkpt lat="27.761657" lon="86.712912">
        <ele>2706.554</ele>
        <time>2019-05-15T04:42:05Z</time>
      </trkpt>
      <trkpt lat="27.761422" lon="86.713443">
        <ele>2694.165</ele>
        <time>2019-05-15T04:43:30Z</time>
      </trkpt>
      <trkpt lat="27.761992" lon="86.714566">
        <ele>2689.846</ele>
        <time>2019-05-15T04:49:42Z</time>
      </trkpt>
      <trkpt lat="27.761298" lon="86.716113">
        <ele>2664.553</ele>
        <time>2019-05-15T05:24:24Z</time>
      </trkpt>
      <trkpt lat="27.761879" lon="86.717132">
        <ele>2669.287</ele>
        <time>2019-05-15T05:26:08Z</time>
      </trkpt>
      <trkpt lat="27.762664" lon="86.717539">
        <ele>2674.988</ele>
        <time>2019-05-15T05:27:46Z</time>
      </trkpt>
      <trkpt lat="27.763890" lon="86.719978">
        <ele>2693.178</ele>
        <time>2019-05-15T05:32:56Z</time>
      </trkpt>
      <trkpt lat="27.764224" lon="86.719972">
        <ele>2688.211</ele>
        <time>2019-05-15T05:33:34Z</time>
      </trkpt>
      <trkpt lat="27.764121" lon="86.721825">
        <ele>2700.521</ele>
        <time>2019-05-15T05:37:26Z</time>
      </trkpt>
      <trkpt lat="27.766165" lon="86.723537">
        <ele>2714.203</ele>
        <time>2019-05-15T05:43:06Z</time>
      </trkpt>
      <trkpt lat="27.768855" lon="86.723074">
        <ele>2741.308</ele>
        <time>2019-05-15T05:53:18Z</time>
      </trkpt>
      <trkpt lat="27.770154" lon="86.724357">
        <ele>2769.524</ele>
        <time>2019-05-15T05:59:45Z</time>
      </trkpt>
      <trkpt lat="27.770194" lon="86.723724">
        <ele>2795.047</ele>
        <time>2019-05-15T06:02:31Z</time>
      </trkpt>
      <trkpt lat="27.771855" lon="86.722787">
        <ele>2797.538</ele>
        <time>2019-05-15T06:19:12Z</time>
      </trkpt>
      <trkpt lat="27.772974" lon="86.722926">
        <ele>2822.789</ele>
        <time>2019-05-15T06:22:17Z</time>
      </trkpt>
      <trkpt lat="27.774519" lon="86.721703">
        <ele>2778.786</ele>
        <time>2019-05-15T06:55:50Z</time>
      </trkpt>
      <trkpt lat="27.776458" lon="86.722093">
        <ele>2750.730</ele>
        <time>2019-05-15T07:00:07Z</time>
      </trkpt>
      <trkpt lat="27.776980" lon="86.721070">
        <ele>2767.921</ele>
        <time>2019-05-15T07:03:17Z</time>
      </trkpt>
      <trkpt lat="27.778903" lon="86.722380">
        <ele>2764.911</ele>
        <time>2019-05-15T08:11:55Z</time>
      </trkpt>
      <trkpt lat="27.780431" lon="86.722142">
        <ele>2762.962</ele>
        <time>2019-05-15T08:14:42Z</time>
      </trkpt>
      <trkpt lat="27.780886" lon="86.723495">
        <ele>2777.583</ele>
        <time>2019-05-15T08:20:48Z</time>
      </trkpt>
      <trkpt lat="27.784148" lon="86.723931">
        <ele>2873.811</ele>
        <time>2019-05-15T08:37:10Z</time>
      </trkpt>
      <trkpt lat="27.785227" lon="86.722826">
        <ele>2888.908</ele>
        <time>2019-05-15T08:41:22Z</time>
      </trkpt>
      <trkpt lat="27.786412" lon="86.722649">
        <ele>2876.649</ele>
        <time>2019-05-15T08:46:48Z</time>
      </trkpt>
      <trkpt lat="27.787470" lon="86.721565">
        <ele>2894.632</ele>
        <time>2019-05-15T08:50:51Z</time>
      </trkpt>
      <trkpt lat="27.787819" lon="86.720459">
        <ele>2894.893</ele>
        <time>2019-05-15T08:54:52Z</time>
      </trkpt>
      <trkpt lat="27.790184" lon="86.719560">
        <ele>2886.794</ele>
        <time>2019-05-15T09:04:30Z</time>
      </trkpt>
      <trkpt lat="27.790337" lon="86.718080">
        <ele>2892.381</ele>
        <time>2019-05-15T09:17:17Z</time>
      </trkpt>
      <trkpt lat="27.790956" lon="86.717486">
        <ele>2929.685</ele>
        <time>2019-05-15T09:22:22Z</time>
      </trkpt>
      <trkpt lat="27.791540" lon="86.717680">
        <ele>2979.246</ele>
        <time>2019-05-15T09:37:41Z</time>
      </trkpt>
      <trkpt lat="27.791486" lon="86.716771">
        <ele>3013.546</ele>
        <time>2019-05-15T09:42:13Z</time>
      </trkpt>
      <trkpt lat="27.792109" lon="86.715865">
        <ele>3032.524</ele>
        <time>2019-05-15T09:45:58Z</time>
      </trkpt>
      <trkpt lat="27.793597" lon="86.715855">
        <ele>3111.804</ele>
        <time>2019-05-15T10:06:26Z</time>
      </trkpt>
      <trkpt lat="27.795765" lon="86.714810">
        <ele>3175.914</ele>
        <time>2019-05-15T10:33:09Z</time>
      </trkpt>
      <trkpt lat="27.795927" lon="86.713704">
        <ele>3203.208</ele>
        <time>2019-05-15T10:39:27Z</time>
      </trkpt>
      <trkpt lat="27.797680" lon="86.711720">
        <ele>3255.385</ele>
        <time>2019-05-15T10:54:01Z</time>
      </trkpt>
      <trkpt lat="27.798544" lon="86.711867">
        <ele>3264.668</ele>
        <time>2019-05-15T10:56:42Z</time>
      </trkpt>
      <trkpt lat="27.799476" lon="86.710714">
        <ele>3289.939</ele>
        <time>2019-05-15T11:03:59Z</time>
      </trkpt>
      <trkpt lat="27.801103" lon="86.711332">
        <ele>3309.880</ele>
        <time>2019-05-15T11:24:09Z</time>
      </trkpt>
      <trkpt lat="27.802149" lon="86.711278">
        <ele>3335.397</ele>
        <time>2019-05-15T11:29:05Z</time>
      </trkpt>
      <trkpt lat="27.802480" lon="86.710931">
        <ele>3344.381</ele>
        <time>2019-05-15T11:30:36Z</time>
      </trkpt>
      <trkpt lat="27.802390" lon="86.710021">
        <ele>3347.692</ele>
        <time>2019-05-15T11:33:05Z</time>
      </trkpt>
      <trkpt lat="27.803453" lon="86.709765">
        <ele>3351.162</ele>
        <time>2019-05-15T11:39:23Z</time>
      </trkpt>
      <trkpt lat="27.805760" lon="86.711286">
        <ele>3416.572</ele>
        <time>2019-05-16T04:34:43Z</time>
      </trkpt>
      <trkpt lat="27.804867" lon="86.713200">
        <ele>3467.013</ele>
        <time>2019-05-16T04:44:01Z</time>
      </trkpt>
      <trkpt lat="27.809526" lon="86.714358">
        <ele>3702.714</ele>
        <time>2019-05-16T05:47:45Z</time>
      </trkpt>
      <trkpt lat="27.811450" lon="86.717295">
        <ele>3788.808</ele>
        <time>2019-05-16T06:06:41Z</time>
      </trkpt>
      <trkpt lat="27.811150" lon="86.718003">
        <ele>3796.090</ele>
        <time>2019-05-16T06:10:06Z</time>
      </trkpt>
      <trkpt lat="27.811602" lon="86.718458">
        <ele>3799.053</ele>
        <time>2019-05-16T06:12:03Z</time>
      </trkpt>
      <trkpt lat="27.813407" lon="86.718810">
        <ele>3801.924</ele>
        <time>2019-05-16T06:32:11Z</time>
      </trkpt>
      <trkpt lat="27.813834" lon="86.720282">
        <ele>3806.535</ele>
        <time>2019-05-16T06:35:22Z</time>
      </trkpt>
      <trkpt lat="27.815946" lon="86.723136">
        <ele>3824.462</ele>
        <time>2019-05-16T06:45:55Z</time>
      </trkpt>
      <trkpt lat="27.818510" lon="86.723558">
        <ele>3818.296</ele>
        <time>2019-05-16T07:00:48Z</time>
      </trkpt>
      <trkpt lat="27.820709" lon="86.722643">
        <ele>3761.277</ele>
        <time>2019-05-16T07:05:55Z</time>
      </trkpt>
      <trkpt lat="27.822515" lon="86.722701">
        <ele>3743.027</ele>
        <time>2019-05-16T07:10:45Z</time>
      </trkpt>
      <trkpt lat="27.823213" lon="86.721858">
        <ele>3721.025</ele>
        <time>2019-05-16T07:14:03Z</time>
      </trkpt>
      <trkpt lat="27.824201" lon="86.724278">
        <ele>3693.626</ele>
        <time>2019-05-16T07:21:07Z</time>
      </trkpt>
      <trkpt lat="27.823942" lon="86.725901">
        <ele>3661.908</ele>
        <time>2019-05-16T07:25:48Z</time>
      </trkpt>
      <trkpt lat="27.824191" lon="86.727648">
        <ele>3619.908</ele>
        <time>2019-05-16T07:37:22Z</time>
      </trkpt>
      <trkpt lat="27.822849" lon="86.729449">
        <ele>3612.755</ele>
        <time>2019-05-16T07:41:23Z</time>
      </trkpt>
      <trkpt lat="27.822100" lon="86.731386">
        <ele>3575.088</ele>
        <time>2019-05-16T07:48:54Z</time>
      </trkpt>
      <trkpt lat="27.821484" lon="86.731567">
        <ele>3572.539</ele>
        <time>2019-05-17T04:15:28Z</time>
      </trkpt>
      <trkpt lat="27.823315" lon="86.731011">
        <ele>3565.810</ele>
        <time>2019-05-17T04:19:31Z</time>
      </trkpt>
      <trkpt lat="27.824454" lon="86.729117">
        <ele>3560.397</ele>
        <time>2019-05-17T04:23:27Z</time>
      </trkpt>
      <trkpt lat="27.825024" lon="86.729208">
        <ele>3560.511</ele>
        <time>2019-05-17T04:24:47Z</time>
      </trkpt>
      <trkpt lat="27.825900" lon="86.731209">
        <ele>3528.892</ele>
        <time>2019-05-17T04:30:00Z</time>
      </trkpt>
      <trkpt lat="27.825441" lon="86.733509">
        <ele>3512.132</ele>
        <time>2019-05-17T04:37:58Z</time>
      </trkpt>
      <trkpt lat="27.826269" lon="86.735465">
        <ele>3517.452</ele>
        <time>2019-05-17T04:44:57Z</time>
      </trkpt>
      <trkpt lat="27.828141" lon="86.736234">
        <ele>3496.653</ele>
        <time>2019-05-17T04:48:56Z</time>
      </trkpt>
      <trkpt lat="27.828420" lon="86.737945">
        <ele>3444.008</ele>
        <time>2019-05-17T04:56:12Z</time>
      </trkpt>
      <trkpt lat="27.828721" lon="86.737730">
        <ele>3424.808</ele>
        <time>2019-05-17T04:57:40Z</time>
      </trkpt>
      <trkpt lat="27.828918" lon="86.738240">
        <ele>3426.648</ele>
        <time>2019-05-17T04:58:33Z</time>
      </trkpt>
      <trkpt lat="27.828819" lon="86.739029">
        <ele>3416.411</ele>
        <time>2019-05-17T05:00:03Z</time>
      </trkpt>
      <trkpt lat="27.829604" lon="86.738960">
        <ele>3404.242</ele>
        <time>2019-05-17T05:01:48Z</time>
      </trkpt>
      <trkpt lat="27.830009" lon="86.739553">
        <ele>3389.533</ele>
        <time>2019-05-17T05:03:21Z</time>
      </trkpt>
      <trkpt lat="27.829449" lon="86.740385">
        <ele>3377.670</ele>
        <time>2019-05-17T05:05:17Z</time>
      </trkpt>
      <trkpt lat="27.829955" lon="86.741094">
        <ele>3359.134</ele>
        <time>2019-05-17T05:06:40Z</time>
      </trkpt>
      <trkpt lat="27.829765" lon="86.742425">
        <ele>3381.085</ele>
        <time>2019-05-17T05:11:13Z</time>
      </trkpt>
      <trkpt lat="27.830530" lon="86.742994">
        <ele>3371.615</ele>
        <time>2019-05-17T05:13:34Z</time>
      </trkpt>
      <trkpt lat="27.830953" lon="86.744535">
        <ele>3302.122</ele>
        <time>2019-05-17T05:22:21Z</time>
      </trkpt>
      <trkpt lat="27.832470" lon="86.745225">
        <ele>3272.262</ele>
        <time>2019-05-17T05:31:38Z</time>
      </trkpt>
      <trkpt lat="27.832172" lon="86.745105">
        <ele>3270.208</ele>
        <time>2019-05-17T05:34:56Z</time>
      </trkpt>
      <trkpt lat="27.831704" lon="86.746283">
        <ele>3263.308</ele>
        <time>2019-05-17T05:37:48Z</time>
      </trkpt>
      <trkpt lat="27.832520" lon="86.746988">
        <ele>3290.525</ele>
        <time>2019-05-17T05:43:52Z</time>
      </trkpt>
      <trkpt lat="27.832456" lon="86.748303">
        <ele>3308.278</ele>
        <time>2019-05-17T05:47:59Z</time>
      </trkpt>
      <trkpt lat="27.833054" lon="86.750202">
        <ele>3358.479</ele>
        <time>2019-05-17T05:57:23Z</time>
      </trkpt>
      <trkpt lat="27.833327" lon="86.749972">
        <ele>3377.810</ele>
        <time>2019-05-17T06:01:38Z</time>
      </trkpt>
      <trkpt lat="27.833528" lon="86.750871">
        <ele>3403.757</ele>
        <time>2019-05-17T06:09:27Z</time>
      </trkpt>
      <trkpt lat="27.833731" lon="86.750583">
        <ele>3410.241</ele>
        <time>2019-05-17T06:16:11Z</time>
      </trkpt>
      <trkpt lat="27.834014" lon="86.752428">
        <ele>3463.722</ele>
        <time>2019-05-17T06:23:42Z</time>
      </trkpt>
      <trkpt lat="27.834791" lon="86.753357">
        <ele>3538.662</ele>
        <time>2019-05-17T06:44:26Z</time>
      </trkpt>
      <trkpt lat="27.834874" lon="86.754707">
        <ele>3579.473</ele>
        <time>2019-05-17T06:51:24Z</time>
      </trkpt>
      <trkpt lat="27.835268" lon="86.754274">
        <ele>3591.685</ele>
        <time>2019-05-17T06:56:42Z</time>
      </trkpt>
      <trkpt lat="27.835433" lon="86.755131">
        <ele>3623.813</ele>
        <time>2019-05-17T07:27:10Z</time>
      </trkpt>
      <trkpt lat="27.834969" lon="86.759858">
        <ele>3712.008</ele>
        <time>2019-05-17T07:43:55Z</time>
      </trkpt>
      <trkpt lat="27.835101" lon="86.764314">
        <ele>3814.810</ele>
        <time>2019-05-17T08:15:11Z</time>
      </trkpt>
      <trkpt lat="27.835563" lon="86.764084">
        <ele>3824.683</ele>
        <time>2019-05-17T08:26:16Z</time>
      </trkpt>
      <trkpt lat="27.836151" lon="86.765271">
        <ele>3807.024</ele>
        <time>2019-05-17T08:41:35Z</time>
      </trkpt>
      <trkpt lat="27.837347" lon="86.766197">
        <ele>3792.125</ele>
        <time>2019-05-17T08:44:14Z</time>
      </trkpt>
      <trkpt lat="27.837668" lon="86.768383">
        <ele>3736.862</ele>
        <time>2019-05-17T08:51:00Z</time>
      </trkpt>
      <trkpt lat="27.838727" lon="86.768907">
        <ele>3718.716</ele>
        <time>2019-05-17T08:55:56Z</time>
      </trkpt>
      <trkpt lat="27.839551" lon="86.771004">
        <ele>3690.397</ele>
        <time>2019-05-17T08:59:49Z</time>
      </trkpt>
      <trkpt lat="27.841133" lon="86.772487">
        <ele>3695.287</ele>
        <time>2019-05-17T09:03:41Z</time>
      </trkpt>
      <trkpt lat="27.841120" lon="86.773054">
        <ele>3694.321</ele>
        <time>2019-05-17T09:41:48Z</time>
      </trkpt>
      <trkpt lat="27.843767" lon="86.776742">
        <ele>3714.541</ele>
        <time>2019-05-18T04:01:15Z</time>
      </trkpt>
      <trkpt lat="27.849988" lon="86.779719">
        <ele>3733.005</ele>
        <time>2019-05-18T04:19:53Z</time>
      </trkpt>
      <trkpt lat="27.851782" lon="86.783442">
        <ele>3741.008</ele>
        <time>2019-05-18T04:41:17Z</time>
      </trkpt>
      <trkpt lat="27.851552" lon="86.783844">
        <ele>3749.035</ele>
        <time>2019-05-18T04:44:57Z</time>
      </trkpt>
      <trkpt lat="27.852386" lon="86.784660">
        <ele>3761.088</ele>
        <time>2019-05-18T04:48:51Z</time>
      </trkpt>
      <trkpt lat="27.853205" lon="86.786372">
        <ele>3769.099</ele>
        <time>2019-05-18T04:57:05Z</time>
      </trkpt>
      <trkpt lat="27.854251" lon="86.790317">
        <ele>3875.360</ele>
        <time>2019-05-18T05:06:28Z</time>
      </trkpt>
      <trkpt lat="27.855992" lon="86.792920">
        <ele>3907.037</ele>
        <time>2019-05-18T05:33:58Z</time>
      </trkpt>
      <trkpt lat="27.858412" lon="86.794891">
        <ele>3911.051</ele>
        <time>2019-05-18T05:42:00Z</time>
      </trkpt>
      <trkpt lat="27.858445" lon="86.794649">
        <ele>3915.092</ele>
        <time>2019-05-18T05:42:04Z</time>
      </trkpt>
      <trkpt lat="27.860739" lon="86.795857">
        <ele>3926.932</ele>
        <time>2019-05-18T05:50:02Z</time>
      </trkpt>
      <trkpt lat="27.872909" lon="86.812700">
        <ele>3941.431</ele>
        <time>2019-05-18T06:57:53Z</time>
      </trkpt>
      <trkpt lat="27.875011" lon="86.812960">
        <ele>3957.461</ele>
        <time>2019-05-18T07:07:38Z</time>
      </trkpt>
      <trkpt lat="27.880635" lon="86.816735">
        <ele>3961.407</ele>
        <time>2019-05-18T07:34:42Z</time>
      </trkpt>
      <trkpt lat="27.886155" lon="86.824904">
        <ele>3973.408</ele>
        <time>2019-05-18T08:18:50Z</time>
      </trkpt>
      <trkpt lat="27.887576" lon="86.825834">
        <ele>3977.436</ele>
        <time>2019-05-18T08:23:08Z</time>
      </trkpt>
      <trkpt lat="27.889826" lon="86.826124">
        <ele>3989.479</ele>
        <time>2019-05-18T08:28:51Z</time>
      </trkpt>
      <trkpt lat="27.891994" lon="86.828379">
        <ele>4084.750</ele>
        <time>2019-05-19T04:23:24Z</time>
      </trkpt>
      <trkpt lat="27.891359" lon="86.826105">
        <ele>4307.481</ele>
        <time>2019-05-19T04:32:57Z</time>
      </trkpt>
      <trkpt lat="27.891528" lon="86.825574">
        <ele>4328.098</ele>
        <time>2019-05-19T04:36:39Z</time>
      </trkpt>
      <trkpt lat="27.897043" lon="86.823720">
        <ele>4382.172</ele>
        <time>2019-05-19T04:58:52Z</time>
      </trkpt>
      <trkpt lat="27.898367" lon="86.822732">
        <ele>4395.183</ele>
        <time>2019-05-19T05:04:46Z</time>
      </trkpt>
      <trkpt lat="27.899990" lon="86.822442">
        <ele>4415.553</ele>
        <time>2019-05-19T05:11:04Z</time>
      </trkpt>
      <trkpt lat="27.903745" lon="86.819396">
        <ele>4446.478</ele>
        <time>2019-05-19T05:34:13Z</time>
      </trkpt>
      <trkpt lat="27.905621" lon="86.818502">
        <ele>4450.033</ele>
        <time>2019-05-19T05:39:11Z</time>
      </trkpt>
      <trkpt lat="27.911520" lon="86.814473">
        <ele>4524.326</ele>
        <time>2019-05-19T06:09:25Z</time>
      </trkpt>
      <trkpt lat="27.914148" lon="86.811782">
        <ele>4555.808</ele>
        <time>2019-05-19T06:22:40Z</time>
      </trkpt>
      <trkpt lat="27.918485" lon="86.808313">
        <ele>4570.120</ele>
        <time>2019-05-19T06:44:28Z</time>
      </trkpt>
      <trkpt lat="27.922053" lon="86.807831">
        <ele>4561.243</ele>
        <time>2019-05-19T07:02:09Z</time>
      </trkpt>
      <trkpt lat="27.924230" lon="86.807107">
        <ele>4564.474</ele>
        <time>2019-05-19T07:14:04Z</time>
      </trkpt>
      <trkpt lat="27.924595" lon="86.806802">
        <ele>4573.225</ele>
        <time>2019-05-19T07:16:26Z</time>
      </trkpt>
      <trkpt lat="27.923484" lon="86.806286">
        <ele>4554.312</ele>
        <time>2019-05-19T07:25:05Z</time>
      </trkpt>
      <trkpt lat="27.923799" lon="86.805722">
        <ele>4556.066</ele>
        <time>2019-05-19T07:29:23Z</time>
      </trkpt>
      <trkpt lat="27.923534" lon="86.805592">
        <ele>4564.657</ele>
        <time>2019-05-20T04:12:35Z</time>
      </trkpt>
      <trkpt lat="27.924197" lon="86.805126">
        <ele>4566.437</ele>
        <time>2019-05-20T04:18:36Z</time>
      </trkpt>
      <trkpt lat="27.927313" lon="86.804406">
        <ele>4632.672</ele>
        <time>2019-05-20T04:35:26Z</time>
      </trkpt>
      <trkpt lat="27.928097" lon="86.804877">
        <ele>4660.513</ele>
        <time>2019-05-20T04:44:20Z</time>
      </trkpt>
      <trkpt lat="27.929674" lon="86.804744">
        <ele>4722.414</ele>
        <time>2019-05-20T05:12:19Z</time>
      </trkpt>
      <trkpt lat="27.930484" lon="86.805303">
        <ele>4755.708</ele>
        <time>2019-05-20T05:20:37Z</time>
      </trkpt>
      <trkpt lat="27.930994" lon="86.804545">
        <ele>4782.830</ele>
        <time>2019-05-20T05:33:47Z</time>
      </trkpt>
      <trkpt lat="27.933143" lon="86.804010">
        <ele>4807.683</ele>
        <time>2019-05-20T05:53:52Z</time>
      </trkpt>
      <trkpt lat="27.936419" lon="86.806644">
        <ele>4798.894</ele>
        <time>2019-05-20T06:09:20Z</time>
      </trkpt>
      <trkpt lat="27.940729" lon="86.807871">
        <ele>4819.755</ele>
        <time>2019-05-20T06:29:07Z</time>
      </trkpt>
      <trkpt lat="27.945860" lon="86.810416">
        <ele>4869.282</ele>
        <time>2019-05-20T06:51:42Z</time>
      </trkpt>
      <trkpt lat="27.948452" lon="86.810530">
        <ele>4882.756</ele>
        <time>2019-05-20T08:33:01Z</time>
      </trkpt>
      <trkpt lat="27.950088" lon="86.813496">
        <ele>4891.517</ele>
        <time>2019-05-20T08:41:28Z</time>
      </trkpt>
      <trkpt lat="27.954133" lon="86.815051">
        <ele>4924.187</ele>
        <time>2019-05-20T09:00:32Z</time>
      </trkpt>
      <trkpt lat="27.956958" lon="86.816996">
        <ele>4947.447</ele>
        <time>2019-05-20T09:17:09Z</time>
      </trkpt>
      <trkpt lat="27.964368" lon="86.820448">
        <ele>4997.629</ele>
        <time>2019-05-20T09:39:52Z</time>
      </trkpt>
      <trkpt lat="27.966805" lon="86.821494">
        <ele>5014.121</ele>
        <time>2019-05-20T09:52:52Z</time>
      </trkpt>
      <trkpt lat="27.968500" lon="86.821665">
        <ele>5069.508</ele>
        <time>2019-05-20T10:19:50Z</time>
      </trkpt>
      <trkpt lat="27.969610" lon="86.822909">
        <ele>5082.557</ele>
        <time>2019-05-20T10:32:25Z</time>
      </trkpt>
      <trkpt lat="27.971228" lon="86.823267">
        <ele>5113.270</ele>
        <time>2019-05-20T10:42:14Z</time>
      </trkpt>
      <trkpt lat="27.971688" lon="86.823883">
        <ele>5117.251</ele>
        <time>2019-05-20T10:46:59Z</time>
      </trkpt>
      <trkpt lat="27.972440" lon="86.824072">
        <ele>5093.662</ele>
        <time>2019-05-20T10:56:57Z</time>
      </trkpt>
      <trkpt lat="27.972901" lon="86.825048">
        <ele>5124.489</ele>
        <time>2019-05-20T11:06:50Z</time>
      </trkpt>
      <trkpt lat="27.973807" lon="86.825274">
        <ele>5117.343</ele>
        <time>2019-05-20T11:11:47Z</time>
      </trkpt>
      <trkpt lat="27.976407" lon="86.824946">
        <ele>5107.244</ele>
        <time>2019-05-20T11:29:55Z</time>
      </trkpt>
      <trkpt lat="27.976738" lon="86.826089">
        <ele>5129.374</ele>
        <time>2019-05-20T11:45:40Z</time>
      </trkpt>
      <trkpt lat="27.978250" lon="86.826903">
        <ele>5138.626</ele>
        <time>2019-05-20T12:01:44Z</time>
      </trkpt>
      <trkpt lat="27.978662" lon="86.827849">
        <ele>5151.747</ele>
        <time>2019-05-20T12:09:41Z</time>
      </trkpt>
      <trkpt lat="27.981810" lon="86.829566">
        <ele>5117.011</ele>
        <time>2019-05-21T03:39:59Z</time>
      </trkpt>
      <trkpt lat="27.984365" lon="86.833752">
        <ele>5113.608</ele>
        <time>2019-05-21T03:49:39Z</time>
      </trkpt>
      <trkpt lat="27.986055" lon="86.838174">
        <ele>5126.625</ele>
        <time>2019-05-21T04:13:48Z</time>
      </trkpt>
      <trkpt lat="27.986991" lon="86.839206">
        <ele>5133.448</ele>
        <time>2019-05-21T04:22:52Z</time>
      </trkpt>
      <trkpt lat="27.988196" lon="86.840116">
        <ele>5149.629</ele>
        <time>2019-05-21T04:40:27Z</time>
      </trkpt>
      <trkpt lat="27.988684" lon="86.840026">
        <ele>5147.930</ele>
        <time>2019-05-21T04:42:11Z</time>
      </trkpt>
      <trkpt lat="27.990290" lon="86.841475">
        <ele>5165.167</ele>
        <time>2019-05-21T04:58:33Z</time>
      </trkpt>
      <trkpt lat="27.992084" lon="86.841698">
        <ele>5198.481</ele>
        <time>2019-05-21T05:20:01Z</time>
      </trkpt>
      <trkpt lat="27.997279" lon="86.844495">
        <ele>5229.652</ele>
        <time>2019-05-21T05:49:33Z</time>
      </trkpt>
      <trkpt lat="27.998309" lon="86.845857">
        <ele>5204.252</ele>
        <time>2019-05-21T05:56:36Z</time>
      </trkpt>
      <trkpt lat="27.998042" lon="86.847824">
        <ele>5211.472</ele>
        <time>2019-05-21T06:08:36Z</time>
      </trkpt>
      <trkpt lat="27.998321" lon="86.845837">
        <ele>5197.713</ele>
        <time>2019-05-21T06:42:26Z</time>
      </trkpt>
      <trkpt lat="27.997354" lon="86.844564">
        <ele>5224.814</ele>
        <time>2019-05-21T06:54:51Z</time>
      </trkpt>
      <trkpt lat="27.992110" lon="86.841690">
        <ele>5200.808</ele>
        <time>2019-05-21T07:14:59Z</time>
      </trkpt>
      <trkpt lat="27.990275" lon="86.841470">
        <ele>5176.110</ele>
        <time>2019-05-21T07:24:29Z</time>
      </trkpt>
      <trkpt lat="27.988695" lon="86.840030">
        <ele>5160.533</ele>
        <time>2019-05-21T07:35:54Z</time>
      </trkpt>
      <trkpt lat="27.987717" lon="86.839897">
        <ele>5156.334</ele>
        <time>2019-05-21T07:41:58Z</time>
      </trkpt>
      <trkpt lat="27.987462" lon="86.839313">
        <ele>5143.875</ele>
        <time>2019-05-21T07:44:12Z</time>
      </trkpt>
      <trkpt lat="27.986321" lon="86.838561">
        <ele>5132.612</ele>
        <time>2019-05-21T07:52:48Z</time>
      </trkpt>
      <trkpt lat="27.984659" lon="86.835411">
        <ele>5116.466</ele>
        <time>2019-05-21T08:12:24Z</time>
      </trkpt>
      <trkpt lat="27.984544" lon="86.834053">
        <ele>5115.297</ele>
        <time>2019-05-21T08:20:31Z</time>
      </trkpt>
      <trkpt lat="27.982278" lon="86.829851">
        <ele>5114.667</ele>
        <time>2019-05-21T08:32:31Z</time>
      </trkpt>
      <trkpt lat="27.980265" lon="86.828329">
        <ele>5131.574</ele>
        <time>2019-05-21T08:41:45Z</time>
      </trkpt>
      <trkpt lat="27.978413" lon="86.828207">
        <ele>5140.656</ele>
        <time>2019-05-22T03:24:18Z</time>
      </trkpt>
      <trkpt lat="27.978244" lon="86.826866">
        <ele>5149.721</ele>
        <time>2019-05-22T03:31:51Z</time>
      </trkpt>
      <trkpt lat="27.976770" lon="86.826122">
        <ele>5133.508</ele>
        <time>2019-05-22T03:38:44Z</time>
      </trkpt>
      <trkpt lat="27.976449" lon="86.824936">
        <ele>5107.840</ele>
        <time>2019-05-22T03:44:50Z</time>
      </trkpt>
      <trkpt lat="27.975357" lon="86.825218">
        <ele>5114.153</ele>
        <time>2019-05-22T03:53:23Z</time>
      </trkpt>
      <trkpt lat="27.972931" lon="86.825052">
        <ele>5128.134</ele>
        <time>2019-05-22T04:08:17Z</time>
      </trkpt>
      <trkpt lat="27.972539" lon="86.824178">
        <ele>5118.295</ele>
        <time>2019-05-22T04:12:27Z</time>
      </trkpt>
      <trkpt lat="27.969595" lon="86.822835">
        <ele>5087.512</ele>
        <time>2019-05-22T04:24:18Z</time>
      </trkpt>
      <trkpt lat="27.968441" lon="86.821690">
        <ele>5073.696</ele>
        <time>2019-05-22T04:28:28Z</time>
      </trkpt>
      <trkpt lat="27.965394" lon="86.820858">
        <ele>5006.567</ele>
        <time>2019-05-22T04:41:38Z</time>
      </trkpt>
      <trkpt lat="27.950439" lon="86.813622">
        <ele>4900.527</ele>
        <time>2019-05-22T05:16:53Z</time>
      </trkpt>
      <trkpt lat="27.948366" lon="86.810660">
        <ele>4880.773</ele>
        <time>2019-05-22T05:23:29Z</time>
      </trkpt>
      <trkpt lat="27.945757" lon="86.810342">
        <ele>4875.185</ele>
        <time>2019-05-22T05:30:18Z</time>
      </trkpt>
      <trkpt lat="27.941282" lon="86.808076">
        <ele>4833.913</ele>
        <time>2019-05-22T05:38:00Z</time>
      </trkpt>
      <trkpt lat="27.936422" lon="86.806599">
        <ele>4804.808</ele>
        <time>2019-05-22T05:52:50Z</time>
      </trkpt>
      <trkpt lat="27.933050" lon="86.803905">
        <ele>4808.840</ele>
        <time>2019-05-22T06:01:10Z</time>
      </trkpt>
      <trkpt lat="27.931033" lon="86.804548">
        <ele>4781.563</ele>
        <time>2019-05-22T06:06:15Z</time>
      </trkpt>
      <trkpt lat="27.930655" lon="86.805245">
        <ele>4773.124</ele>
        <time>2019-05-22T06:24:23Z</time>
      </trkpt>
      <trkpt lat="27.929768" lon="86.804781">
        <ele>4737.985</ele>
        <time>2019-05-22T06:26:54Z</time>
      </trkpt>
      <trkpt lat="27.927020" lon="86.804469">
        <ele>4639.442</ele>
        <time>2019-05-22T06:33:39Z</time>
      </trkpt>
      <trkpt lat="27.924098" lon="86.805094">
        <ele>4592.036</ele>
        <time>2019-05-22T06:38:26Z</time>
      </trkpt>
      <trkpt lat="27.923556" lon="86.805601">
        <ele>4569.727</ele>
        <time>2019-05-22T06:43:35Z</time>
      </trkpt>
      <trkpt lat="27.923496" lon="86.806314">
        <ele>4552.087</ele>
        <time>2019-05-22T07:05:01Z</time>
      </trkpt>
      <trkpt lat="27.924490" lon="86.806972">
        <ele>4573.924</ele>
        <time>2019-05-22T07:14:33Z</time>
      </trkpt>
      <trkpt lat="27.922389" lon="86.807522">
        <ele>4565.804</ele>
        <time>2019-05-22T07:20:36Z</time>
      </trkpt>
      <trkpt lat="27.919333" lon="86.806656">
        <ele>4499.614</ele>
        <time>2019-05-22T07:26:00Z</time>
      </trkpt>
      <trkpt lat="27.917138" lon="86.805418">
        <ele>4432.208</ele>
        <time>2019-05-22T07:32:35Z</time>
      </trkpt>
      <trkpt lat="27.915844" lon="86.805880">
        <ele>4391.915</ele>
        <time>2019-05-22T07:36:51Z</time>
      </trkpt>
      <trkpt lat="27.914525" lon="86.807053">
        <ele>4363.338</ele>
        <time>2019-05-22T07:40:04Z</time>
      </trkpt>
      <trkpt lat="27.912223" lon="86.808030">
        <ele>4338.039</ele>
        <time>2019-05-22T07:44:35Z</time>
      </trkpt>
      <trkpt lat="27.909709" lon="86.810138">
        <ele>4305.110</ele>
        <time>2019-05-22T07:50:10Z</time>
      </trkpt>
      <trkpt lat="27.908938" lon="86.810345">
        <ele>4304.037</ele>
        <time>2019-05-22T07:51:49Z</time>
      </trkpt>
      <trkpt lat="27.907899" lon="86.811529">
        <ele>4294.151</ele>
        <time>2019-05-22T07:54:10Z</time>
      </trkpt>
      <trkpt lat="27.905656" lon="86.812594">
        <ele>4279.422</ele>
        <time>2019-05-22T07:57:58Z</time>
      </trkpt>
      <trkpt lat="27.900822" lon="86.817085">
        <ele>4249.382</ele>
        <time>2019-05-22T08:07:43Z</time>
      </trkpt>
      <trkpt lat="27.897136" lon="86.819385">
        <ele>4248.192</ele>
        <time>2019-05-22T08:14:00Z</time>
      </trkpt>
      <trkpt lat="27.894835" lon="86.819899">
        <ele>4231.773</ele>
        <time>2019-05-22T08:17:29Z</time>
      </trkpt>
      <trkpt lat="27.890878" lon="86.820041">
        <ele>4211.720</ele>
        <time>2019-05-22T09:38:14Z</time>
      </trkpt>
      <trkpt lat="27.887392" lon="86.818839">
        <ele>4211.508</ele>
        <time>2019-05-22T09:44:40Z</time>
      </trkpt>
      <trkpt lat="27.886788" lon="86.818185">
        <ele>4202.482</ele>
        <time>2019-05-22T09:46:47Z</time>
      </trkpt>
      <trkpt lat="27.884739" lon="86.818038">
        <ele>4212.745</ele>
        <time>2019-05-22T09:53:21Z</time>
      </trkpt>
      <trkpt lat="27.883040" lon="86.816241">
        <ele>4250.366</ele>
        <time>2019-05-22T10:04:41Z</time>
      </trkpt>
      <trkpt lat="27.882033" lon="86.815781">
        <ele>4223.657</ele>
        <time>2019-05-22T10:06:33Z</time>
      </trkpt>
      <trkpt lat="27.881342" lon="86.814125">
        <ele>4190.824</ele>
        <time>2019-05-22T10:09:36Z</time>
      </trkpt>
      <trkpt lat="27.879624" lon="86.814364">
        <ele>4169.878</ele>
        <time>2019-05-22T10:12:43Z</time>
      </trkpt>
      <trkpt lat="27.878312" lon="86.813779">
        <ele>4144.689</ele>
        <time>2019-05-22T10:18:03Z</time>
      </trkpt>
      <trkpt lat="27.877013" lon="86.814006">
        <ele>4125.339</ele>
        <time>2019-05-22T10:20:14Z</time>
      </trkpt>
      <trkpt lat="27.874654" lon="86.812936">
        <ele>4097.648</ele>
        <time>2019-05-22T10:26:24Z</time>
      </trkpt>
      <trkpt lat="27.871963" lon="86.812614">
        <ele>4073.761</ele>
        <time>2019-05-22T10:30:47Z</time>
      </trkpt>
      <trkpt lat="27.868813" lon="86.809663">
        <ele>4064.617</ele>
        <time>2019-05-22T10:37:53Z</time>
      </trkpt>
      <trkpt lat="27.868040" lon="86.807465">
        <ele>4058.408</ele>
        <time>2019-05-22T10:41:21Z</time>
      </trkpt>
      <trkpt lat="27.867795" lon="86.805267">
        <ele>4039.457</ele>
        <time>2019-05-22T10:45:20Z</time>
      </trkpt>
      <trkpt lat="27.866866" lon="86.803495">
        <ele>4000.910</ele>
        <time>2019-05-22T10:48:56Z</time>
      </trkpt>
      <trkpt lat="27.863873" lon="86.800705">
        <ele>3955.531</ele>
        <time>2019-05-22T10:56:07Z</time>
      </trkpt>
      <trkpt lat="27.860684" lon="86.795729">
        <ele>3953.172</ele>
        <time>2019-05-22T11:10:01Z</time>
      </trkpt>
      <trkpt lat="27.855990" lon="86.793218">
        <ele>3915.449</ele>
        <time>2019-05-22T11:18:36Z</time>
      </trkpt>
      <trkpt lat="27.856287" lon="86.792223">
        <ele>3903.663</ele>
        <time>2019-05-23T03:30:23Z</time>
      </trkpt>
      <trkpt lat="27.854367" lon="86.790434">
        <ele>3866.054</ele>
        <time>2019-05-23T03:34:44Z</time>
      </trkpt>
      <trkpt lat="27.853610" lon="86.788583">
        <ele>3857.534</ele>
        <time>2019-05-23T03:37:41Z</time>
      </trkpt>
      <trkpt lat="27.853803" lon="86.787794">
        <ele>3868.078</ele>
        <time>2019-05-23T03:39:01Z</time>
      </trkpt>
      <trkpt lat="27.853046" lon="86.785862">
        <ele>3870.133</ele>
        <time>2019-05-23T03:42:27Z</time>
      </trkpt>
      <trkpt lat="27.853258" lon="86.785332">
        <ele>3862.026</ele>
        <time>2019-05-23T03:43:22Z</time>
      </trkpt>
      <trkpt lat="27.851341" lon="86.783280">
        <ele>3807.708</ele>
        <time>2019-05-23T03:51:06Z</time>
      </trkpt>
      <trkpt lat="27.850338" lon="86.779700">
        <ele>3751.830</ele>
        <time>2019-05-23T04:00:30Z</time>
      </trkpt>
      <trkpt lat="27.848863" lon="86.779497">
        <ele>3730.513</ele>
        <time>2019-05-23T04:07:07Z</time>
      </trkpt>
      <trkpt lat="27.843471" lon="86.776541">
        <ele>3716.094</ele>
        <time>2019-05-23T04:17:21Z</time>
      </trkpt>
      <trkpt lat="27.842952" lon="86.774914">
        <ele>3717.565</ele>
        <time>2019-05-23T04:23:19Z</time>
      </trkpt>
      <trkpt lat="27.839504" lon="86.771040">
        <ele>3692.882</ele>
        <time>2019-05-23T04:31:52Z</time>
      </trkpt>
      <trkpt lat="27.838634" lon="86.768837">
        <ele>3707.676</ele>
        <time>2019-05-23T04:36:31Z</time>
      </trkpt>
      <trkpt lat="27.837727" lon="86.768469">
        <ele>3728.767</ele>
        <time>2019-05-23T04:43:32Z</time>
      </trkpt>
      <trkpt lat="27.837422" lon="86.766307">
        <ele>3783.957</ele>
        <time>2019-05-23T04:51:08Z</time>
      </trkpt>
      <trkpt lat="27.836574" lon="86.765755">
        <ele>3794.658</ele>
        <time>2019-05-23T04:54:36Z</time>
      </trkpt>
      <trkpt lat="27.835822" lon="86.764406">
        <ele>3823.452</ele>
        <time>2019-05-23T05:04:03Z</time>
      </trkpt>
      <trkpt lat="27.835153" lon="86.764330">
        <ele>3820.017</ele>
        <time>2019-05-23T05:06:13Z</time>
      </trkpt>
      <trkpt lat="27.834960" lon="86.762032">
        <ele>3765.208</ele>
        <time>2019-05-23T05:11:26Z</time>
      </trkpt>
      <trkpt lat="27.835396" lon="86.754503">
        <ele>3610.368</ele>
        <time>2019-05-23T05:24:35Z</time>
      </trkpt>
      <trkpt lat="27.835276" lon="86.754197">
        <ele>3599.041</ele>
        <time>2019-05-23T05:26:06Z</time>
      </trkpt>
      <trkpt lat="27.834892" lon="86.754679">
        <ele>3578.222</ele>
        <time>2019-05-23T05:27:22Z</time>
      </trkpt>
      <trkpt lat="27.834787" lon="86.753292">
        <ele>3541.853</ele>
        <time>2019-05-23T05:30:14Z</time>
      </trkpt>
      <trkpt lat="27.834668" lon="86.753573">
        <ele>3534.140</ele>
        <time>2019-05-23T05:30:57Z</time>
      </trkpt>
      <trkpt lat="27.834003" lon="86.752366">
        <ele>3471.984</ele>
        <time>2019-05-23T05:39:47Z</time>
      </trkpt>
      <trkpt lat="27.833781" lon="86.750580">
        <ele>3426.955</ele>
        <time>2019-05-23T05:43:35Z</time>
      </trkpt>
      <trkpt lat="27.833511" lon="86.750878">
        <ele>3415.355</ele>
        <time>2019-05-23T05:44:39Z</time>
      </trkpt>
      <trkpt lat="27.833349" lon="86.749955">
        <ele>3394.572</ele>
        <time>2019-05-23T05:46:45Z</time>
      </trkpt>
      <trkpt lat="27.832994" lon="86.750149">
        <ele>3379.913</ele>
        <time>2019-05-23T05:48:15Z</time>
      </trkpt>
      <trkpt lat="27.832478" lon="86.748298">
        <ele>3316.914</ele>
        <time>2019-05-23T05:52:33Z</time>
      </trkpt>
      <trkpt lat="27.832574" lon="86.747061">
        <ele>3301.208</ele>
        <time>2019-05-23T05:54:46Z</time>
      </trkpt>
      <trkpt lat="27.831734" lon="86.746325">
        <ele>3270.860</ele>
        <time>2019-05-23T05:57:35Z</time>
      </trkpt>
      <trkpt lat="27.832292" lon="86.745056">
        <ele>3269.893</ele>
        <time>2019-05-23T06:01:38Z</time>
      </trkpt>
      <trkpt lat="27.832348" lon="86.745315">
        <ele>3271.044</ele>
        <time>2019-05-23T06:09:18Z</time>
      </trkpt>
      <trkpt lat="27.830909" lon="86.744541">
        <ele>3295.375</ele>
        <time>2019-05-23T06:15:59Z</time>
      </trkpt>
      <trkpt lat="27.830493" lon="86.742946">
        <ele>3363.792</ele>
        <time>2019-05-23T06:28:15Z</time>
      </trkpt>
      <trkpt lat="27.829886" lon="86.742556">
        <ele>3385.596</ele>
        <time>2019-05-23T06:31:49Z</time>
      </trkpt>
      <trkpt lat="27.829990" lon="86.741187">
        <ele>3386.517</ele>
        <time>2019-05-23T06:39:14Z</time>
      </trkpt>
      <trkpt lat="27.829477" lon="86.740382">
        <ele>3385.937</ele>
        <time>2019-05-23T06:41:03Z</time>
      </trkpt>
      <trkpt lat="27.830043" lon="86.739664">
        <ele>3378.425</ele>
        <time>2019-05-23T06:42:36Z</time>
      </trkpt>
      <trkpt lat="27.829931" lon="86.739216">
        <ele>3395.826</ele>
        <time>2019-05-23T06:43:51Z</time>
      </trkpt>
      <trkpt lat="27.828851" lon="86.738987">
        <ele>3412.708</ele>
        <time>2019-05-23T06:47:39Z</time>
      </trkpt>
      <trkpt lat="27.828917" lon="86.738063">
        <ele>3432.408</ele>
        <time>2019-05-23T06:49:59Z</time>
      </trkpt>
      <trkpt lat="27.828666" lon="86.737702">
        <ele>3445.215</ele>
        <time>2019-05-23T06:51:08Z</time>
      </trkpt>
      <trkpt lat="27.828395" lon="86.737870">
        <ele>3451.178</ele>
        <time>2019-05-23T06:54:32Z</time>
      </trkpt>
      <trkpt lat="27.828139" lon="86.736168">
        <ele>3504.019</ele>
        <time>2019-05-23T07:02:18Z</time>
      </trkpt>
      <trkpt lat="27.826660" lon="86.735773">
        <ele>3518.030</ele>
        <time>2019-05-23T07:05:48Z</time>
      </trkpt>
      <trkpt lat="27.826019" lon="86.734942">
        <ele>3521.337</ele>
        <time>2019-05-23T07:20:13Z</time>
      </trkpt>
      <trkpt lat="27.825472" lon="86.733507">
        <ele>3518.961</ele>
        <time>2019-05-23T07:24:03Z</time>
      </trkpt>
      <trkpt lat="27.825937" lon="86.731306">
        <ele>3539.142</ele>
        <time>2019-05-23T07:30:28Z</time>
      </trkpt>
      <trkpt lat="27.825004" lon="86.729237">
        <ele>3549.732</ele>
        <time>2019-05-23T07:39:19Z</time>
      </trkpt>
      <trkpt lat="27.824376" lon="86.729237">
        <ele>3557.374</ele>
        <time>2019-05-23T07:41:33Z</time>
      </trkpt>
      <trkpt lat="27.823319" lon="86.730997">
        <ele>3566.856</ele>
        <time>2019-05-23T07:45:29Z</time>
      </trkpt>
      <trkpt lat="27.821098" lon="86.731871">
        <ele>3588.421</ele>
        <time>2019-05-23T08:46:57Z</time>
      </trkpt>
      <trkpt lat="27.820121" lon="86.731384">
        <ele>3587.408</ele>
        <time>2019-05-23T08:51:08Z</time>
      </trkpt>
      <trkpt lat="27.818023" lon="86.731679">
        <ele>3551.940</ele>
        <time>2019-05-23T08:55:40Z</time>
      </trkpt>
      <trkpt lat="27.816741" lon="86.730628">
        <ele>3564.063</ele>
        <time>2019-05-23T08:58:38Z</time>
      </trkpt>
      <trkpt lat="27.816120" lon="86.730870">
        <ele>3573.874</ele>
        <time>2019-05-23T08:59:59Z</time>
      </trkpt>
      <trkpt lat="27.815191" lon="86.728261">
        <ele>3552.155</ele>
        <time>2019-05-23T09:06:32Z</time>
      </trkpt>
      <trkpt lat="27.814679" lon="86.727725">
        <ele>3546.622</ele>
        <time>2019-05-23T09:08:06Z</time>
      </trkpt>
      <trkpt lat="27.813362" lon="86.727760">
        <ele>3554.646</ele>
        <time>2019-05-23T09:10:47Z</time>
      </trkpt>
      <trkpt lat="27.813180" lon="86.726665">
        <ele>3547.747</ele>
        <time>2019-05-23T09:13:57Z</time>
      </trkpt>
      <trkpt lat="27.812287" lon="86.725851">
        <ele>3548.357</ele>
        <time>2019-05-23T09:16:14Z</time>
      </trkpt>
      <trkpt lat="27.812593" lon="86.725265">
        <ele>3539.987</ele>
        <time>2019-05-23T09:17:37Z</time>
      </trkpt>
      <trkpt lat="27.812239" lon="86.723779">
        <ele>3521.842</ele>
        <time>2019-05-23T09:20:01Z</time>
      </trkpt>
      <trkpt lat="27.810749" lon="86.722296">
        <ele>3522.826</ele>
        <time>2019-05-23T09:23:39Z</time>
      </trkpt>
      <trkpt lat="27.809286" lon="86.722502">
        <ele>3543.608</ele>
        <time>2019-05-23T09:31:12Z</time>
      </trkpt>
      <trkpt lat="27.809269" lon="86.721437">
        <ele>3531.781</ele>
        <time>2019-05-23T09:32:47Z</time>
      </trkpt>
      <trkpt lat="27.807927" lon="86.720942">
        <ele>3533.664</ele>
        <time>2019-05-23T09:35:13Z</time>
      </trkpt>
      <trkpt lat="27.807640" lon="86.719673">
        <ele>3514.795</ele>
        <time>2019-05-23T09:37:39Z</time>
      </trkpt>
      <trkpt lat="27.806176" lon="86.719680">
        <ele>3518.026</ele>
        <time>2019-05-23T09:42:24Z</time>
      </trkpt>
      <trkpt lat="27.805409" lon="86.719279">
        <ele>3518.473</ele>
        <time>2019-05-23T09:44:28Z</time>
      </trkpt>
      <trkpt lat="27.805336" lon="86.717515">
        <ele>3519.967</ele>
        <time>2019-05-23T09:47:24Z</time>
      </trkpt>
      <trkpt lat="27.806251" lon="86.715418">
        <ele>3505.948</ele>
        <time>2019-05-23T09:50:56Z</time>
      </trkpt>
      <trkpt lat="27.805166" lon="86.713336">
        <ele>3504.038</ele>
        <time>2019-05-23T09:54:50Z</time>
      </trkpt>
      <trkpt lat="27.804480" lon="86.712796">
        <ele>3476.247</ele>
        <time>2019-05-23T09:58:19Z</time>
      </trkpt>
      <trkpt lat="27.803971" lon="86.711011">
        <ele>3418.929</ele>
        <time>2019-05-23T10:06:56Z</time>
      </trkpt>
      <trkpt lat="27.803082" lon="86.710222">
        <ele>3390.521</ele>
        <time>2019-05-23T10:10:23Z</time>
      </trkpt>
      <trkpt lat="27.802587" lon="86.710229">
        <ele>3382.308</ele>
        <time>2019-05-23T10:12:04Z</time>
      </trkpt>
      <trkpt lat="27.802166" lon="86.711236">
        <ele>3351.817</ele>
        <time>2019-05-23T10:15:43Z</time>
      </trkpt>
      <trkpt lat="27.801127" lon="86.711330">
        <ele>3328.910</ele>
        <time>2019-05-23T10:17:56Z</time>
      </trkpt>
      <trkpt lat="27.799493" lon="86.710699">
        <ele>3298.071</ele>
        <time>2019-05-23T10:33:36Z</time>
      </trkpt>
      <trkpt lat="27.798691" lon="86.711847">
        <ele>3281.772</ele>
        <time>2019-05-23T10:37:18Z</time>
      </trkpt>
      <trkpt lat="27.797674" lon="86.711701">
        <ele>3272.089</ele>
        <time>2019-05-23T10:39:14Z</time>
      </trkpt>
      <trkpt lat="27.795900" lon="86.713706">
        <ele>3205.333</ele>
        <time>2019-05-23T10:45:54Z</time>
      </trkpt>
      <trkpt lat="27.795847" lon="86.714533">
        <ele>3187.694</ele>
        <time>2019-05-23T10:48:09Z</time>
      </trkpt>
      <trkpt lat="27.795194" lon="86.714927">
        <ele>3153.594</ele>
        <time>2019-05-23T10:51:25Z</time>
      </trkpt>
      <trkpt lat="27.795106" lon="86.715411">
        <ele>3151.447</ele>
        <time>2019-05-23T10:52:32Z</time>
      </trkpt>
      <trkpt lat="27.793131" lon="86.716000">
        <ele>3088.629</ele>
        <time>2019-05-23T11:06:50Z</time>
      </trkpt>
      <trkpt lat="27.793108" lon="86.715590">
        <ele>3073.921</ele>
        <time>2019-05-23T11:08:22Z</time>
      </trkpt>
      <trkpt lat="27.792064" lon="86.715791">
        <ele>3027.808</ele>
        <time>2019-05-23T11:12:20Z</time>
      </trkpt>
      <trkpt lat="27.791503" lon="86.716660">
        <ele>3002.457</ele>
        <time>2019-05-23T11:14:23Z</time>
      </trkpt>
      <trkpt lat="27.791473" lon="86.717622">
        <ele>2979.310</ele>
        <time>2019-05-23T11:18:07Z</time>
      </trkpt>
      <trkpt lat="27.790864" lon="86.717471">
        <ele>2933.531</ele>
        <time>2019-05-23T11:28:28Z</time>
      </trkpt>
      <trkpt lat="27.790233" lon="86.718187">
        <ele>2888.322</ele>
        <time>2019-05-23T11:33:32Z</time>
      </trkpt>
      <trkpt lat="27.790161" lon="86.719641">
        <ele>2880.669</ele>
        <time>2019-05-23T11:39:27Z</time>
      </trkpt>
      <trkpt lat="27.787712" lon="86.720457">
        <ele>2910.133</ele>
        <time>2019-05-23T11:47:27Z</time>
      </trkpt>
      <trkpt lat="27.787308" lon="86.721729">
        <ele>2903.814</ele>
        <time>2019-05-23T11:51:10Z</time>
      </trkpt>
      <trkpt lat="27.786220" lon="86.722720">
        <ele>2890.814</ele>
        <time>2019-05-23T11:54:10Z</time>
      </trkpt>
      <trkpt lat="27.785838" lon="86.722535">
        <ele>2878.844</ele>
        <time>2019-05-23T11:56:23Z</time>
      </trkpt>
      <trkpt lat="27.784568" lon="86.723226">
        <ele>2880.805</ele>
        <time>2019-05-23T11:59:57Z</time>
      </trkpt>
      <trkpt lat="27.784321" lon="86.723751">
        <ele>2870.915</ele>
        <time>2019-05-23T12:00:54Z</time>
      </trkpt>
      <trkpt lat="27.781489" lon="86.723640">
        <ele>2806.508</ele>
        <time>2019-05-23T12:18:16Z</time>
      </trkpt>
      <trkpt lat="27.780679" lon="86.723110">
        <ele>2789.727</ele>
        <time>2019-05-23T12:21:52Z</time>
      </trkpt>
      <trkpt lat="27.780362" lon="86.722246">
        <ele>2766.590</ele>
        <time>2019-05-23T12:24:38Z</time>
      </trkpt>
      <trkpt lat="27.778944" lon="86.722435">
        <ele>2759.651</ele>
        <time>2019-05-23T12:28:03Z</time>
      </trkpt>
      <trkpt lat="27.776985" lon="86.721056">
        <ele>2764.872</ele>
        <time>2019-05-23T12:34:46Z</time>
      </trkpt>
      <trkpt lat="27.776418" lon="86.722162">
        <ele>2746.679</ele>
        <time>2019-05-23T12:38:01Z</time>
      </trkpt>
      <trkpt lat="27.774844" lon="86.721968">
        <ele>2735.913</ele>
        <time>2019-05-23T12:42:46Z</time>
      </trkpt>
      <trkpt lat="27.774765" lon="86.721638">
        <ele>2749.384</ele>
        <time>2019-05-23T12:44:30Z</time>
      </trkpt>
      <trkpt lat="27.772816" lon="86.722938">
        <ele>2772.064</ele>
        <time>2019-05-23T12:56:42Z</time>
      </trkpt>
      <trkpt lat="27.771688" lon="86.722627">
        <ele>2765.679</ele>
        <time>2019-05-23T12:59:00Z</time>
      </trkpt>
      <trkpt lat="27.771267" lon="86.723197">
        <ele>2767.705</ele>
        <time>2019-05-23T13:00:59Z</time>
      </trkpt>
      <trkpt lat="27.770140" lon="86.723652">
        <ele>2736.825</ele>
        <time>2019-05-24T04:18:25Z</time>
      </trkpt>
      <trkpt lat="27.770120" lon="86.724379">
        <ele>2748.808</ele>
        <time>2019-05-24T04:20:56Z</time>
      </trkpt>
      <trkpt lat="27.768840" lon="86.723105">
        <ele>2750.860</ele>
        <time>2019-05-24T04:29:21Z</time>
      </trkpt>
      <trkpt lat="27.766134" lon="86.723518">
        <ele>2722.233</ele>
        <time>2019-05-24T04:34:30Z</time>
      </trkpt>
      <trkpt lat="27.764112" lon="86.721897">
        <ele>2693.754</ele>
        <time>2019-05-24T04:39:47Z</time>
      </trkpt>
      <trkpt lat="27.764203" lon="86.719958">
        <ele>2693.185</ele>
        <time>2019-05-24T04:43:55Z</time>
      </trkpt>
      <trkpt lat="27.763871" lon="86.719949">
        <ele>2689.892</ele>
        <time>2019-05-24T04:44:52Z</time>
      </trkpt>
      <trkpt lat="27.763059" lon="86.718092">
        <ele>2662.866</ele>
        <time>2019-05-24T04:48:10Z</time>
      </trkpt>
      <trkpt lat="27.761304" lon="86.716092">
        <ele>2666.047</ele>
        <time>2019-05-24T04:52:37Z</time>
      </trkpt>
      <trkpt lat="27.761590" lon="86.714748">
        <ele>2666.947</ele>
        <time>2019-05-24T04:55:13Z</time>
      </trkpt>
      <trkpt lat="27.762075" lon="86.714556">
        <ele>2680.798</ele>
        <time>2019-05-24T04:57:34Z</time>
      </trkpt>
      <trkpt lat="27.761412" lon="86.713546">
        <ele>2689.115</ele>
        <time>2019-05-24T05:04:43Z</time>
      </trkpt>
      <trkpt lat="27.761741" lon="86.712826">
        <ele>2685.226</ele>
        <time>2019-05-24T05:06:25Z</time>
      </trkpt>
      <trkpt lat="27.759306" lon="86.710157">
        <ele>2688.708</ele>
        <time>2019-05-24T05:14:15Z</time>
      </trkpt>
      <trkpt lat="27.758438" lon="86.709915">
        <ele>2679.992</ele>
        <time>2019-05-24T05:16:50Z</time>
      </trkpt>
      <trkpt lat="27.756273" lon="86.709896">
        <ele>2644.785</ele>
        <time>2019-05-24T05:23:06Z</time>
      </trkpt>
      <trkpt lat="27.755213" lon="86.710492">
        <ele>2648.646</ele>
        <time>2019-05-24T05:25:34Z</time>
      </trkpt>
      <trkpt lat="27.752620" lon="86.710537">
        <ele>2656.567</ele>
        <time>2019-05-24T05:30:49Z</time>
      </trkpt>
      <trkpt lat="27.752145" lon="86.709806">
        <ele>2663.494</ele>
        <time>2019-05-24T05:32:38Z</time>
      </trkpt>
      <trkpt lat="27.751930" lon="86.710512">
        <ele>2660.028</ele>
        <time>2019-05-24T05:34:08Z</time>
      </trkpt>
      <trkpt lat="27.748672" lon="86.712507">
        <ele>2627.469</ele>
        <time>2019-05-24T05:41:45Z</time>
      </trkpt>
      <trkpt lat="27.746315" lon="86.712056">
        <ele>2613.069</ele>
        <time>2019-05-24T05:46:10Z</time>
      </trkpt>
      <trkpt lat="27.745458" lon="86.712648">
        <ele>2615.331</ele>
        <time>2019-05-24T05:47:48Z</time>
      </trkpt>
      <trkpt lat="27.743770" lon="86.712375">
        <ele>2596.961</ele>
        <time>2019-05-24T05:51:00Z</time>
      </trkpt>
      <trkpt lat="27.743411" lon="86.713837">
        <ele>2580.207</ele>
        <time>2019-05-24T05:57:26Z</time>
      </trkpt>
      <trkpt lat="27.742087" lon="86.713702">
        <ele>2556.508</ele>
        <time>2019-05-24T06:00:12Z</time>
      </trkpt>
      <trkpt lat="27.741788" lon="86.713053">
        <ele>2574.276</ele>
        <time>2019-05-24T06:01:12Z</time>
      </trkpt>
      <trkpt lat="27.738671" lon="86.711919">
        <ele>2582.829</ele>
        <time>2019-05-24T06:09:48Z</time>
      </trkpt>
      <trkpt lat="27.737415" lon="86.712384">
        <ele>2550.580</ele>
        <time>2019-05-24T06:12:05Z</time>
      </trkpt>
      <trkpt lat="27.735999" lon="86.711807">
        <ele>2551.491</ele>
        <time>2019-05-24T06:15:42Z</time>
      </trkpt>
      <trkpt lat="27.730695" lon="86.713775">
        <ele>2538.378</ele>
        <time>2019-05-24T06:28:13Z</time>
      </trkpt>
      <trkpt lat="27.729021" lon="86.713448">
        <ele>2545.722</ele>
        <time>2019-05-24T06:35:11Z</time>
      </trkpt>
      <trkpt lat="27.726756" lon="86.714405">
        <ele>2562.463</ele>
        <time>2019-05-24T06:41:51Z</time>
      </trkpt>
      <trkpt lat="27.724362" lon="86.714738">
        <ele>2521.893</ele>
        <time>2019-05-24T06:47:17Z</time>
      </trkpt>
      <trkpt lat="27.722833" lon="86.714328">
        <ele>2516.073</ele>
        <time>2019-05-24T06:49:45Z</time>
      </trkpt>
      <trkpt lat="27.720343" lon="86.714577">
        <ele>2536.885</ele>
        <time>2019-05-24T06:55:19Z</time>
      </trkpt>
      <trkpt lat="27.718599" lon="86.713825">
        <ele>2541.813</ele>
        <time>2019-05-24T06:58:28Z</time>
      </trkpt>
      <trkpt lat="27.718434" lon="86.716051">
        <ele>2500.808</ele>
        <time>2019-05-24T07:03:01Z</time>
      </trkpt>
      <trkpt lat="27.715631" lon="86.714182">
        <ele>2532.420</ele>
        <time>2019-05-24T07:10:57Z</time>
      </trkpt>
      <trkpt lat="27.714797" lon="86.714514">
        <ele>2551.323</ele>
        <time>2019-05-24T07:15:14Z</time>
      </trkpt>
      <trkpt lat="27.713224" lon="86.714114">
        <ele>2576.464</ele>
        <time>2019-05-24T07:25:02Z</time>
      </trkpt>
      <trkpt lat="27.712682" lon="86.713509">
        <ele>2586.935</ele>
        <time>2019-05-24T07:28:40Z</time>
      </trkpt>
      <trkpt lat="27.711307" lon="86.714395">
        <ele>2623.982</ele>
        <time>2019-05-24T07:33:54Z</time>
      </trkpt>
      <trkpt lat="27.709630" lon="86.714766">
        <ele>2648.636</ele>
        <time>2019-05-24T07:41:57Z</time>
      </trkpt>
      <trkpt lat="27.708828" lon="86.715582">
        <ele>2649.377</ele>
        <time>2019-05-24T07:43:48Z</time>
      </trkpt>
      <trkpt lat="27.707843" lon="86.715913">
        <ele>2647.787</ele>
        <time>2019-05-24T07:45:47Z</time>
      </trkpt>
      <trkpt lat="27.707564" lon="86.716565">
        <ele>2645.156</ele>
        <time>2019-05-24T07:47:22Z</time>
      </trkpt>
      <trkpt lat="27.706491" lon="86.716339">
        <ele>2645.759</ele>
        <time>2019-05-24T07:49:34Z</time>
      </trkpt>
      <trkpt lat="27.704382" lon="86.719020">
        <ele>2644.114</ele>
        <time>2019-05-24T07:56:54Z</time>
      </trkpt>
      <trkpt lat="27.703821" lon="86.717755">
        <ele>2649.008</ele>
        <time>2019-05-24T07:59:24Z</time>
      </trkpt>
      <trkpt lat="27.702370" lon="86.717233">
        <ele>2656.678</ele>
        <time>2019-05-24T08:02:32Z</time>
      </trkpt>
      <trkpt lat="27.701614" lon="86.719405">
        <ele>2662.111</ele>
        <time>2019-05-24T08:06:53Z</time>
      </trkpt>
      <trkpt lat="27.697716" lon="86.723225">
        <ele>2680.672</ele>
        <time>2019-05-24T08:17:54Z</time>
      </trkpt>
      <trkpt lat="27.696348" lon="86.725490">
        <ele>2714.093</ele>
        <time>2019-05-24T08:26:38Z</time>
      </trkpt>
      <trkpt lat="27.693925" lon="86.727283">
        <ele>2775.540</ele>
        <time>2019-05-24T08:41:00Z</time>
      </trkpt>
      <trkpt lat="27.693340" lon="86.728514">
        <ele>2775.964</ele>
        <time>2019-05-24T08:43:33Z</time>
      </trkpt>
      <trkpt lat="27.692718" lon="86.728035">
        <ele>2785.855</ele>
        <time>2019-05-24T08:46:07Z</time>
      </trkpt>
      <trkpt lat="27.691951" lon="86.728100">
        <ele>2807.475</ele>
        <time>2019-05-24T08:49:48Z</time>
      </trkpt>
      <trkpt lat="27.690158" lon="86.729027">
        <ele>2819.611</ele>
        <time>2019-05-24T08:54:29Z</time>
      </trkpt>
      <trkpt lat="27.689127" lon="86.730341">
        <ele>2807.621</ele>
        <time>2019-05-24T08:56:59Z</time>
      </trkpt>
    </trkseg>
  </trk></gpx>